id,title,keyword,X,Y,road_address,place_url,
26563924,동네골목길관광코스 북촌코스,관광명소,126.9842724,37.58185908,서울 종로구 가회동,http://place.map.kakao.com/26563924,
26563934,서울도보관광코스 북촌한옥마을,관광명소,126.9853004,37.58180516,서울 종로구 가회동,http://place.map.kakao.com/26563934,
1181917294,기당 현상윤선생집 터,관광명소,126.9855986,37.58545782,서울 종로구 가회동 1-35,http://place.map.kakao.com/1181917294,
756100910,대종교중광터,관광명소,126.9853953,37.582926,서울 종로구 가회동 10-3,http://place.map.kakao.com/756100910,
171169970,북촌한옥청,관광명소,126.9856489,37.58278188,서울 종로구 가회동 11-32,http://place.map.kakao.com/171169970,
12771984,김형태가옥,관광명소,126.9847386,37.58300881,서울 종로구 가회동 16-8,http://place.map.kakao.com/12771984,
852965854,손병희선생집터,관광명소,126.9848105,37.58024728,서울 종로구 가회동 170-4,http://place.map.kakao.com/852965854,
7950092,3.1독립운동기념터 손병희선생댁,관광명소,126.984558,37.58041393,서울 종로구 가회동 170-5,http://place.map.kakao.com/7950092,
8125339,가회동한씨가옥,관광명소,126.98569,37.58081051,서울 종로구 가회동 178,http://place.map.kakao.com/8125339,
781129546,북촌한옥마을,관광명소,126.9848125,37.58176815,서울 종로구 가회동 30-2,http://place.map.kakao.com/781129546,
8128616,이준구가옥,관광명소,126.9837331,37.5836646,서울 종로구 가회동 31-1,http://place.map.kakao.com/8128616,
27562153,심심헌,관광명소,126.9834571,37.58280682,서울 종로구 가회동 31-29,http://place.map.kakao.com/27562153,
7887672,가회동백인제가옥,관광명소,126.984173,37.58081752,서울 종로구 가회동 93-1,http://place.map.kakao.com/7887672,
26563921,동네골목길관광코스 종교문화유적길,관광명소,126.9828024,37.57400221,서울 종로구 견지동,http://place.map.kakao.com/26563921,
892517226,조선중앙일보터,관광명소,126.9832896,37.57235076,서울 종로구 견지동 111,http://place.map.kakao.com/892517226,
1148851345,한성도서주식회사터,관광명소,126.9826857,37.57479417,서울 종로구 견지동 32-3,http://place.map.kakao.com/1148851345,
11067766,민영환의집터,관광명소,126.98273,37.57411032,서울 종로구 견지동 38-2,http://place.map.kakao.com/11067766,
211707841,우정총국 회화나무,관광명소,126.9826179,37.57429681,서울 종로구 견지동 39-17,http://place.map.kakao.com/211707841,
1198228236,우정총국,관광명소,126.9826224,37.57440673,서울 종로구 견지동 39-7,http://place.map.kakao.com/1198228236,
750414520,전의감터,관광명소,126.9827208,37.57438962,서울 종로구 견지동 39-7,http://place.map.kakao.com/750414520,
17572472,조계사 일주문,관광명소,126.9826213,37.57386884,서울 종로구 견지동 46-1,http://place.map.kakao.com/17572472,
12721136,조계사 백송,관광명소,126.9821708,37.5738976,서울 종로구 견지동 46-1,http://place.map.kakao.com/12721136,
473652542,불교계 법난 현장,관광명소,126.9827062,37.57389317,서울 종로구 견지동 46-1,http://place.map.kakao.com/473652542,
19339320,조계사 8각10층부처님진신사리탑,관광명소,126.9818404,37.57347228,서울 종로구 견지동 46-1,http://place.map.kakao.com/19339320,
1138381079,사동궁터,관광명소,126.9838462,37.57373566,서울 종로구 견지동 85-18,http://place.map.kakao.com/1138381079,
1159842610,서북학회터,관광명소,126.987163,37.57398835,서울 종로구 경운동 49,http://place.map.kakao.com/1159842610,
7888449,경운동 민병옥 가옥,관광명소,126.9859855,37.57468198,서울 종로구 경운동 66-7,http://place.map.kakao.com/7888449,
919546941,이종일 집터,관광명소,126.9865402,37.57508209,서울 종로구 경운동 88,http://place.map.kakao.com/919546941,
836933686,어린이 권리선언 터,관광명소,126.9864869,37.57525237,서울 종로구 경운동 88,http://place.map.kakao.com/836933686,
548579093,개벽사 터,관광명소,126.9861665,37.57528567,서울 종로구 경운동 88,http://place.map.kakao.com/548579093,
1152547806,독립선언문배부터,관광명소,126.9864722,37.57523885,서울 종로구 경운동 88,http://place.map.kakao.com/1152547806,
913934484,세계어린이운동발상지 기념비,관광명소,126.9865718,37.57510822,서울 종로구 경운동 88-3,http://place.map.kakao.com/913934484,
1151661188,조선건국동맹터,관광명소,126.9863419,37.57575691,서울 종로구 경운동 89-2,http://place.map.kakao.com/1151661188,
568711784,구 통계국청사,관광명소,126.9858495,37.57596138,서울 종로구 경운동 90-3,http://place.map.kakao.com/568711784,
788017682,의학교 터,관광명소,126.9846982,37.57598826,서울 종로구 경운동 90-4,http://place.map.kakao.com/788017682,
13101403,석정보름우물,관광명소,126.986908,37.58219818,서울 종로구 계동,http://place.map.kakao.com/13101403,
1238694879,3.1운동 책원비,관광명소,126.987399,37.58368307,서울 종로구 계동 1,http://place.map.kakao.com/1238694879,
1182110869,노백린장군집 터,관광명소,126.987467,37.58378219,서울 종로구 계동 1,http://place.map.kakao.com/1182110869,
10840254,6.10만세기념비,관광명소,126.9868397,37.58400737,서울 종로구 계동 1,http://place.map.kakao.com/10840254,
8051705,김성수선생옛집,관광명소,126.9872161,37.58085033,서울 종로구 계동 132-1,http://place.map.kakao.com/8051705,
27427343,인촌고택,관광명소,126.9872116,37.58085753,서울 종로구 계동 132-1,http://place.map.kakao.com/27427343,
25038303,여운형집터,관광명소,126.987779,37.57942411,서울 종로구 계동 140-10,http://place.map.kakao.com/25038303,
751602368,제생원터,관광명소,126.986945,37.57737967,서울 종로구 계동 140-2,http://place.map.kakao.com/751602368,
8184355,관상감관천대,관광명소,126.9880091,37.57777622,서울 종로구 계동 140-2,http://place.map.kakao.com/8184355,
560659014,옛휘문고교터,관광명소,126.9873999,37.57840595,서울 종로구 계동 140-2,http://place.map.kakao.com/560659014,
904300064,홍증식집터,관광명소,126.9876058,37.57927002,서울 종로구 계동 140-49,http://place.map.kakao.com/904300064,
904794567,심우섭집터,관광명소,126.9874836,37.57926911,서울 종로구 계동 140-50,http://place.map.kakao.com/904794567,
766448394,승문원터,관광명소,126.986862,37.57926093,서울 종로구 계동 140-55,http://place.map.kakao.com/766448394,
898549859,한학수집터,관광명소,126.9866473,37.57754542,서울 종로구 계동 146-1,http://place.map.kakao.com/898549859,
25048901,경우궁터,관광명소,126.9866054,37.57732557,서울 종로구 계동 146-2,http://place.map.kakao.com/25048901,
26918954,계동궁터,관광명소,126.9872258,37.57738691,서울 종로구 계동 147-2,http://place.map.kakao.com/26918954,
1231421400,서울명예도로 고하길,관광명소,126.9873607,37.5830812,서울 종로구 계동 2-21,http://place.map.kakao.com/1231421400,
266058885,유심사터,관광명소,126.9870258,37.58150262,서울 종로구 계동 43,http://place.map.kakao.com/266058885,
7889869,계동배렴가옥,관광명소,126.98665,37.58128634,서울 종로구 계동 72,http://place.map.kakao.com/7889869,
1139097680,진단학회창립터,관광명소,126.9860445,37.58023932,서울 종로구 계동 98,http://place.map.kakao.com/1139097680,
26625231,민영환자결터,관광명소,126.9840311,37.57214363,서울 종로구 공평동 1,http://place.map.kakao.com/26625231,
25027904,의금부 터,관광명소,126.9822622,37.57052609,서울 종로구 공평동 100,http://place.map.kakao.com/25027904,
879152373,충무공 이순신 백의종군로 출발지,관광명소,126.9824546,37.57041079,서울 종로구 공평동 100-19,http://place.map.kakao.com/879152373,
836403827,근우회 터,관광명소,126.9832694,37.57141101,서울 종로구 공평동 17,http://place.map.kakao.com/836403827,
1085974696,육의전터,관광명소,126.9832617,37.57059381,서울 종로구 공평동 70-4,http://place.map.kakao.com/1085974696,
25730252,청계천,관광명소,126.9893056,37.56815011,서울 종로구 관수동,http://place.map.kakao.com/25730252,
1760146954,한국천주교회창립터 표지석,관광명소,126.989507,37.56836457,서울 종로구 관수동 152-2,http://place.map.kakao.com/1760146954,
22017010,굴보쌈골목,관광명소,126.99113,37.5699018,서울 종로구 관수동 43-2,http://place.map.kakao.com/22017010,
798012525,여행자지원센터 안내소,관광명소,126.9873484,37.5684031,서울 종로구 관철동 10-2,http://place.map.kakao.com/798012525,
1099532197,서울의료관광헬프데스크,관광명소,126.9871412,37.56862742,서울 종로구 관철동 10-2,http://place.map.kakao.com/1099532197,
1077299979,밤을 걷는 밤 14화(종로),관광명소,126.985991,37.56956613,서울 종로구 관철동 13-1,http://place.map.kakao.com/1077299979,
1158493656,조선일보창간사옥터,관광명소,126.9840397,37.56889734,서울 종로구 관철동 268,http://place.map.kakao.com/1158493656,
1075973848,대한천일은행본점터,관광명소,126.9840736,37.56888834,서울 종로구 관철동 268,http://place.map.kakao.com/1075973848,
839448202,척화비있던곳,관광명소,126.9834735,37.57002351,서울 종로구 관철동 291-2,http://place.map.kakao.com/839448202,
8138423,젊음의거리,관광명소,126.985733,37.56923453,서울 종로구 관철동 32,http://place.map.kakao.com/8138423,
27068488,한화불꽃길,관광명소,126.9880559,37.56817162,서울 종로구 관철동 37-9,http://place.map.kakao.com/27068488,
8182822,관철동불닭골목,관광명소,126.9844653,37.56903976,서울 종로구 관철동 42-3,http://place.map.kakao.com/8182822,
1131720825,3.1운동기념터 보신각앞,관광명소,126.9836773,37.56976225,서울 종로구 관철동 45-3,http://place.map.kakao.com/1131720825,
7899027,보신각터,관광명소,126.9836456,37.56976765,서울 종로구 관철동 45-5,http://place.map.kakao.com/7899027,
26563941,서울도보관광코스 인사동~운현궁코스,관광명소,126.9841699,37.57392672,서울 종로구 관훈동,http://place.map.kakao.com/26563941,
8053121,인사동거리,관광명소,126.985619,37.57336108,서울 종로구 관훈동,http://place.map.kakao.com/8053121,
1048516858,민주주의민족전선 사무실 터,관광명소,126.9842873,37.5755287,서울 종로구 관훈동 112-4,http://place.map.kakao.com/1048516858,
1048218411,옛 신민당 터,관광명소,126.9839024,37.57560974,서울 종로구 관훈동 117-2,http://place.map.kakao.com/1048218411,
889625100,충훈부터,관광명소,126.9838572,37.57546557,서울 종로구 관훈동 118-2,http://place.map.kakao.com/889625100,
10739841,북인사관광안내소,관광명소,126.9835085,37.57538984,서울 종로구 관훈동 130-3,http://place.map.kakao.com/10739841,
1073197038,한남서림 터,관광명소,126.9856178,37.57359894,서울 종로구 관훈동 18,http://place.map.kakao.com/1073197038,
11300694,이율곡선생살던집터,관광명소,126.9851074,37.57309792,서울 종로구 관훈동 197-28,http://place.map.kakao.com/11300694,
66105607,태화관길,관광명소,126.9853746,37.57275603,서울 종로구 관훈동 198-32,http://place.map.kakao.com/66105607,
1087652892,죽동궁 터,관광명소,126.9844498,37.57253111,서울 종로구 관훈동 198-42,http://place.map.kakao.com/1087652892,
21273056,인사동 문화의거리,관광명소,126.9855916,37.57454678,서울 종로구 관훈동 30-1,http://place.map.kakao.com/21273056,
26419371,정명당,관광명소,126.9857502,37.57417199,서울 종로구 관훈동 30-13,http://place.map.kakao.com/26419371,
7984319,쌈지길,관광명소,126.9847313,37.57435206,서울 종로구 관훈동 38,http://place.map.kakao.com/7984319,
1107278717,쌈지샛길,관광명소,126.9847268,37.57433044,서울 종로구 관훈동 38,http://place.map.kakao.com/1107278717,
25623277,낙원동아구찜거리,관광명소,126.9881185,37.57339379,서울 종로구 낙원동,http://place.map.kakao.com/25623277,
1859752981,서울명예도로 송해길,관광명소,126.9891692,37.57162434,서울 종로구 낙원동 146-2,http://place.map.kakao.com/1859752981,
8066861,조광조선생살던집터,관광명소,126.9875762,37.57369557,서울 종로구 낙원동 278-1,http://place.map.kakao.com/8066861,
133553180,락희거리,관광명소,126.9882771,37.5722117,서울 종로구 낙원동 289-7,http://place.map.kakao.com/133553180,
8080068,지석영선생집터,관광명소,126.9875569,37.57411273,서울 종로구 낙원동 5-2,http://place.map.kakao.com/8080068,
779729325,돈녕부터,관광명소,126.9888497,37.57400924,서울 종로구 낙원동 58-8,http://place.map.kakao.com/779729325,
924441213,돈의동갈매기살골목,관광명소,126.9908806,37.57312734,서울 종로구 돈의동,http://place.map.kakao.com/924441213,
565427508,김상옥열사의상,관광명소,127.0029978,37.58040409,서울 종로구 동숭동,http://place.map.kakao.com/565427508,
853306737,서울대문리대터,관광명소,127.0023605,37.58052393,서울 종로구 동숭동 1-124,http://place.map.kakao.com/853306737,
10139951,구서울대학교 본관,관광명소,127.0029571,37.57999324,서울 종로구 동숭동 1-130,http://place.map.kakao.com/10139951,
780362623,장경교터,관광명소,127.0025699,37.57974637,서울 종로구 동숭동 1-130,http://place.map.kakao.com/780362623,
7825699,대학로거리,관광명소,127.0034236,37.58265296,서울 종로구 동숭동 1-151,http://place.map.kakao.com/7825699,
237313598,안창호선생 흉상,관광명소,127.0021624,37.58229259,서울 종로구 동숭동 1-28,http://place.map.kakao.com/237313598,
8193420,구공업전습소 본관,관광명소,127.0026864,37.57853543,서울 종로구 동숭동 169-1,http://place.map.kakao.com/8193420,
1180286620,낙산정,관광명소,127.0077606,37.57987949,서울 종로구 동숭동 50-141,http://place.map.kakao.com/1180286620,
17980223,낙산공원 제2전망광장,관광명소,127.0067385,37.58247622,서울 종로구 동숭동 산 2-10,http://place.map.kakao.com/17980223,
17558075,낙산공원 제1전망광장,관광명소,127.0074087,37.58164726,서울 종로구 동숭동 산 2-32,http://place.map.kakao.com/17558075,
1167905903,3.1독립운동기념터 중앙학림,관광명소,126.9976902,37.5906574,서울 종로구 명륜1가 2-12,http://place.map.kakao.com/1167905903,
791141769,흥덕사터,관광명소,126.9981771,37.59057182,서울 종로구 명륜1가 2-42,http://place.map.kakao.com/791141769,
19700777,장면가옥,관광명소,126.9996286,37.58760486,서울 종로구 명륜1가 36-1,http://place.map.kakao.com/19700777,
8023185,우암송시열집터,관광명소,126.9969429,37.59070784,서울 종로구 명륜1가 5-99,http://place.map.kakao.com/8023185,
797004688,어유구집터,관광명소,127.0003215,37.58422344,서울 종로구 명륜2가 21-26,http://place.map.kakao.com/797004688,
765291339,경성여자의학전문학교터,관광명소,127.0004506,37.58496135,서울 종로구 명륜2가 4,http://place.map.kakao.com/765291339,
26558865,동네골목길관광코스 13코스(명륜동),관광명소,126.9959831,37.58423148,서울 종로구 명륜3가,http://place.map.kakao.com/26558865,
26563963,서울도보관광코스 성균관유생들의이야기,관광명소,126.9959241,37.58567306,서울 종로구 명륜3가,http://place.map.kakao.com/26563963,
8393139,숭보사,관광명소,126.9963951,37.58658128,서울 종로구 명륜3가 15-1,http://place.map.kakao.com/8393139,
12678084,종로관성묘,관광명소,126.9952084,37.58796516,서울 종로구 명륜3가 51,http://place.map.kakao.com/12678084,
17091814,성균관,관광명소,126.9958969,37.58582803,서울 종로구 명륜3가 53,http://place.map.kakao.com/17091814,
12721154,서울문묘의은행나무,관광명소,126.995906,37.58586768,서울 종로구 명륜3가 53,http://place.map.kakao.com/12721154,
8362509,서울문묘와성균관,관광명소,126.9955482,37.58586767,서울 종로구 명륜3가 53,http://place.map.kakao.com/8362509,
