place_name,category_group_name,category_name,x,y,road_address_name,place_url
장소이름:손기정기념관,문화시설,"문화,예술 > 문화시설 > 기념관",경도:126.96464679169269,위도:37.55569082707682,도로명주소:서울 중구 손기정로 101-4,웹링크:http://place.map.kakao.com/18478789
장소이름:페인터즈 서대문 전용관 (NH아트홀),문화시설,"문화,예술 > 문화시설 > 공연장,연극극장",경도:126.96757701216109,위도:37.56578553521637,도로명주소:서울 중구 통일로 120,웹링크:http://place.map.kakao.com/1465081202
장소이름:가톨릭 성음악아카데미 최양업홀,문화시설,"문화,예술 > 문화시설 > 공연장,연극극장",경도:126.96772150332816,위도:37.55882087140542,도로명주소:서울 중구 청파로 447-1,웹링크:http://place.map.kakao.com/17358734
장소이름:농협중앙회 쌀박물관,문화시설,"문화,예술 > 문화시설 > 박물관",경도:126.96778386357435,위도:37.56644602189297,도로명주소:서울 중구 새문안로 16,웹링크:http://place.map.kakao.com/17059143
장소이름:농업박물관,문화시설,"문화,예술 > 문화시설 > 박물관",경도:126.968329319115,위도:37.5667299831859,도로명주소:서울 중구 새문안로 16,웹링크:http://place.map.kakao.com/8226363
장소이름:청춘극장,문화시설,"문화,예술 > 영화,영상 > 영화관",경도:126.968664210245,위도:37.5670940748742,도로명주소:서울 중구 새문안로 22,웹링크:http://place.map.kakao.com/13498855
장소이름:문화일보홀,문화시설,"문화,예술 > 문화시설 > 공연장,연극극장",경도:126.968646123861,위도:37.567036406339,도로명주소:서울 중구 새문안로 22,웹링크:http://place.map.kakao.com/8987923
장소이름:아주갤러리,문화시설,"문화,예술 > 문화시설 > 미술관",경도:126.968804413732,위도:37.5674617182909,도로명주소:서울 중구 새문안로 26,웹링크:http://place.map.kakao.com/17066572
장소이름:서소문성지역사박물관,문화시설,"문화,예술 > 문화시설 > 박물관",경도:126.969644798536,위도:37.560641395397894,도로명주소:서울 중구 칠패로 5,웹링크:http://place.map.kakao.com/198489475
장소이름:국토발전전시관,문화시설,"문화,예술 > 문화시설 > 전시관",경도:126.97008485950153,위도:37.56683765958173,도로명주소:서울 중구 정동길 18,웹링크:http://place.map.kakao.com/1610551587
장소이름:허리우드스카이쇼공연장,문화시설,"문화,예술 > 문화시설 > 공연장,연극극장",경도:126.97023041601506,위도:37.56799187197225,도로명주소:서울 중구 정동길 3,웹링크:http://place.map.kakao.com/2102995894
장소이름:서울아트시네마,문화시설,"문화,예술 > 영화,영상 > 영화관",경도:126.96997000422864,위도:37.56816479719067,도로명주소:서울 중구 정동길 3,웹링크:http://place.map.kakao.com/26606071
장소이름:밸루션,문화시설,"문화,예술 > 문화시설 > 전시관",경도:126.969990376002,위도:37.5681720103361,도로명주소:서울 중구 정동길 3,웹링크:http://place.map.kakao.com/14867118
장소이름:서울유관순기념관,문화시설,"문화,예술 > 문화시설 > 기념관",경도:126.970299752309,위도:37.5644131334488,도로명주소:서울 중구 통일로4길 30-1,웹링크:http://place.map.kakao.com/7856720
장소이름:정동문화예술회관 정동A&C,문화시설,"문화,예술 > 문화시설 > 공연장,연극극장",경도:126.970964056141,위도:37.5675956165668,도로명주소:서울 중구 정동길 21-15,웹링크:http://place.map.kakao.com/8060842
장소이름:이화박물관,문화시설,"문화,예술 > 문화시설 > 박물관",경도:126.97144909650876,위도:37.56607665581958,도로명주소:서울 중구 정동길 26,웹링크:http://place.map.kakao.com/8557277
장소이름:문화역서울284,문화시설,"문화,예술 > 문화시설 > 전시관",경도:126.97162727684288,위도:37.55587561333548,도로명주소:서울 중구 통일로 1,웹링크:http://place.map.kakao.com/27299118
장소이름:문화역서울284 RTO공연장,문화시설,"문화,예술 > 문화시설 > 공연장,연극극장",경도:126.971597848869,위도:37.5558828142407,도로명주소:서울 중구 통일로 1,웹링크:http://place.map.kakao.com/139067352
장소이름:갤러리 터치,문화시설,"문화,예술 > 문화시설 > 미술관",경도:126.971899447233,위도:37.5604311202839,도로명주소:서울 중구 칠패로 27,웹링크:http://place.map.kakao.com/22580427
장소이름:영국문화원 분사무소,문화시설,"문화,예술 > 문화시설 > 문화원",경도:126.972079267039,위도:37.5638333260871,도로명주소:서울 중구 서소문로11길 19,웹링크:http://place.map.kakao.com/27375424
장소이름:배재학당역사박물관,문화시설,"문화,예술 > 문화시설 > 박물관",경도:126.972599859421,위도:37.5640064393478,도로명주소:서울 중구 서소문로11길 19,웹링크:http://place.map.kakao.com/12692417
장소이름:국립정동극장,문화시설,"문화,예술 > 문화시설 > 공연장,연극극장",경도:126.972775755916,위도:37.5658589281598,도로명주소:서울 중구 정동길 43,웹링크:http://place.map.kakao.com/8060966
장소이름:정동극장 야외마당,문화시설,"문화,예술 > 문화시설 > 공연장,연극극장",경도:126.972811963329,위도:37.5658949763444,도로명주소:서울 중구 정동길 43,웹링크:http://place.map.kakao.com/286548081
장소이름:고종의길,관광명소,"여행 > 관광,명소 > 테마거리",경도:126.972675463746,위도:37.5677363101102,도로명주소:서울 중구 덕수궁길 83,웹링크:http://place.map.kakao.com/450093031
장소이름:헬스케어 이노지움,문화시설,"문화,예술 > 문화시설 > 전시관",경도:126.97294486719,위도:37.5614585007978,도로명주소:서울 중구 세종대로9길 41,웹링크:http://place.map.kakao.com/1546828547
장소이름:서울시립미술관 서소문본관,문화시설,"문화,예술 > 문화시설 > 미술관",경도:126.973790543874,위도:37.5641076212639,도로명주소:서울 중구 덕수궁길 61,웹링크:http://place.map.kakao.com/10507051
장소이름:국립현대미술관 덕수궁,문화시설,"문화,예술 > 문화시설 > 미술관",경도:126.973740099183,위도:37.5659384342432,도로명주소:서울 중구 세종대로 99,웹링크:http://place.map.kakao.com/7836503
장소이름:구세군역사박물관,문화시설,"문화,예술 > 문화시설 > 박물관",경도:126.97394312358352,위도:37.56799455177643,도로명주소:서울 중구 덕수궁길 130,웹링크:http://place.map.kakao.com/1631116379
장소이름:그라운드시소 센트럴,문화시설,"문화,예술 > 문화시설 > 전시관",경도:126.974399370837,위도:37.5578314113011,도로명주소:서울 중구 세종대로 14,웹링크:http://place.map.kakao.com/1875653630
장소이름:자연문화원,문화시설,"문화,예술 > 문화시설 > 문화원",경도:126.974565752434,위도:37.5611272943056,도로명주소:서울 중구 세종대로9길 20,웹링크:http://place.map.kakao.com/8534402
장소이름:덕수궁,관광명소,"여행 > 관광,명소 > 문화유적 > 고궁,궁",경도:126.974894754989,위도:37.5655638710672,도로명주소:서울 중구 세종대로 99,웹링크:http://place.map.kakao.com/10305191
장소이름:궁중유물전시관,문화시설,"문화,예술 > 문화시설 > 전시관",경도:126.974890221394,위도:37.5655818900246,도로명주소:서울 중구 세종대로 99,웹링크:http://place.map.kakao.com/8709445
장소이름:기후에너지정보센터,문화시설,"문화,예술 > 문화시설 > 전시관",경도:126.975560687497,위도:37.5643909137884,도로명주소:서울 중구 덕수궁길 15,웹링크:http://place.map.kakao.com/1105493612
장소이름:덕수궁돌담길,관광명소,"여행 > 관광,명소 > 도보여행",경도:126.975664628917,위도:37.564976582796,도로명주소:서울 중구 세종대로 지하 101,웹링크:http://place.map.kakao.com/23209304
장소이름:국립정동극장 세실,문화시설,"문화,예술 > 문화시설 > 공연장,연극극장",경도:126.97590401119,위도:37.5667642080192,도로명주소:서울 중구 세종대로19길 16,웹링크:http://place.map.kakao.com/11731415
장소이름:아트조선스페이스,문화시설,"문화,예술 > 문화시설 > 미술관",경도:126.97589460754,위도:37.5678454010722,도로명주소:서울 중구 세종대로21길 30,웹링크:http://place.map.kakao.com/494004358
장소이름:벤로갤러리,문화시설,"문화,예술 > 문화시설 > 전시관",경도:126.976403935112,위도:37.5607852972062,도로명주소:서울 중구 남대문로 5,웹링크:http://place.map.kakao.com/1768178995
장소이름:한국금융사박물관,문화시설,"문화,예술 > 문화시설 > 박물관",경도:126.976410528269,위도:37.568591529702,도로명주소:서울 중구 세종대로 135-5,웹링크:http://place.map.kakao.com/12110587
장소이름:문구아트박물관,문화시설,"문화,예술 > 문화시설 > 박물관",경도:126.976485554858,위도:37.5603744589307,도로명주소:서울 중구 남대문로 6-2,웹링크:http://place.map.kakao.com/1072166185
장소이름:알파갤러리 남대문본점,문화시설,"문화,예술 > 문화시설 > 전시관",경도:126.976517248875,위도:37.5603636532762,도로명주소:서울 중구 남대문로 6-2,웹링크:http://place.map.kakao.com/27539583
장소이름:서울도시건축전시관,문화시설,"문화,예술 > 문화시설 > 전시관",경도:126.97670535593808,위도:37.56690492421112,도로명주소:서울 중구 세종대로 119,웹링크:http://place.map.kakao.com/107324777
장소이름:피크닉,문화시설,"문화,예술 > 문화시설 > 전시관",경도:126.97812881011951,위도:37.55694738165452,도로명주소:서울 중구 퇴계로6가길 30,웹링크:http://place.map.kakao.com/225473638
장소이름:BGA인덱스,문화시설,"문화,예술 > 문화시설 > 전시관",경도:126.97827973191,위도:37.5633733194651,도로명주소:서울 중구 세종대로16길 23,웹링크:http://place.map.kakao.com/1932127038
장소이름:더벨스파,관광명소,"여행 > 관광,명소 > 온천",경도:126.9780914738,위도:37.5646382835128,도로명주소:서울 중구 소공로 119,웹링크:http://place.map.kakao.com/27390814
장소이름:시민청 활짝라운지,문화시설,"문화,예술 > 문화시설 > 공연장,연극극장",경도:126.978656787988,위도:37.566818797519,도로명주소:서울 중구 세종대로 110,웹링크:http://place.map.kakao.com/27143902
장소이름:서울시민청 바스락홀,문화시설,"문화,예술 > 문화시설 > 공연장,연극극장",경도:126.978563388844,위도:37.5668778859271,도로명주소:서울 중구 세종대로 110,웹링크:http://place.map.kakao.com/748166001
장소이름:스페이스mm,문화시설,"문화,예술 > 문화시설 > 전시관",경도:126.9792320671494,위도:37.56584222049173,도로명주소:서울 중구 을지로 지하 12,웹링크:http://place.map.kakao.com/674090659
장소이름:한국은행 아카이브,문화시설,"문화,예술 > 문화시설 > 전시관",경도:126.979847813627,위도:37.5616481891386,도로명주소:서울 중구 남대문로 39,웹링크:http://place.map.kakao.com/1302546469
장소이름:더 케이브,문화시설,"문화,예술 > 문화시설 > 전시관",경도:126.980209313522,위도:37.5685156429997,도로명주소:서울 중구 청계천로 24,웹링크:http://place.map.kakao.com/1155592538
장소이름:안중근의사기념관,문화시설,"문화,예술 > 문화시설 > 기념관",경도:126.980407931726,위도:37.55352399072,도로명주소:서울 중구 소월로 91,웹링크:http://place.map.kakao.com/11106477
장소이름:한국은행 화폐박물관,문화시설,"문화,예술 > 문화시설 > 박물관",경도:126.980523397494,위도:37.5620978998462,도로명주소:서울 중구 남대문로 39,웹링크:http://place.map.kakao.com/8691199
장소이름:서울특별시교육청융합과학교육원 남산분원,문화시설,"문화,예술 > 문화시설 > 전시관",경도:126.98094182272716,위도:37.55459806753188,도로명주소:서울 중구 소파로 46,웹링크:http://place.map.kakao.com/10155812
장소이름:신세계백화점 본점 트리니티가든,문화시설,"문화,예술 > 문화시설 > 전시관",경도:126.98099342039498,위도:37.56087081893026,도로명주소:서울 중구 소공로 63,웹링크:http://place.map.kakao.com/8124121
장소이름:CKL스테이지,문화시설,"문화,예술 > 문화시설 > 공연장,연극극장",경도:126.981318589692,위도:37.5685815964224,도로명주소:서울 중구 청계천로 40,웹링크:http://place.map.kakao.com/910453874
장소이름:하이커그라운드,문화시설,"문화,예술 > 문화시설 > 전시관",경도:126.981418201295,위도:37.5685753051734,도로명주소:서울 중구 청계천로 40,웹링크:http://place.map.kakao.com/520168372
장소이름:우리은행 은행사박물관,문화시설,"문화,예술 > 문화시설 > 박물관",경도:126.981664986647,위도:37.5592401206899,도로명주소:서울 중구 소공로 51,웹링크:http://place.map.kakao.com/10705584
장소이름:롯데시네마 에비뉴엘,문화시설,"문화,예술 > 영화,영상 > 영화관 > 롯데시네마",경도:126.981844846266,위도:37.5642965417763,도로명주소:서울 중구 남대문로 73,웹링크:http://place.map.kakao.com/11082743
장소이름:그라운드시소 명동,문화시설,"문화,예술 > 문화시설 > 전시관",경도:126.98192069531612,위도:37.56423888965341,도로명주소:서울 중구 남대문로 73,웹링크:http://place.map.kakao.com/516939602
장소이름:우표박물관,문화시설,"문화,예술 > 문화시설 > 박물관",경도:126.98208990250843,위도:37.56190353259943,도로명주소:서울 중구 소공로 70,웹링크:http://place.map.kakao.com/11562199
장소이름:CGV 명동,문화시설,"문화,예술 > 영화,영상 > 영화관 > CGV",경도:126.982583010911,위도:37.5634929642429,도로명주소:서울 중구 명동길 14,웹링크:http://place.map.kakao.com/25121674
장소이름:명동난타극장,문화시설,"문화,예술 > 문화시설 > 공연장,연극극장",경도:126.983751090997,위도:37.5634679028825,도로명주소:서울 중구 명동길 26,웹링크:http://place.map.kakao.com/12526895
장소이름:주한리스트헝가리문화원,문화시설,"문화,예술 > 문화시설 > 문화원",경도:126.98375788486504,위도:37.56345528986756,도로명주소:서울 중구 명동길 26,웹링크:http://place.map.kakao.com/5687647
장소이름:펑키하우스,문화시설,"문화,예술 > 문화시설 > 공연장,연극극장",경도:126.983751099608,위도:37.5634282590415,도로명주소:서울 중구 명동길 26,웹링크:http://place.map.kakao.com/10883126
장소이름:초전섬유퀼트박물관,문화시설,"문화,예술 > 문화시설 > 박물관",경도:126.984232119295,위도:37.5581448789131,도로명주소:서울 중구 퇴계로18길 66,웹링크:http://place.map.kakao.com/8097876
장소이름:페럼타워 페럼홀,문화시설,"문화,예술 > 문화시설 > 공연장,연극극장",경도:126.984130644256,위도:37.5670034633584,도로명주소:서울 중구 을지로5길 19,웹링크:http://place.map.kakao.com/18809282
장소이름:미래기술 체험관 티움,문화시설,"문화,예술 > 문화시설 > 전시관",경도:126.985099651856,위도:37.5665314677789,도로명주소:서울 중구 을지로 65,웹링크:http://place.map.kakao.com/12697270
장소이름:CGV 명동역 씨네라이브러리,문화시설,"문화,예술 > 영화,영상 > 영화관 > CGV",경도:126.98543344554172,위도:37.56132014660064,도로명주소:서울 중구 퇴계로 123,웹링크:http://place.map.kakao.com/27572008
장소이름:작가의서재,문화시설,"문화,예술 > 문화시설 > 전시관",경도:126.985880825165,위도:37.5596785846604,도로명주소:서울 중구 퇴계로20길 13,웹링크:http://place.map.kakao.com/1704696327
장소이름:비디갤러리,문화시설,"문화,예술 > 문화시설 > 미술관",경도:126.985630554983,위도:37.5604227779338,도로명주소:서울 중구 퇴계로18길 9,웹링크:http://place.map.kakao.com/27380654
장소이름:명동갤러리,문화시설,"문화,예술 > 문화시설 > 미술관",경도:126.985856772319,위도:37.5611868505512,도로명주소:서울 중구 퇴계로 127,웹링크:http://place.map.kakao.com/12363499
장소이름:눈내리는명동,문화시설,"문화,예술 > 문화시설 > 전시관",경도:126.986205809524,위도:37.5588190718841,도로명주소:서울 중구 퇴계로20길 31,웹링크:http://place.map.kakao.com/200817698
장소이름:서울YWCA 마루홀,문화시설,"문화,예술 > 문화시설 > 공연장,연극극장",경도:126.986177523488,위도:37.5648989940215,도로명주소:서울 중구 명동11길 20,웹링크:http://place.map.kakao.com/7933607
장소이름:천주교 서울대교구 역사관,문화시설,"문화,예술 > 문화시설 > 박물관",경도:126.986467540083,위도:37.5634826614344,도로명주소:서울 중구 명동길 74,웹링크:http://place.map.kakao.com/860220539
장소이름:세종갤러리,문화시설,"문화,예술 > 문화시설 > 미술관",경도:126.988120390747,위도:37.5613276555049,도로명주소:서울 중구 퇴계로 145,웹링크:http://place.map.kakao.com/21397600
장소이름:삼일로창고극장,문화시설,"문화,예술 > 문화시설 > 공연장,연극극장",경도:126.987984230554,위도:37.5634539936501,도로명주소:서울 중구 삼일대로9길 12,웹링크:http://place.map.kakao.com/7926624
장소이름:이회영기념관,문화시설,"문화,예술 > 문화시설 > 기념관",경도:126.988930989999,위도:37.5598789313451,도로명주소:서울 중구 퇴계로26길 36,웹링크:http://place.map.kakao.com/1613673516
장소이름:픽앤플레이스,문화시설,"문화,예술 > 문화시설 > 전시관",경도:126.989078307058,위도:37.5663787335693,도로명주소:서울 중구 을지로 99-1,웹링크:http://place.map.kakao.com/78466687
장소이름:충무로갤러리,문화시설,"문화,예술 > 문화시설 > 미술관",경도:126.991618738372,위도:37.5623613988475,도로명주소:서울 중구 퇴계로27길 28,웹링크:http://place.map.kakao.com/1118823699
장소이름:스테이션24,문화시설,"문화,예술 > 문화시설 > 미술관",경도:126.992453121485,위도:37.5601963599378,도로명주소:서울 중구 퇴계로30길 15-8,웹링크:http://place.map.kakao.com/2042926888
장소이름:이정숙한국자수갤러리,문화시설,"문화,예술 > 문화시설 > 전시관",경도:126.993005013087,위도:37.5647896744166,도로명주소:서울 중구 충무로 40-1,웹링크:http://place.map.kakao.com/1834639969
장소이름:명보아트홀,문화시설,"문화,예술 > 문화시설 > 공연장,연극극장",경도:126.993208758748,위도:37.5646995866903,도로명주소:서울 중구 마른내로 47,웹링크:http://place.map.kakao.com/2035051836
장소이름:명보아트홀 가온홀,문화시설,"문화,예술 > 문화시설 > 공연장,연극극장",경도:126.993235923224,위도:37.5647049942271,도로명주소:서울 중구 마른내로 47,웹링크:http://place.map.kakao.com/19401176
장소이름:명보아트홀 라온홀,문화시설,"문화,예술 > 문화시설 > 공연장,연극극장",경도:126.993231396219,위도:37.5646995879903,도로명주소:서울 중구 마른내로 47,웹링크:http://place.map.kakao.com/36723536
장소이름:서울남산국악당,문화시설,"문화,예술 > 문화시설 > 공연장,연극극장",경도:126.993562423498,위도:37.5586539187088,도로명주소:서울 중구 퇴계로34길 28,웹링크:http://place.map.kakao.com/7940113
장소이름:서진아트스페이스,문화시설,"문화,예술 > 문화시설 > 전시관",경도:126.99490721975872,위도:37.55514009442538,도로명주소:서울 중구 필동로8길 22,웹링크:http://place.map.kakao.com/1588499544
장소이름:세컨드에비뉴갤러리,문화시설,"문화,예술 > 문화시설 > 미술관",경도:126.994925328399,위도:37.555125679242,도로명주소:서울 중구 필동로8길 22,웹링크:http://place.map.kakao.com/1337120885
장소이름:을지극장,문화시설,"문화,예술 > 문화시설 > 미술관",경도:126.995164727299,위도:37.5632905247291,도로명주소:서울 중구 마른내로6길 20,웹링크:http://place.map.kakao.com/456215754
장소이름:원룸,문화시설,"문화,예술 > 문화시설 > 미술관",경도:126.995318526029,위도:37.5654186841454,도로명주소:서울 중구 을지로20길 24,웹링크:http://place.map.kakao.com/289648534
장소이름:대한극장,문화시설,"문화,예술 > 영화,영상 > 영화관",경도:126.9953674605078,위도:37.56116418086468,도로명주소:서울 중구 퇴계로 212,웹링크:http://place.map.kakao.com/10558665
장소이름:을지로OF,문화시설,"문화,예술 > 문화시설 > 전시관",경도:126.99625338742652,위도:37.566918875861425,도로명주소:서울 중구 창경궁로5길 31,웹링크:http://place.map.kakao.com/1555038746
장소이름:공간하제,문화시설,"문화,예술 > 문화시설 > 공연장,연극극장",경도:126.996477907926,위도:37.5583612175936,도로명주소:서울 중구 필동로1길 10-6,웹링크:http://place.map.kakao.com/12312233
장소이름:더소소,문화시설,"문화,예술 > 문화시설 > 전시관",경도:126.996830597947,위도:37.5683848128985,도로명주소:서울 중구 청계천로 172-1,웹링크:http://place.map.kakao.com/1331538439
장소이름:푸르지오아트홀,문화시설,"문화,예술 > 문화시설 > 공연장,연극극장",경도:126.997328727022,위도:37.5661395435934,도로명주소:서울 중구 을지로 170,웹링크:http://place.map.kakao.com/1818696928
장소이름:갤러리어스,문화시설,"문화,예술 > 문화시설 > 전시관",경도:126.998777608812,위도:37.5627265936127,도로명주소:서울 중구 창경궁로 2-1,웹링크:http://place.map.kakao.com/1737794767
장소이름:공간서울,문화시설,"문화,예술 > 문화시설 > 미술관",경도:126.999049250382,위도:37.5627986758347,도로명주소:서울 중구 퇴계로45길 7,웹링크:http://place.map.kakao.com/1021828296
장소이름:국립극장,문화시설,"문화,예술 > 문화시설 > 공연장,연극극장",경도:126.999569956338,위도:37.5528192329617,도로명주소:서울 중구 장충단로 59,웹링크:http://place.map.kakao.com/11330151
장소이름:국립극장 무용단,문화시설,"문화,예술 > 문화시설 > 공연장,연극극장",경도:126.999569956338,위도:37.5528192329617,도로명주소:서울 중구 장충단로 59,웹링크:http://place.map.kakao.com/10136132
장소이름:국립극장 국악관현악단,문화시설,"문화,예술 > 문화시설 > 공연장,연극극장",경도:126.999579009889,위도:37.5528192329943,도로명주소:서울 중구 장충단로 59,웹링크:http://place.map.kakao.com/8218713
장소이름:국립극장 운영지원부장,문화시설,"문화,예술 > 문화시설 > 공연장,연극극장",경도:126.999569956462,위도:37.5527976090085,도로명주소:서울 중구 장충단로 59,웹링크:http://place.map.kakao.com/8829577
장소이름:국립극장 달오름극장,문화시설,"문화,예술 > 문화시설 > 공연장,연극극장",경도:127.000027160769,위도:37.5531399890378,도로명주소:서울 중구 장충단로 59,웹링크:http://place.map.kakao.com/8215045
장소이름:국립극장 KB국민은행청소년하늘극장,문화시설,"문화,예술 > 문화시설 > 공연장,연극극장",경도:127.00042551711708,위도:37.552859777890085,도로명주소:서울 중구 장충단로 59,웹링크:http://place.map.kakao.com/8191152
장소이름:공연예술박물관,문화시설,"문화,예술 > 문화시설 > 박물관",경도:127.000475318511,위도:37.5539364702609,도로명주소:서울 중구 장충단로 59,웹링크:http://place.map.kakao.com/17567796
장소이름:국립극장 별오름극장,문화시설,"문화,예술 > 문화시설 > 공연장,연극극장",경도:127.000522851911,위도:37.55415811553343,도로명주소:서울 중구 장충단로 59,웹링크:http://place.map.kakao.com/8190001
장소이름:뤄니갤러리,문화시설,"문화,예술 > 문화시설 > 미술관",경도:127.00042557800528,위도:37.56356632787519,도로명주소:서울 중구 퇴계로45길 22-24,웹링크:http://place.map.kakao.com/129578542
장소이름:반얀트리클럽앤스파서울 크리스탈볼룸,문화시설,"문화,예술 > 문화시설 > 공연장,연극극장",경도:127.00117692824908,위도:37.55069827809386,도로명주소:서울 중구 장충단로 60,웹링크:http://place.map.kakao.com/23520899
장소이름:앰배서더박물관 의종관,문화시설,"문화,예술 > 문화시설 > 박물관",경도:127.001733911623,위도:37.5595803064798,도로명주소:서울 중구 동호로25길 38-5,웹링크:http://place.map.kakao.com/27122082
장소이름:동국대학교 서울캠퍼스 이해랑예술극장,문화시설,"문화,예술 > 문화시설 > 공연장,연극극장",경도:127.003309315842,위도:37.5583152728918,도로명주소:서울 중구 필동로1길 30,웹링크:http://place.map.kakao.com/14920014
장소이름:파라다이스집,문화시설,"문화,예술 > 문화시설 > 전시관",경도:127.003834521115,위도:37.5595009692068,도로명주소:서울 중구 동호로 268-8,웹링크:http://place.map.kakao.com/269603045
장소이름:종이나라박물관,문화시설,"문화,예술 > 문화시설 > 박물관",경도:127.006211303255,위도:37.5596558395786,도로명주소:서울 중구 장충단로 166,웹링크:http://place.map.kakao.com/12283982
장소이름:V SPACE,문화시설,"문화,예술 > 문화시설 > 공연장,연극극장",경도:127.006990550174,위도:37.5657609485183,도로명주소:서울 중구 을지로 264,웹링크:http://place.map.kakao.com/1863672858
장소이름:국립중앙의료원 스칸디나비아기념관,문화시설,"문화,예술 > 문화시설 > 기념관",경도:127.007122008575,위도:37.5674331891217,도로명주소:서울 중구 을지로 245,웹링크:http://place.map.kakao.com/260936804
장소이름:백호한국도자기,관광명소,"여행 > 관광,명소 > 도자기,도예촌",경도:127.007407185821,위도:37.5667736426042,도로명주소:서울 중구 장충단로 247,웹링크:http://place.map.kakao.com/15371516
장소이름:메가박스 동대문,문화시설,"문화,예술 > 영화,영상 > 영화관 > 메가박스",경도:127.00759281850102,위도:37.5667763337993,도로명주소:서울 중구 장충단로 247,웹링크:http://place.map.kakao.com/8334053
장소이름:CGV 동대문,문화시설,"문화,예술 > 영화,영상 > 영화관 > CGV",경도:127.00768809872343,위도:37.56872428046827,도로명주소:서울 중구 장충단로13길 20,웹링크:http://place.map.kakao.com/793127848
장소이름:뮤지컬하우스호연재,문화시설,"문화,예술 > 문화시설 > 공연장,연극극장",경도:127.008474094105,위도:37.5525594422156,도로명주소:서울 중구 다산로 91,웹링크:http://place.map.kakao.com/27437901
장소이름:동대문디자인플라자 디자인전시관,문화시설,"문화,예술 > 문화시설 > 전시관",경도:127.00953969743,위도:37.5667951134511,도로명주소:서울 중구 을지로 281,웹링크:http://place.map.kakao.com/25753389
장소이름:동대문디자인플라자 배움터 디자인박물관,문화시설,"문화,예술 > 문화시설 > 박물관",경도:127.009539689617,위도:37.5667338457298,도로명주소:서울 중구 을지로 281,웹링크:http://place.map.kakao.com/25671884
장소이름:테테루 뮤지엄,문화시설,"문화,예술 > 문화시설 > 전시관",경도:127.00972296583336,위도:37.56602384595415,도로명주소:서울 중구 을지로 281,웹링크:http://place.map.kakao.com/285414333
장소이름:동대문역사문화공원 디자인갤러리,문화시설,"문화,예술 > 문화시설 > 전시관",경도:127.009874777061,위도:37.5670653846654,도로명주소:서울 중구 을지로 281,웹링크:http://place.map.kakao.com/17183489
장소이름:동대문디자인플라자 이간수문전시장,문화시설,"문화,예술 > 문화시설 > 전시관",경도:127.010875523754,위도:37.5680203522575,도로명주소:서울 중구 을지로 281,웹링크:http://place.map.kakao.com/25754176
장소이름:동대문역사문화공원 동대문운동장기념관,문화시설,"문화,예술 > 문화시설 > 기념관",경도:127.01116073789268,위도:37.56781489861205,도로명주소:서울 중구 을지로 281,웹링크:http://place.map.kakao.com/11667032
장소이름:동대문디자인플라자(DDP) 동대문역사관1398,문화시설,"문화,예술 > 문화시설 > 전시관",경도:127.011536427721,위도:37.5671156897561,도로명주소:서울 중구 을지로 281,웹링크:http://place.map.kakao.com/25754179
장소이름:충무아트센터 소극장 블루,문화시설,"문화,예술 > 문화시설 > 공연장,연극극장",경도:127.014777991033,위도:37.5659656576795,도로명주소:서울 중구 퇴계로 387,웹링크:http://place.map.kakao.com/8095099
장소이름:충무아트센터 컨벤션센터,문화시설,"문화,예술 > 문화시설 > 공연장,연극극장",경도:127.014737231537,위도:37.5659079990284,도로명주소:서울 중구 퇴계로 387,웹링크:http://place.map.kakao.com/1707569603
장소이름:충무아트센터 대극장,문화시설,"문화,예술 > 문화시설 > 공연장,연극극장",경도:127.014809696157,위도:37.5660269214363,도로명주소:서울 중구 퇴계로 387,웹링크:http://place.map.kakao.com/1934809750
장소이름:충무아트센터 중극장 블랙,문화시설,"문화,예술 > 문화시설 > 공연장,연극극장",경도:127.014809694016,위도:37.5660161094843,도로명주소:서울 중구 퇴계로 387,웹링크:http://place.map.kakao.com/17343787
장소이름:스컹크,문화시설,"문화,예술 > 문화시설 > 공연장,연극극장",경도:127.020522140031,위도:37.5652133682033,도로명주소:서울 중구 다산로44길 63,웹링크:http://place.map.kakao.com/1023946369
