title,keyword,X,Y,road_address,place_url
장소이름:적당,음식점,경도:126.9810407,위도:37.56646421,도로명주소:서울 중구 을지로1가 87,웹링크:http://place.map.kakao.com/1345866783
장소이름:규반,음식점,경도:126.9810248,위도:37.56648764,도로명주소:서울 중구 을지로1가 87,웹링크:http://place.map.kakao.com/929573153
장소이름:타우너스 을지로점,음식점,경도:126.981018,위도:37.56648223,도로명주소:서울 중구 을지로1가 87,웹링크:http://place.map.kakao.com/7423689
장소이름:온점 을지로점,음식점,경도:126.9810248,위도:37.56648854,도로명주소:서울 중구 을지로1가 87,웹링크:http://place.map.kakao.com/1420731397
장소이름:오름카츠 명동점,음식점,경도:126.9810248,위도:37.56648764,도로명주소:서울 중구 을지로1가 87,웹링크:http://place.map.kakao.com/1785445574
장소이름:만당,음식점,경도:126.9810475,위도:37.56646602,도로명주소:서울 중구 을지로1가 87,웹링크:http://place.map.kakao.com/8971419
장소이름:구스타레 이탈리안레스토랑,음식점,경도:126.9810248,위도:37.56648764,도로명주소:서울 중구 을지로1가 87,웹링크:http://place.map.kakao.com/12592334
장소이름:오티디코퍼레이션디스트릭,음식점,경도:126.9810248,위도:37.56648854,도로명주소:서울 중구 을지로1가 87,웹링크:http://place.map.kakao.com/60552199
장소이름:을밀대 무교점,음식점,경도:126.9803682,위도:37.5670966,도로명주소:서울 중구 다동 155,웹링크:http://place.map.kakao.com/34535267
장소이름:전설의우대갈비 서울시청직영점,음식점,경도:126.9803681,위도:37.56714345,도로명주소:서울 중구 다동 155,웹링크:http://place.map.kakao.com/1116506145
장소이름:동아리 무교점,음식점,경도:126.980341,위도:37.56713984,도로명주소:서울 중구 다동 155,웹링크:http://place.map.kakao.com/19281659
장소이름:뚜레쥬르 무교점,음식점,경도:126.9801044,위도:37.56723891,도로명주소:서울 중구 다동 155,웹링크:http://place.map.kakao.com/1832574725
장소이름:담비곱창,음식점,경도:126.9802572,위도:37.5670227,도로명주소:서울 중구 다동 155,웹링크:http://place.map.kakao.com/1055445422
장소이름:돈수백 서울시청점,음식점,경도:126.9803681,위도:37.56714345,도로명주소:서울 중구 다동 155,웹링크:http://place.map.kakao.com/15217186
장소이름:대독장,음식점,경도:126.9803387,위도:37.56713984,도로명주소:서울 중구 다동 155,웹링크:http://place.map.kakao.com/1290648087
장소이름:본죽&비빔밥cafe 서울시청점,음식점,경도:126.9803614,위도:37.56713985,도로명주소:서울 중구 다동 155,웹링크:http://place.map.kakao.com/2055127363
장소이름:이지샐러드 시청점,음식점,경도:126.9803727,위도:37.56714886,도로명주소:서울 중구 다동 155,웹링크:http://place.map.kakao.com/1930862365
장소이름:부추밭 무교점,음식점,경도:126.9803387,위도:37.56711281,도로명주소:서울 중구 다동 155,웹링크:http://place.map.kakao.com/21235570
장소이름:쭈담 시청직영점,음식점,경도:126.9805005,위도:37.56725069,도로명주소:서울 중구 다동 155,웹링크:http://place.map.kakao.com/1708957397
장소이름:바나프레소 무교점,음식점,경도:126.9801588,위도:37.56703079,도로명주소:서울 중구 다동 155,웹링크:http://place.map.kakao.com/637723178
장소이름:명동칼국수샤브샤브,음식점,경도:126.980341,위도:37.56713984,도로명주소:서울 중구 다동 155,웹링크:http://place.map.kakao.com/23641702
장소이름:에슬로우커피 시청점,음식점,경도:126.9802708,위도:37.5670209,도로명주소:서울 중구 다동 155,웹링크:http://place.map.kakao.com/1034753881
장소이름:식껍 다동,음식점,경도:126.9802086,위도:37.56704972,도로명주소:서울 중구 다동 155,웹링크:http://place.map.kakao.com/131629130
장소이름:플래시커피 시청센터플레이스점,음식점,경도:126.9803693,위도:37.56714255,도로명주소:서울 중구 다동 155,웹링크:http://place.map.kakao.com/1895513596
장소이름:더로얄(THE ROYAL),음식점,경도:126.9803693,위도:37.56714255,도로명주소:서울 중구 다동 155,웹링크:http://place.map.kakao.com/845391042
장소이름:오오토모,음식점,경도:126.980341,위도:37.56713984,도로명주소:서울 중구 다동 155,웹링크:http://place.map.kakao.com/1577029024
장소이름:오븐닭과포차,음식점,경도:126.980341,위도:37.56713984,도로명주소:서울 중구 다동 155,웹링크:http://place.map.kakao.com/19032320
장소이름:언노운커피7,음식점,경도:126.980341,위도:37.56713984,도로명주소:서울 중구 다동 155,웹링크:http://place.map.kakao.com/26846381
장소이름:남도 시청점,음식점,경도:126.9803681,위도:37.56714345,도로명주소:서울 중구 다동 155,웹링크:http://place.map.kakao.com/257727600
장소이름:포언 시청점,음식점,경도:126.9803387,위도:37.56713984,도로명주소:서울 중구 다동 155,웹링크:http://place.map.kakao.com/2030172100
장소이름:교동집,음식점,경도:126.9801044,위도:37.56703349,도로명주소:서울 중구 다동 155,웹링크:http://place.map.kakao.com/1842587769
장소이름:한스,음식점,경도:126.9803681,위도:37.56714345,도로명주소:서울 중구 다동 155,웹링크:http://place.map.kakao.com/16035464
장소이름:카페바모스,음식점,경도:126.9805628,위도:37.56719394,도로명주소:서울 중구 다동 155,웹링크:http://place.map.kakao.com/19510093
장소이름:카페그린페페,음식점,경도:126.9803319,위도:37.56714345,도로명주소:서울 중구 다동 155,웹링크:http://place.map.kakao.com/19032269
장소이름:셰프의국수전 서울시청YG,음식점,경도:126.980341,위도:37.56713984,도로명주소:서울 중구 다동 155,웹링크:http://place.map.kakao.com/14589680
장소이름:와이지씨 바모스와이지타워점,음식점,경도:126.9803455,위도:37.56709299,도로명주소:서울 중구 다동 155,웹링크:http://place.map.kakao.com/14542548
장소이름:수아르,음식점,경도:126.9803681,위도:37.56714345,도로명주소:서울 중구 다동 155,웹링크:http://place.map.kakao.com/206334042
장소이름:파리바게뜨 무교점,음식점,경도:126.9805832,위도:37.56702185,도로명주소:서울 중구 다동 155,웹링크:http://place.map.kakao.com/15284545
장소이름:부민옥,음식점,경도:126.9803182,위도:37.56750384,도로명주소:서울 중구 다동 177-2,웹링크:http://place.map.kakao.com/1346301870
장소이름:초류향,음식점,경도:126.9804405,위도:37.56747864,도로명주소:서울 중구 다동 164-2,웹링크:http://place.map.kakao.com/8577709
장소이름:용금옥,음식점,경도:126.9805084,위도:37.56766245,도로명주소:서울 중구 다동 165-1,웹링크:http://place.map.kakao.com/10703052
장소이름:바다한가득 무교동점,음식점,경도:126.9804993,위도:37.56757956,도로명주소:서울 중구 다동 165-2,웹링크:http://place.map.kakao.com/1307820234
장소이름:맷돌로만 서울시청점,음식점,경도:126.9801235,위도:37.56768041,도로명주소:서울 중구 다동 170-1,웹링크:http://place.map.kakao.com/731992520
장소이름:미진일식,음식점,경도:126.9802106,위도:37.56776421,도로명주소:서울 중구 다동 170-1,웹링크:http://place.map.kakao.com/9930216
장소이름:이화수전통육개장 서울무교점,음식점,경도:126.9801688,위도:37.56778493,도로명주소:서울 중구 다동 170-1,웹링크:http://place.map.kakao.com/27121865
장소이름:오군,음식점,경도:126.9804087,위도:37.56770929,도로명주소:서울 중구 다동 168,웹링크:http://place.map.kakao.com/808212847
장소이름:육미곳간,음식점,경도:126.9801461,위도:37.56768491,도로명주소:서울 중구 다동 170-1,웹링크:http://place.map.kakao.com/980090355
장소이름:정다믄김밥천국 중구점,음식점,경도:126.9805582,위도:37.56747505,도로명주소:서울 중구 다동 164-1,웹링크:http://place.map.kakao.com/1029341169
장소이름:무교동닭곰탕,음식점,경도:126.9805095,위도:37.56782012,도로명주소:서울 중구 다동 51-21,웹링크:http://place.map.kakao.com/758063338
장소이름:이자카야아이,음식점,경도:126.9804269,위도:37.5677237,도로명주소:서울 중구 다동 168,웹링크:http://place.map.kakao.com/25147584
장소이름:무교동한돈전문점,음식점,경도:126.9804858,위도:37.56754532,도로명주소:서울 중구 다동 165-3,웹링크:http://place.map.kakao.com/631875521
장소이름:옛고을콩나물국밥 무교동,음식점,경도:126.9805129,위도:37.56781742,도로명주소:서울 중구 다동 51-21,웹링크:http://place.map.kakao.com/10633934
장소이름:커피다동로스터스,음식점,경도:126.9805253,위도:37.5677093,도로명주소:서울 중구 다동 167,웹링크:http://place.map.kakao.com/95321396
장소이름:조선참숯구이,음식점,경도:126.9801597,위도:37.56774168,도로명주소:서울 중구 다동 170-1,웹링크:http://place.map.kakao.com/13291312
장소이름:카페더스노우 무교점,음식점,경도:126.9801326,위도:37.56765158,도로명주소:서울 중구 다동 170-2,웹링크:http://place.map.kakao.com/26609814
장소이름:호프,음식점,경도:126.9801416,위도:37.56768041,도로명주소:서울 중구 다동 170-1,웹링크:http://place.map.kakao.com/20952268
장소이름:킹콩,음식점,경도:126.9801416,위도:37.56768041,도로명주소:서울 중구 다동 170-1,웹링크:http://place.map.kakao.com/20954470
장소이름:뜰팡,음식점,경도:126.9805582,위도:37.56747865,도로명주소:서울 중구 다동 164-1,웹링크:http://place.map.kakao.com/21331029
장소이름:만랩커피 을지로입구역점,음식점,경도:126.9805899,위도:37.56767328,도로명주소:서울 중구 다동 166,웹링크:http://place.map.kakao.com/515514142
장소이름:다동커피집,음식점,경도:126.9805763,위도:37.56746424,도로명주소:서울 중구 다동 164-1,웹링크:http://place.map.kakao.com/20748582
장소이름:위스키리빈,음식점,경도:126.9806215,위도:37.56778861,도로명주소:서울 중구 다동 52,웹링크:http://place.map.kakao.com/4735929
장소이름:국민맥주 무교점,음식점,경도:126.9809351,위도:37.56784722,도로명주소:서울 중구 다동 53-8,웹링크:http://place.map.kakao.com/1661452508
장소이름:비행기,음식점,경도:126.9809249,위도:37.56764089,도로명주소:서울 중구 다동 130,웹링크:http://place.map.kakao.com/15966729
장소이름:간단하지만특별한화피디Cafe,음식점,경도:126.9808434,위도:37.5678427,도로명주소:서울 중구 다동 53-8,웹링크:http://place.map.kakao.com/1127394893
장소이름:백설,음식점,경도:126.9809294,위도:37.56763008,도로명주소:서울 중구 다동 131,웹링크:http://place.map.kakao.com/1046612949
장소이름:나누다키친 다동1호점,음식점,경도:126.9809725,위도:37.5676355,도로명주소:서울 중구 다동 130,웹링크:http://place.map.kakao.com/1567306473
장소이름:황소막창,음식점,경도:126.9807629,위도:37.56816975,도로명주소:서울 중구 다동 51-2,웹링크:http://place.map.kakao.com/15769405
장소이름:손가명가,음식점,경도:126.9802185,위도:37.56813452,도로명주소:서울 중구 다동 45-6,웹링크:http://place.map.kakao.com/7953115
장소이름:마호가니 광화문 케이스퀘어시티점,음식점,경도:126.980078,위도:37.56857238,도로명주소:서울 중구 다동 39,웹링크:http://place.map.kakao.com/372133933
장소이름:알레그리아 광화문케이스퀘어시티점,음식점,경도:126.9802093,위도:37.56851564,도로명주소:서울 중구 다동 39,웹링크:http://place.map.kakao.com/782540492
장소이름:해봉정육 무교점,음식점,경도:126.9802025,위도:37.56850933,도로명주소:서울 중구 다동 39,웹링크:http://place.map.kakao.com/1937271927
장소이름:크리스피프레시 광화문점,음식점,경도:126.9802025,위도:37.56850933,도로명주소:서울 중구 다동 39,웹링크:http://place.map.kakao.com/53212532
장소이름:투썸플레이스 예금보험공사점,음식점,경도:126.9808817,위도:37.56856351,도로명주소:서울 중구 다동 33,웹링크:http://place.map.kakao.com/13064329
장소이름:권명옥가마솥나주곰탕,음식점,경도:126.9803147,위도:37.56789758,도로명주소:서울 중구 다동 50,웹링크:http://place.map.kakao.com/97104564
장소이름:황부자,음식점,경도:126.9803046,위도:37.56789667,도로명주소:서울 중구 다동 50,웹링크:http://place.map.kakao.com/1618493902
장소이름:비어오크숫불바베큐,음식점,경도:126.9804132,위도:37.56805887,도로명주소:서울 중구 다동 51-14,웹링크:http://place.map.kakao.com/21397542
장소이름:마이쥬스 무교점,음식점,경도:126.9802093,위도:37.56851654,도로명주소:서울 중구 다동 39,웹링크:http://place.map.kakao.com/306492132
장소이름:서울고기집,음식점,경도:126.9817537,위도:37.56685175,도로명주소:서울 중구 다동 117,웹링크:http://place.map.kakao.com/26421752
장소이름:무교동원조 목포세발낙지,음식점,경도:126.9813915,위도:37.56683458,도로명주소:서울 중구 다동 144,웹링크:http://place.map.kakao.com/11070233
장소이름:라무진 을지로입구점,음식점,경도:126.981885,위도:37.56680132,도로명주소:서울 중구 다동 116,웹링크:http://place.map.kakao.com/626980037
장소이름:빽다방 을지로입구역점,음식점,경도:126.981894,위도:37.5667815,도로명주소:서울 중구 다동 116,웹링크:http://place.map.kakao.com/27597065
장소이름:잘차려진바다 을지로본점,음식점,경도:126.982031,위도:37.56681125,도로명주소:서울 중구 다동 114,웹링크:http://place.map.kakao.com/2028036222
장소이름:다동골뱅이치킨,음식점,경도:126.9814096,위도:37.56686251,도로명주소:서울 중구 다동 144,웹링크:http://place.map.kakao.com/8214461
장소이름:생활맥주 무교점,음식점,경도:126.9817424,위도:37.56686076,도로명주소:서울 중구 다동 117,웹링크:http://place.map.kakao.com/1112611642
장소이름:커피빈 하나은행을지로본점,음식점,경도:126.981867,위도:37.56649137,도로명주소:서울 중구 을지로1가 101-1,웹링크:http://place.map.kakao.com/1018644253
장소이름:다동분식,음식점,경도:126.9815409,위도:37.5668301,도로명주소:서울 중구 다동 143,웹링크:http://place.map.kakao.com/11006245
장소이름:디스트릭트C,음식점,경도:126.9812512,위도:37.56659219,도로명주소:서울 중구 을지로1가 87,웹링크:http://place.map.kakao.com/290631455
장소이름:다락방분식,음식점,경도:126.9818759,위도:37.56680041,도로명주소:서울 중구 다동 116,웹링크:http://place.map.kakao.com/16035136
장소이름:마실,음식점,경도:126.9818624,위도:37.5665202,도로명주소:서울 중구 을지로1가 101-1,웹링크:http://place.map.kakao.com/13268967
장소이름:하마랑,음식점,경도:126.9820254,위도:37.56641571,도로명주소:서울 중구 을지로1가 101-1,웹링크:http://place.map.kakao.com/12073983
장소이름:해즈빈데어,음식점,경도:126.9815499,위도:37.56683731,도로명주소:서울 중구 다동 143,웹링크:http://place.map.kakao.com/723771250
장소이름:러브앤러브,음식점,경도:126.9814096,위도:37.56686251,도로명주소:서울 중구 다동 144,웹링크:http://place.map.kakao.com/8938933
장소이름:맥스광장호프,음식점,경도:126.9819258,위도:37.56648057,도로명주소:서울 중구 을지로1가 101-1,웹링크:http://place.map.kakao.com/12275843
장소이름:오는정,음식점,경도:126.9813868,위도:37.56730219,도로명주소:서울 중구 다동 138,웹링크:http://place.map.kakao.com/12518556
장소이름:철철복집,음식점,경도:126.9812782,위도:37.56729857,도로명주소:서울 중구 다동 138,웹링크:http://place.map.kakao.com/16268305
장소이름:비어바나 with 이태리&파스타,음식점,경도:126.9811424,위도:37.56708952,도로명주소:서울 중구 다동 140,웹링크:http://place.map.kakao.com/1076802742
장소이름:부암닭구이,음식점,경도:126.9814933,위도:37.56701389,도로명주소:서울 중구 다동 141,웹링크:http://place.map.kakao.com/473194374
장소이름:참복집,음식점,경도:126.9815317,위도:37.56735628,도로명주소:서울 중구 다동 126,웹링크:http://place.map.kakao.com/8601444
장소이름:연타발 시청점,음식점,경도:126.9811197,위도:37.56713997,도로명주소:서울 중구 다동 140,웹링크:http://place.map.kakao.com/1717521714
장소이름:이가네양꼬치 무교점,음식점,경도:126.9815182,위도:37.56691659,도로명주소:서울 중구 다동 142,웹링크:http://place.map.kakao.com/1504382971
장소이름:1964백미당 을지로패스트파이브타워점,음식점,경도:126.981276,위도:37.56707242,도로명주소:서울 중구 다동 140,웹링크:http://place.map.kakao.com/1282002934
장소이름:비어바나 시청,음식점,경도:126.9811594,위도:37.56711385,도로명주소:서울 중구 다동 140,웹링크:http://place.map.kakao.com/1558401077
장소이름:한시락,음식점,경도:126.9811514,위도:37.56735982,도로명주소:서울 중구 다동 137,웹링크:http://place.map.kakao.com/193617914
장소이름:김순례닭강정 을지로점,음식점,경도:126.9811401,위도:37.56714268,도로명주소:서울 중구 다동 140,웹링크:http://place.map.kakao.com/1050747755
장소이름:무교동원조갈매기집,음식점,경도:126.9815046,위도:37.56695263,도로명주소:서울 중구 다동 142,웹링크:http://place.map.kakao.com/16678167
장소이름:한강옥,음식점,경도:126.9815001,위도:37.5670175,도로명주소:서울 중구 다동 141,웹링크:http://place.map.kakao.com/709076869
장소이름:매머드익스프레스 무교점,음식점,경도:126.9811424,위도:37.56714358,도로명주소:서울 중구 다동 140,웹링크:http://place.map.kakao.com/1159346672
장소이름:둘둘치킨 무교점,음식점,경도:126.9813415,위도:37.56735625,도로명주소:서울 중구 다동 138,웹링크:http://place.map.kakao.com/16984473
장소이름:무교동실비낙지,음식점,경도:126.9815092,위도:37.56693821,도로명주소:서울 중구 다동 142,웹링크:http://place.map.kakao.com/23298631
장소이름:오한우오장어,음식점,경도:126.9815001,위도:37.5670175,도로명주소:서울 중구 다동 141,웹링크:http://place.map.kakao.com/1016983826
장소이름:매머드 청계다동2호점,음식점,경도:126.9811424,위도:37.56708952,도로명주소:서울 중구 다동 140,웹링크:http://place.map.kakao.com/774466327
장소이름:달리181 을지로점,음식점,경도:126.9811525,위도:37.56735892,도로명주소:서울 중구 다동 137,웹링크:http://place.map.kakao.com/438523764
장소이름:부암우송화,음식점,경도:126.9815035,위도:37.5670175,도로명주소:서울 중구 다동 141,웹링크:http://place.map.kakao.com/1767606075
장소이름:카라멜솔티드,음식점,경도:126.981516,위도:37.56694182,도로명주소:서울 중구 다동 142,웹링크:http://place.map.kakao.com/1689373266
장소이름:미스터윅,음식점,경도:126.9811243,위도:37.56713637,도로명주소:서울 중구 다동 140,웹링크:http://place.map.kakao.com/27545658
장소이름:킹스크로스,음식점,경도:126.981482,위도:37.56698866,도로명주소:서울 중구 다동 141,웹링크:http://place.map.kakao.com/15897420
장소이름:남포면옥,음식점,경도:126.9817536,위도:37.5671653,도로명주소:서울 중구 다동 121-4,웹링크:http://place.map.kakao.com/21232315
장소이름:충무집,음식점,경도:126.9820207,위도:37.56737798,도로명주소:서울 중구 다동 123-1,웹링크:http://place.map.kakao.com/781644913
장소이름:바캉스커피,음식점,경도:126.9817537,위도:37.5668986,도로명주소:서울 중구 다동 117,웹링크:http://place.map.kakao.com/557230756
장소이름:나이스타임2,음식점,경도:126.9819461,위도:37.56694188,도로명주소:서울 중구 다동 115,웹링크:http://place.map.kakao.com/651364551
장소이름:오륙도,음식점,경도:126.9817084,위도:37.56701032,도로명주소:서울 중구 다동 120,웹링크:http://place.map.kakao.com/9262816
장소이름:배수사,음식점,경도:126.9817571,위도:37.56690401,도로명주소:서울 중구 다동 117,웹링크:http://place.map.kakao.com/12409192
장소이름:반갑다하대포 을지로본점,음식점,경도:126.981594,위도:37.56719861,도로명주소:서울 중구 다동 121-6,웹링크:http://place.map.kakao.com/1153249336
장소이름:일미집 을지로입구점,음식점,경도:126.9816065,위도:37.56707698,도로명주소:서울 중구 다동 121-3,웹링크:http://place.map.kakao.com/1328893614
장소이름:기원22,음식점,경도:126.9816857,위도:37.5670824,도로명주소:서울 중구 다동 121-3,웹링크:http://place.map.kakao.com/493678559
장소이름:스몰굿커피 을지로점,음식점,경도:126.9819529,위도:37.56694188,도로명주소:서울 중구 다동 115,웹링크:http://place.map.kakao.com/29659418
장소이름:소가대문,음식점,경도:126.9819574,위도:37.56694188,도로명주소:서울 중구 다동 115,웹링크:http://place.map.kakao.com/1437338343
장소이름:다동골송향,음식점,경도:126.9819347,위도:37.56725543,도로명주소:서울 중구 다동 123-6,웹링크:http://place.map.kakao.com/8190748
장소이름:기원1956,음식점,경도:126.9816868,위도:37.5670833,도로명주소:서울 중구 다동 121-3,웹링크:http://place.map.kakao.com/45967245
장소이름:마라,음식점,경도:126.9816766,위도:37.5670896,도로명주소:서울 중구 다동 121-3,웹링크:http://place.map.kakao.com/8293312
장소이름:비어할레 을지점,음식점,경도:126.9814796,위도:37.56758242,도로명주소:서울 중구 다동 97,웹링크:http://place.map.kakao.com/406136454
장소이름:인천집,음식점,경도:126.9812554,위도:37.56780943,도로명주소:서울 중구 다동 60,웹링크:http://place.map.kakao.com/9352032
장소이름:태성골뱅이신사 본점,음식점,경도:126.9812781,위도:37.56769141,도로명주소:서울 중구 다동 129,웹링크:http://place.map.kakao.com/9984162
장소이름:불타는다동화로,음식점,경도:126.9812645,위도:37.56756526,도로명주소:서울 중구 다동 128,웹링크:http://place.map.kakao.com/15809642
장소이름:이도곰탕 을지로직영점,음식점,경도:126.9811026,위도:37.56766435,도로명주소:서울 중구 다동 130,웹링크:http://place.map.kakao.com/2132367356
장소이름:영덕막회,음식점,경도:126.9812645,위도:37.56751481,도로명주소:서울 중구 다동 128,웹링크:http://place.map.kakao.com/10647766
장소이름:산불등심,음식점,경도:126.9815045,위도:37.56743826,도로명주소:서울 중구 다동 127,웹링크:http://place.map.kakao.com/12448101
장소이름:메가MGC커피 서울시청점,음식점,경도:126.9811648,위도:37.56781032,도로명주소:서울 중구 다동 59-2,웹링크:http://place.map.kakao.com/91354424
장소이름:장안문,음식점,경도:126.9813834,위도:37.56742653,도로명주소:서울 중구 다동 138,웹링크:http://place.map.kakao.com/11165297
장소이름:도리방,음식점,경도:126.9812554,위도:37.56782115,도로명주소:서울 중구 다동 60,웹링크:http://place.map.kakao.com/12503211
장소이름:이디야커피 다동점,음식점,경도:126.9815225,위도:37.56784642,도로명주소:서울 중구 다동 96,웹링크:http://place.map.kakao.com/25595524
장소이름:선영이네,음식점,경도:126.9815136,위도:37.56742114,도로명주소:서울 중구 다동 127,웹링크:http://place.map.kakao.com/13268897
장소이름:커피나인 익스프레스 다동,음식점,경도:126.9812509,위도:37.56782024,도로명주소:서울 중구 다동 60,웹링크:http://place.map.kakao.com/2005229014
장소이름:태성한우회관,음식점,경도:126.981269,위도:37.56766257,도로명주소:서울 중구 다동 129,웹링크:http://place.map.kakao.com/829360548
장소이름:태성춘곱선생,음식점,경도:126.9812577,위도:37.5675995,도로명주소:서울 중구 다동 129,웹링크:http://place.map.kakao.com/363707842
장소이름:오비호프,음식점,경도:126.9815407,위도:37.56760495,도로명주소:서울 중구 다동 97,웹링크:http://place.map.kakao.com/21399852
장소이름:올찬 청계점,음식점,경도:126.9812509,위도:37.56782115,도로명주소:서울 중구 다동 60,웹링크:http://place.map.kakao.com/18962397
장소이름:태성닭갈비&곱선생,음식점,경도:126.981269,위도:37.56766257,도로명주소:서울 중구 다동 129,웹링크:http://place.map.kakao.com/1838367545
장소이름:바니,음식점,경도:126.9812554,위도:37.56782115,도로명주소:서울 중구 다동 60,웹링크:http://place.map.kakao.com/16764873
장소이름:커피스탑,음식점,경도:126.9812531,위도:37.56780313,도로명주소:서울 중구 다동 60,웹링크:http://place.map.kakao.com/26610585
장소이름:대원집,음식점,경도:126.9816675,위도:37.56739954,도로명주소:서울 중구 다동 124-2,웹링크:http://place.map.kakao.com/10230288
장소이름:원흥,음식점,경도:126.9817263,위도:37.56786176,도로명주소:서울 중구 다동 92,웹링크:http://place.map.kakao.com/9351301
장소이름:가쯔야 무교본점,음식점,경도:126.9815723,위도:37.5678248,도로명주소:서울 중구 다동 96,웹링크:http://place.map.kakao.com/8138069
장소이름:김형제고기의철학 을지로다동점,음식점,경도:126.9817874,위도:37.56766986,도로명주소:서울 중구 다동 98-1,웹링크:http://place.map.kakao.com/2126770283
장소이름:컴포즈커피 무교다동점,음식점,경도:126.9817568,위도:37.56786537,도로명주소:서울 중구 다동 92,웹링크:http://place.map.kakao.com/1935521488
장소이름:전가곱창,음식점,경도:126.9817727,위도:37.56767887,도로명주소:서울 중구 다동 98-1,웹링크:http://place.map.kakao.com/570453257
장소이름:해머스미스커피 무교다동점,음식점,경도:126.9817263,위도:37.56786176,도로명주소:서울 중구 다동 92,웹링크:http://place.map.kakao.com/2062135742
장소이름:묵호미주구리,음식점,경도:126.9817263,위도:37.56786086,도로명주소:서울 중구 다동 92,웹링크:http://place.map.kakao.com/21604440
장소이름:다동식당,음식점,경도:126.9817036,위도:37.56785726,도로명주소:서울 중구 다동 92,웹링크:http://place.map.kakao.com/18661730
장소이름:노티드 종각 하이커,음식점,경도:126.9816174,위도:37.56852758,도로명주소:서울 중구 다동 10,웹링크:http://place.map.kakao.com/1277741639
장소이름:향설주랑,음식점,경도:126.9811467,위도:37.56800493,도로명주소:서울 중구 다동 58-1,웹링크:http://place.map.kakao.com/21295879
장소이름:알돈,음식점,경도:126.981793,위도:37.56818343,도로명주소:서울 중구 다동 70,웹링크:http://place.map.kakao.com/625603977
장소이름:마케집 서울시청점,음식점,경도:126.9811308,위도:37.56798691,도로명주소:서울 중구 다동 58-1,웹링크:http://place.map.kakao.com/366761842
장소이름:아이러브펍 을지로점,음식점,경도:126.9817635,위도:37.56816541,도로명주소:서울 중구 다동 70,웹링크:http://place.map.kakao.com/1951357453
장소이름:쥬씨 을지로다동점,음식점,경도:126.9814092,위도:37.56824734,도로명주소:서울 중구 다동 70,웹링크:http://place.map.kakao.com/473119404
장소이름:매머드익스프레스 청계다동점,음식점,경도:126.9815723,위도:37.56812483,도로명주소:서울 중구 다동 70,웹링크:http://place.map.kakao.com/27439648
장소이름:심야식당하루,음식점,경도:126.9811467,위도:37.56800673,도로명주소:서울 중구 다동 58-1,웹링크:http://place.map.kakao.com/1288627068
장소이름:시골밥상,음식점,경도:126.981622,위도:37.56821764,도로명주소:서울 중구 다동 70,웹링크:http://place.map.kakao.com/21414943
장소이름:전주집,음식점,경도:126.981613,위도:37.56821764,도로명주소:서울 중구 다동 70,웹링크:http://place.map.kakao.com/18015608
장소이름:동네시민,음식점,경도:126.9810958,위도:37.5678932,도로명주소:서울 중구 다동 58-1,웹링크:http://place.map.kakao.com/2083414039
장소이름:꽁뜨커피,음식점,경도:126.9816164,위도:37.56821854,도로명주소:서울 중구 다동 70,웹링크:http://place.map.kakao.com/1093102658
장소이름:미단떡,음식점,경도:126.9816853,위도:37.56855643,도로명주소:서울 중구 다동 10,웹링크:http://place.map.kakao.com/18662356
장소이름:유라네,음식점,경도:126.9816311,위도:37.56822125,도로명주소:서울 중구 다동 70,웹링크:http://place.map.kakao.com/667017145
장소이름:퓨전음식백화점,음식점,경도:126.981459,위도:37.5682068,도로명주소:서울 중구 다동 70,웹링크:http://place.map.kakao.com/17245919
장소이름:장미옥,음식점,경도:126.9811557,위도:37.56800133,도로명주소:서울 중구 다동 58-1,웹링크:http://place.map.kakao.com/16327195
장소이름:다동칼국수,음식점,경도:126.9816085,위도:37.56823206,도로명주소:서울 중구 다동 70,웹링크:http://place.map.kakao.com/15910524
장소이름:미미분식,음식점,경도:126.9816062,위도:37.56821223,도로명주소:서울 중구 다동 70,웹링크:http://place.map.kakao.com/1632332274
장소이름:핵커피 청계다동점,음식점,경도:126.981622,위도:37.56821764,도로명주소:서울 중구 다동 70,웹링크:http://place.map.kakao.com/359087452
장소이름:휴식,음식점,경도:126.9814953,위도:37.56810229,도로명주소:서울 중구 다동 70,웹링크:http://place.map.kakao.com/579941427
장소이름:이강떡볶이,음식점,경도:126.981613,위도:37.56821764,도로명주소:서울 중구 다동 70,웹링크:http://place.map.kakao.com/558731230
장소이름:부자갈비바비큐,음식점,경도:126.9816265,위도:37.56852759,도로명주소:서울 중구 다동 10,웹링크:http://place.map.kakao.com/151916839
장소이름:남도미가,음식점,경도:126.981613,위도:37.56821764,도로명주소:서울 중구 다동 70,웹링크:http://place.map.kakao.com/2111362687
장소이름:이범술참치,음식점,경도:126.981622,위도:37.56821764,도로명주소:서울 중구 다동 70,웹링크:http://place.map.kakao.com/1031942841
장소이름:장군왕족발,음식점,경도:126.9816265,위도:37.56852759,도로명주소:서울 중구 다동 10,웹링크:http://place.map.kakao.com/18762990
장소이름:무고한방족발,음식점,경도:126.981613,위도:37.56821764,도로명주소:서울 중구 다동 70,웹링크:http://place.map.kakao.com/21529512
장소이름:줄린스주써리,음식점,경도:126.9811467,위도:37.56800673,도로명주소:서울 중구 다동 58-1,웹링크:http://place.map.kakao.com/873646397
장소이름:모베러커피,음식점,경도:126.9814206,위도:37.56813832,도로명주소:서울 중구 다동 70,웹링크:http://place.map.kakao.com/958135468
장소이름:이모네,음식점,경도:126.981622,위도:37.56821764,도로명주소:서울 중구 다동 70,웹링크:http://place.map.kakao.com/20742471
장소이름:청춘,음식점,경도:126.9816311,위도:37.56822485,도로명주소:서울 중구 다동 70,웹링크:http://place.map.kakao.com/19510361
장소이름:커피다이어리,음식점,경도:126.981622,위도:37.56821764,도로명주소:서울 중구 다동 70,웹링크:http://place.map.kakao.com/26505721
장소이름:스위트팩토리,음식점,경도:126.9814455,위도:37.56815274,도로명주소:서울 중구 다동 70,웹링크:http://place.map.kakao.com/14854608
장소이름:한스시,음식점,경도:126.981613,위도:37.56821764,도로명주소:서울 중구 다동 70,웹링크:http://place.map.kakao.com/20991255
장소이름:궁실,음식점,경도:126.981613,위도:37.56821764,도로명주소:서울 중구 다동 70,웹링크:http://place.map.kakao.com/14649977
장소이름:호두붐 을지로역점,음식점,경도:126.9820821,위도:37.56605893,도로명주소:서울 중구 을지로1가 100-1,웹링크:http://place.map.kakao.com/202433313
장소이름:브레댄코 을지로입구역점,음식점,경도:126.9820844,위도:37.56605893,도로명주소:서울 중구 을지로1가 100-1,웹링크:http://place.map.kakao.com/1065789608
장소이름:독일분식,음식점,경도:126.9821115,위도:37.56624273,도로명주소:서울 중구 을지로1가 101-1,웹링크:http://place.map.kakao.com/15910933
장소이름:어묵애꼬치다,음식점,경도:126.9823741,위도:37.56605176,도로명주소:서울 중구 을지로1가 100-1,웹링크:http://place.map.kakao.com/1720499572
장소이름:촌동네김밥,음식점,경도:126.9821614,위도:37.56603011,도로명주소:서울 중구 을지로1가 100-1,웹링크:http://place.map.kakao.com/21556719
장소이름:에버그린,음식점,경도:126.9829627,위도:37.56604824,도로명주소:서울 중구 을지로1가 100-1,웹링크:http://place.map.kakao.com/2016408241
장소이름:오커피,음식점,경도:126.9823741,위도:37.56605176,도로명주소:서울 중구 을지로1가 100-1,웹링크:http://place.map.kakao.com/23401569
장소이름:참치공방 을지로점,음식점,경도:126.9829896,위도:37.56717269,도로명주소:서울 중구 남대문로1가 22-10,웹링크:http://place.map.kakao.com/1807106843
장소이름:현선이네 청계즉석점,음식점,경도:126.9830553,위도:37.56714027,도로명주소:서울 중구 남대문로1가 22-10,웹링크:http://place.map.kakao.com/27242962
장소이름:김밥일번가,음식점,경도:126.9830157,위도:37.56724387,도로명주소:서울 중구 남대문로1가 22-8,웹링크:http://place.map.kakao.com/1094076825
장소이름:고냉지김치삼겹살,음식점,경도:126.9830258,위도:37.56746822,도로명주소:서울 중구 남대문로1가 20,웹링크:http://place.map.kakao.com/11046641
장소이름:스시미토,음식점,경도:126.9823058,위도:37.56778527,도로명주소:서울 중구 다동 88,웹링크:http://place.map.kakao.com/26834633
장소이름:스타벅스 을지로국제빌딩점,음식점,경도:126.9823422,위도:37.56704826,도로명주소:서울 중구 다동 111,웹링크:http://place.map.kakao.com/261003114
장소이름:써브웨이 을지로입구점,음식점,경도:126.9829851,위도:37.56719251,도로명주소:서울 중구 남대문로1가 22-10,웹링크:http://place.map.kakao.com/26944721
장소이름:우육면공방 을지로역점,음식점,경도:126.98301,위도:37.56737452,도로명주소:서울 중구 남대문로1가 21,웹링크:http://place.map.kakao.com/1891901763
장소이름:메가MGC커피 을지로입구역점,음식점,경도:126.9830168,위도:37.5671727,도로명주소:서울 중구 남대문로1가 22-10,웹링크:http://place.map.kakao.com/341750981
장소이름:김밥천국 을지로입구역점,음식점,경도:126.9830258,위도:37.56746462,도로명주소:서울 중구 남대문로1가 20,웹링크:http://place.map.kakao.com/15959848
장소이름:스키야키동아리 을지로입구역,음식점,경도:126.9830247,위도:37.56738894,도로명주소:서울 중구 남대문로1가 21,웹링크:http://place.map.kakao.com/1440494411
장소이름:을지분식,음식점,경도:126.9829851,위도:37.5671763,도로명주소:서울 중구 남대문로1가 22-10,웹링크:http://place.map.kakao.com/15454010
장소이름:이영자삼계탕,음식점,경도:126.9823058,위도:37.56777806,도로명주소:서울 중구 다동 88,웹링크:http://place.map.kakao.com/11496270
장소이름:오커피랩 을지로입구점,음식점,경도:126.9830247,위도:37.56746462,도로명주소:서울 중구 남대문로1가 20,웹링크:http://place.map.kakao.com/1809689257
장소이름:오늘의식당,음식점,경도:126.9823104,위도:37.56776725,도로명주소:서울 중구 다동 88,웹링크:http://place.map.kakao.com/159635273
장소이름:스키야끼 동아리,음식점,경도:126.9830247,위도:37.56738894,도로명주소:서울 중구 남대문로1가 21,웹링크:http://place.map.kakao.com/688168163
장소이름:얼큰버섯칼국수와 볶음밥,음식점,경도:126.9823058,위도:37.56778527,도로명주소:서울 중구 다동 88,웹링크:http://place.map.kakao.com/27539474
장소이름:인생한방찻집,음식점,경도:126.9823104,위도:37.56776725,도로명주소:서울 중구 다동 88,웹링크:http://place.map.kakao.com/22282675
장소이름:고향스넥,음식점,경도:126.9823058,위도:37.56778527,도로명주소:서울 중구 다동 88,웹링크:http://place.map.kakao.com/10168695
장소이름:파우치앤드커피,음식점,경도:126.9823058,위도:37.56783572,도로명주소:서울 중구 다동 88,웹링크:http://place.map.kakao.com/15441155
장소이름:미야비,음식점,경도:126.9823104,위도:37.56776725,도로명주소:서울 중구 다동 88,웹링크:http://place.map.kakao.com/580881447
장소이름:아지트커피 무교동점,음식점,경도:126.9823058,위도:37.56778527,도로명주소:서울 중구 다동 88,웹링크:http://place.map.kakao.com/1176620237
장소이름:미스터제이커피,음식점,경도:126.9823466,위도:37.56783573,도로명주소:서울 중구 다동 88,웹링크:http://place.map.kakao.com/102745459
장소이름:일일향 을지로점,음식점,경도:126.9823272,위도:37.56837723,도로명주소:서울 중구 다동 85,웹링크:http://place.map.kakao.com/2038957265
장소이름:스케줄오스테리아,음식점,경도:126.9822921,위도:37.56837452,도로명주소:서울 중구 다동 85,웹링크:http://place.map.kakao.com/255438897
장소이름:버거스올마이티 서울광화문점,음식점,경도:126.9822921,위도:37.56837452,도로명주소:서울 중구 다동 85,웹링크:http://place.map.kakao.com/269677318
장소이름:함루 종각점,음식점,경도:126.9822921,위도:37.56837452,도로명주소:서울 중구 다동 85,웹링크:http://place.map.kakao.com/576814356
장소이름:아방베이커리 을지로DGB점,음식점,경도:126.9822921,위도:37.56837452,도로명주소:서울 중구 다동 85,웹링크:http://place.map.kakao.com/710829529
장소이름:샐러링 광화문점,음식점,경도:126.9822853,위도:37.56836551,도로명주소:서울 중구 다동 85,웹링크:http://place.map.kakao.com/2115836938
장소이름:오마이포 DGB금융센터점,음식점,경도:126.9822921,위도:37.56837452,도로명주소:서울 중구 다동 85,웹링크:http://place.map.kakao.com/1931501685
장소이름:스페이스닷,음식점,경도:126.9822921,위도:37.56837452,도로명주소:서울 중구 다동 85,웹링크:http://place.map.kakao.com/894176510
장소이름:웰리브 디에스엠이 다동점,음식점,경도:126.9822921,위도:37.56837272,도로명주소:서울 중구 다동 85,웹링크:http://place.map.kakao.com/21393685
장소이름:청기와타운 을지로점,음식점,경도:126.9836442,위도:37.56588796,도로명주소:서울 중구 을지로2가 199-21,웹링크:http://place.map.kakao.com/835066389
장소이름:폴바셋 페럼타워점,음식점,경도:126.9840605,위도:37.5668611,도로명주소:서울 중구 수하동 66,웹링크:http://place.map.kakao.com/24580458
장소이름:명동순대국,음식점,경도:126.9838773,위도:37.56590331,도로명주소:서울 중구 을지로2가 197,웹링크:http://place.map.kakao.com/16003974
장소이름:리틀파파포 명동점,음식점,경도:126.9832251,위도:37.5668808,도로명주소:서울 중구 수하동 65-1,웹링크:http://place.map.kakao.com/322472531
장소이름:비진도 전복구이,음식점,경도:126.9838411,위도:37.5658934,도로명주소:서울 중구 을지로2가 197,웹링크:http://place.map.kakao.com/1976382820
장소이름:먹보대장 을지로점,음식점,경도:126.9838411,위도:37.56591142,도로명주소:서울 중구 을지로2가 197,웹링크:http://place.map.kakao.com/18507981
장소이름:길잡이사주타로,음식점,경도:126.9839893,위도:37.56611867,도로명주소:서울 중구 을지로2가 9-7,웹링크:http://place.map.kakao.com/1145164019
장소이름:오테로,음식점,경도:126.9840244,위도:37.56640879,도로명주소:서울 중구 을지로2가 9-10,웹링크:http://place.map.kakao.com/377524275
장소이름:모노치즈 을지로점,음식점,경도:126.9839395,위도:37.56610965,도로명주소:서울 중구 을지로2가 9-7,웹링크:http://place.map.kakao.com/18731566
장소이름:아리스타커피 을지로점,음식점,경도:126.98384,위도:37.56591052,도로명주소:서울 중구 을지로2가 197,웹링크:http://place.map.kakao.com/19032256
장소이름:로스터리요정,음식점,경도:126.98384,위도:37.56591232,도로명주소:서울 중구 을지로2가 197,웹링크:http://place.map.kakao.com/1417810264
장소이름:웃어밥,음식점,경도:126.9836645,위도:37.56604474,도로명주소:서울 중구 을지로2가 9-7,웹링크:http://place.map.kakao.com/722581282
장소이름:1982컵밥,음식점,경도:126.9839905,위도:37.56611686,도로명주소:서울 중구 을지로2가 9-7,웹링크:http://place.map.kakao.com/26453389
장소이름:브루클린커피,음식점,경도:126.9831629,위도:37.56685466,도로명주소:서울 중구 수하동 65-1,웹링크:http://place.map.kakao.com/1068120524
장소이름:잠시휴식,음식점,경도:126.9836576,위도:37.56648082,도로명주소:서울 중구 을지로2가 6,웹링크:http://place.map.kakao.com/1441697495
장소이름:제퍼커피 을지로입구역점,음식점,경도:126.9839905,위도:37.56611686,도로명주소:서울 중구 을지로2가 9-7,웹링크:http://place.map.kakao.com/442894549
장소이름:연자당,음식점,경도:126.9838366,위도:37.56591142,도로명주소:서울 중구 을지로2가 197,웹링크:http://place.map.kakao.com/14541776
장소이름:국수대장,음식점,경도:126.9838366,위도:37.56591142,도로명주소:서울 중구 을지로2가 197,웹링크:http://place.map.kakao.com/21527647
장소이름:심플마인드,음식점,경도:126.9836645,위도:37.56604474,도로명주소:서울 중구 을지로2가 9-7,웹링크:http://place.map.kakao.com/1902928885
장소이름:RB커피,음식점,경도:126.9839905,위도:37.56611686,도로명주소:서울 중구 을지로2가 9-7,웹링크:http://place.map.kakao.com/504253309
장소이름:커피스탠드,음식점,경도:126.9838388,위도:37.56591142,도로명주소:서울 중구 을지로2가 197,웹링크:http://place.map.kakao.com/21297440
장소이름:민샌드위치,음식점,경도:126.9836736,위도:37.56604474,도로명주소:서울 중구 을지로2가 9-7,웹링크:http://place.map.kakao.com/27216655
장소이름:카페빈,음식점,경도:126.9839893,위도:37.56611867,도로명주소:서울 중구 을지로2가 9,웹링크:http://place.map.kakao.com/1512497565
장소이름:카페화이트랩,음식점,경도:126.9840221,위도:37.56640879,도로명주소:서울 중구 을지로2가 9-10,웹링크:http://place.map.kakao.com/2064560039
장소이름:비익조,음식점,경도:126.9839905,위도:37.56611677,도로명주소:서울 중구 을지로2가 9-7,웹링크:http://place.map.kakao.com/2099936261
장소이름:어컵오브,음식점,경도:126.9838411,위도:37.56591142,도로명주소:서울 중구 을지로2가 197,웹링크:http://place.map.kakao.com/21409555
장소이름:짜드라,음식점,경도:126.9839905,위도:37.56611686,도로명주소:서울 중구 을지로2가 9-7,웹링크:http://place.map.kakao.com/68806432
장소이름:한양김밥,음식점,경도:126.9839893,위도:37.56611867,도로명주소:서울 중구 을지로2가 9-7,웹링크:http://place.map.kakao.com/15306824
장소이름:안즈,음식점,경도:126.9840526,위도:37.56689083,도로명주소:서울 중구 수하동 66,웹링크:http://place.map.kakao.com/21325473
장소이름:문어본가,음식점,경도:126.9833473,위도:37.56733132,도로명주소:서울 중구 삼각동 111-3,웹링크:http://place.map.kakao.com/396327388
장소이름:하나골뱅이북어구이전문점,음식점,경도:126.9835737,위도:37.56729891,도로명주소:서울 중구 삼각동 111-4,웹링크:http://place.map.kakao.com/15821885
장소이름:스타벅스 을지로경기빌딩점,음식점,경도:126.9831889,위도:37.56711145,도로명주소:서울 중구 삼각동 115,웹링크:http://place.map.kakao.com/27392952
장소이름:춘향골남원추어탕 을지로점,음식점,경도:126.9833382,위도:37.56747908,도로명주소:서울 중구 삼각동 112,웹링크:http://place.map.kakao.com/21876961
장소이름:매머드익스프레스 을지로입구점,음식점,경도:126.9835827,위도:37.5672881,도로명주소:서울 중구 삼각동 111-4,웹링크:http://place.map.kakao.com/1446693254
장소이름:명동갈비,음식점,경도:126.9833518,위도:37.5674935,도로명주소:서울 중구 삼각동 112,웹링크:http://place.map.kakao.com/23027672
장소이름:투썸플레이스 청계천광교점,음식점,경도:126.9831332,위도:37.56794036,도로명주소:서울 중구 남대문로1가 18,웹링크:http://place.map.kakao.com/8125981
장소이름:넛츠카페,음식점,경도:126.9843798,위도:37.56617818,도로명주소:서울 중구 을지로2가 18-6,웹링크:http://place.map.kakao.com/1888769184
장소이름:몽중헌 페럼타워점,음식점,경도:126.9840718,위도:37.56711878,도로명주소:서울 중구 수하동 66,웹링크:http://place.map.kakao.com/17801741
장소이름:한일관 을지로점,음식점,경도:126.9842099,위도:37.56697915,도로명주소:서울 중구 수하동 66,웹링크:http://place.map.kakao.com/17192156
장소이름:진가와 을지로점,음식점,경도:126.9840854,위도:37.56691156,도로명주소:서울 중구 수하동 66,웹링크:http://place.map.kakao.com/1629100995
장소이름:내림손삼계탕 을지로입구점,음식점,경도:126.9843796,위도:37.56748283,도로명주소:서울 중구 수하동 39-2,웹링크:http://place.map.kakao.com/8515770
장소이름:VIP참치 을지로점,음식점,경도:126.9842347,위도:37.56743956,도로명주소:서울 중구 수하동 40-2,웹링크:http://place.map.kakao.com/2023863284
장소이름:정원순두부 을지로점,음식점,경도:126.9842754,위도:37.56750804,도로명주소:서울 중구 수하동 40-2,웹링크:http://place.map.kakao.com/613386552
장소이름:남원추어탕,음식점,경도:126.9843886,위도:37.56748283,도로명주소:서울 중구 수하동 39-2,웹링크:http://place.map.kakao.com/23122930
장소이름:스타벅스 을지로삼화타워점,음식점,경도:126.9846876,위도:37.56692065,도로명주소:서울 중구 을지로2가 204,웹링크:http://place.map.kakao.com/17884783
장소이름:야마야 을지로페럼타워점,음식점,경도:126.9842348,위도:37.56689536,도로명주소:서울 중구 수하동 66,웹링크:http://place.map.kakao.com/15263182
장소이름:더미 을지로점,음식점,경도:126.9841408,위도:37.56693949,도로명주소:서울 중구 수하동 66,웹링크:http://place.map.kakao.com/1671545576
장소이름:우정함박,음식점,경도:126.9843886,위도:37.56748283,도로명주소:서울 중구 수하동 39-2,웹링크:http://place.map.kakao.com/27495480
장소이름:잇츠크리스피 을지로점,음식점,경도:126.9848958,위도:37.5669423,도로명주소:서울 중구 수하동 68,웹링크:http://place.map.kakao.com/25046616
장소이름:커피빈 청계천을지로점,음식점,경도:126.984504,위도:37.56779008,도로명주소:서울 중구 삼각동 30-1,웹링크:http://place.map.kakao.com/973459865
장소이름:달인겉절이칼국수샤브,음식점,경도:126.9842099,위도:37.56697915,도로명주소:서울 중구 수하동 66,웹링크:http://place.map.kakao.com/20401479
장소이름:낙원커피,음식점,경도:126.9842347,위도:37.56744316,도로명주소:서울 중구 수하동 40-2,웹링크:http://place.map.kakao.com/1155864256
장소이름:카페스윗 백년관점,음식점,경도:126.9841893,위도:37.56781437,도로명주소:서울 중구 삼각동 117,웹링크:http://place.map.kakao.com/767465493
장소이름:김삼보 제주생고기&김치찌개,음식점,경도:126.9843886,위도:37.56748193,도로명주소:서울 중구 수하동 39-2,웹링크:http://place.map.kakao.com/1815807886
장소이름:바나프레소 페럼타워점,음식점,경도:126.9843038,위도:37.56705845,도로명주소:서울 중구 수하동 66,웹링크:http://place.map.kakao.com/2115890056
장소이름:버터컵 베이커리,음식점,경도:126.984237,위도:37.56744046,도로명주소:서울 중구 수하동 40-2,웹링크:http://place.map.kakao.com/1319740635
장소이름:카페아이리스,음식점,경도:126.9841171,위도:37.56700346,도로명주소:서울 중구 수하동 66,웹링크:http://place.map.kakao.com/21325474
장소이름:엠즈씨드주식회사,음식점,경도:126.984194,위도:37.56693139,도로명주소:서울 중구 수하동 66,웹링크:http://place.map.kakao.com/20176380
장소이름:왕십리골뱅이&닭발,음식점,경도:126.9843886,위도:37.56748283,도로명주소:서울 중구 수하동 39-2,웹링크:http://place.map.kakao.com/17976163
장소이름:아톰인터내셔널코리아,음식점,경도:126.9842144,위도:37.56704222,도로명주소:서울 중구 수하동 66,웹링크:http://place.map.kakao.com/1859933808
장소이름:또또네분식,음식점,경도:126.9842347,위도:37.56743956,도로명주소:서울 중구 수하동 40-2,웹링크:http://place.map.kakao.com/946625866
장소이름:아라키,음식점,경도:126.9841442,위도:37.56701428,도로명주소:서울 중구 수하동 66,웹링크:http://place.map.kakao.com/26324790
장소이름:빨간돼지,음식점,경도:126.9842392,위도:37.56745398,도로명주소:서울 중구 수하동 40-2,웹링크:http://place.map.kakao.com/24997420
장소이름:에스프레소0039,음식점,경도:126.9846058,위도:37.56795858,도로명주소:서울 중구 삼각동 38-9,웹링크:http://place.map.kakao.com/27288714
장소이름:아그라 센터원점,음식점,경도:126.9852625,위도:37.56706848,도로명주소:서울 중구 수하동 67,웹링크:http://place.map.kakao.com/18763282
장소이름:차이797 청계천점,음식점,경도:126.9852488,위도:37.56761268,도로명주소:서울 중구 수하동 67,웹링크:http://place.map.kakao.com/13313035
장소이름:커피앳웍스 센터원점,음식점,경도:126.9854911,위도:37.56737215,도로명주소:서울 중구 수하동 67,웹링크:http://place.map.kakao.com/380052649
장소이름:뚝심한우 센터원점,음식점,경도:126.9853032,위도:37.56731716,도로명주소:서울 중구 수하동 67,웹링크:http://place.map.kakao.com/276359709
장소이름:이춘복참치 을지로점,음식점,경도:126.9852059,위도:37.56733877,도로명주소:서울 중구 수하동 67,웹링크:http://place.map.kakao.com/1859206901
장소이름:띤띤,음식점,경도:126.9851153,위도:37.5674649,도로명주소:서울 중구 수하동 67,웹링크:http://place.map.kakao.com/986372636
장소이름:매드포갈릭 센터원점,음식점,경도:126.9853643,위도:37.56746944,도로명주소:서울 중구 수하동 67,웹링크:http://place.map.kakao.com/923607452
장소이름:아티제 센터원점,음식점,경도:126.9855387,위도:37.56699644,도로명주소:서울 중구 수하동 67,웹링크:http://place.map.kakao.com/15861499
장소이름:강남교자 센터원점,음식점,경도:126.9851357,위도:37.56742526,도로명주소:서울 중구 수하동 67,웹링크:http://place.map.kakao.com/18684892
장소이름:홍수계찜닭 을지로센터원점,음식점,경도:126.9851492,위도:37.5676388,도로명주소:서울 중구 수하동 67,웹링크:http://place.map.kakao.com/1129573666
장소이름:브라운벤치 센터원1지점,음식점,경도:126.9852082,위도:37.56733877,도로명주소:서울 중구 수하동 67,웹링크:http://place.map.kakao.com/16010882
장소이름:슬로우캘리 을지로점,음식점,경도:126.9852093,위도:37.56733967,도로명주소:서울 중구 수하동 67,웹링크:http://place.map.kakao.com/2033277933
장소이름:크리에이트,음식점,경도:126.9852082,위도:37.56733877,도로명주소:서울 중구 수하동 67,웹링크:http://place.map.kakao.com/21327667
장소이름:크레이지후라이 센터원점,음식점,경도:126.9851764,위도:37.56742166,도로명주소:서울 중구 수하동 67,웹링크:http://place.map.kakao.com/1273939057
장소이름:이천가든 센터원점,음식점,경도:126.9852059,위도:37.56733877,도로명주소:서울 중구 수하동 67,웹링크:http://place.map.kakao.com/49843626
장소이름:노야 센터원,음식점,경도:126.9854096,위도:37.56762712,도로명주소:서울 중구 수하동 67,웹링크:http://place.map.kakao.com/213594496
장소이름:카페반,음식점,경도:126.9851946,위도:37.56744329,도로명주소:서울 중구 수하동 67,웹링크:http://place.map.kakao.com/13337275
장소이름:본우리반상 센터원점,음식점,경도:126.9852059,위도:37.56733877,도로명주소:서울 중구 수하동 67,웹링크:http://place.map.kakao.com/1789425483
장소이름:모미모미 센터원점,음식점,경도:126.9851855,위도:37.56728832,도로명주소:서울 중구 수하동 67,웹링크:http://place.map.kakao.com/575471394
장소이름:십삼호실,음식점,경도:126.985181,위도:37.56728471,도로명주소:서울 중구 수하동 67,웹링크:http://place.map.kakao.com/506786882
장소이름:완차이면가 미래에셋센터원점,음식점,경도:126.9852082,위도:37.56733877,도로명주소:서울 중구 수하동 67,웹링크:http://place.map.kakao.com/1899136692
장소이름:바른면집 미래에셋센터원점,음식점,경도:126.9851764,위도:37.56742166,도로명주소:서울 중구 수하동 67,웹링크:http://place.map.kakao.com/84134371
장소이름:남도한식정든님,음식점,경도:126.9864965,위도:37.56588832,도로명주소:서울 중구 을지로2가 163-5,웹링크:http://place.map.kakao.com/27092238
장소이름:이디야커피 IBK본점,음식점,경도:126.9865564,위도:37.56642623,도로명주소:서울 중구 을지로2가 50,웹링크:http://place.map.kakao.com/10748217
장소이름:컴포즈커피 기업은행본점,음식점,경도:126.9865609,위도:37.56650191,도로명주소:서울 중구 을지로2가 50,웹링크:http://place.map.kakao.com/1695375394
장소이름:타마고,음식점,경도:126.9862248,위도:37.56610453,도로명주소:서울 중구 을지로2가 149-10,웹링크:http://place.map.kakao.com/650685922
장소이름:생선구이,음식점,경도:126.9865575,위도:37.56651362,도로명주소:서울 중구 을지로2가 50,웹링크:http://place.map.kakao.com/21232304
장소이름:블루노트커피,음식점,경도:126.98687,위도:37.56615326,도로명주소:서울 중구 을지로2가 149-10,웹링크:http://place.map.kakao.com/911558522
장소이름:마마스찬,음식점,경도:126.9868474,위도:37.56613163,도로명주소:서울 중구 을지로2가 149-10,웹링크:http://place.map.kakao.com/1420449913
장소이름:바비공방 2호점,음식점,경도:126.98687,위도:37.56615326,도로명주소:서울 중구 을지로2가 149-10,웹링크:http://place.map.kakao.com/1905454717
장소이름:아지트커피,음식점,경도:126.98687,위도:37.56614966,도로명주소:서울 중구 을지로2가 149-10,웹링크:http://place.map.kakao.com/1530891067
장소이름:오렌지보틀 을지로점,음식점,경도:126.9868689,위도:37.56615236,도로명주소:서울 중구 을지로2가 149-10,웹링크:http://place.map.kakao.com/1259796278
장소이름:액츠샐러드,음식점,경도:126.98687,위도:37.56615326,도로명주소:서울 중구 을지로2가 149-10,웹링크:http://place.map.kakao.com/1743253073
장소이름:총각상회,음식점,경도:126.9865666,위도:37.566492,도로명주소:서울 중구 을지로2가 50,웹링크:http://place.map.kakao.com/1728684163
장소이름:카페408,음식점,경도:126.98687,위도:37.56614966,도로명주소:서울 중구 을지로2가 149-10,웹링크:http://place.map.kakao.com/1801773886
장소이름:늘보름,음식점,경도:126.9865671,위도:37.56649273,도로명주소:서울 중구 을지로2가 50,웹링크:http://place.map.kakao.com/21396720
장소이름:액츠컴퍼니,음식점,경도:126.98687,위도:37.56615326,도로명주소:서울 중구 을지로2가 149-10,웹링크:http://place.map.kakao.com/1163417966
장소이름:수석김밥,음식점,경도:126.98687,위도:37.56615326,도로명주소:서울 중구 을지로2가 149-10,웹링크:http://place.map.kakao.com/108252555
장소이름:짜드라,음식점,경도:126.9868644,위도:37.56614425,도로명주소:서울 중구 을지로2가 149-10,웹링크:http://place.map.kakao.com/853125114
장소이름:송이네도시락,음식점,경도:126.9865666,위도:37.566492,도로명주소:서울 중구 을지로2가 50,웹링크:http://place.map.kakao.com/19637997
장소이름:맘초이,음식점,경도:126.9863086,위도:37.56589371,도로명주소:서울 중구 을지로2가 185,웹링크:http://place.map.kakao.com/21540101
장소이름:기업은행사내식당,음식점,경도:126.9865847,위도:37.5664884,도로명주소:서울 중구 을지로2가 50,웹링크:http://place.map.kakao.com/13121246
장소이름:카오짜이,음식점,경도:126.9870509,위도:37.56714978,도로명주소:서울 중구 장교동 1,웹링크:http://place.map.kakao.com/2026639676
장소이름:매머드커피 장교빌딩점,음식점,경도:126.9870509,위도:37.56715519,도로명주소:서울 중구 장교동 1,웹링크:http://place.map.kakao.com/44789139
장소이름:매생이굴국밥,음식점,경도:126.9870509,위도:37.56715519,도로명주소:서울 중구 장교동 1,웹링크:http://place.map.kakao.com/780749933
장소이름:사랑채,음식점,경도:126.9870509,위도:37.56715519,도로명주소:서울 중구 장교동 1,웹링크:http://place.map.kakao.com/109214681
장소이름:기소야 을지점,음식점,경도:126.9870373,위도:37.56722366,도로명주소:서울 중구 장교동 1,웹링크:http://place.map.kakao.com/8227928
장소이름:맛사랑,음식점,경도:126.9870328,위도:37.56719483,도로명주소:서울 중구 장교동 1,웹링크:http://place.map.kakao.com/15420330
장소이름:슬립앤고,음식점,경도:126.9870555,위도:37.567166,도로명주소:서울 중구 장교동 1,웹링크:http://place.map.kakao.com/899587578
장소이름:영광식당,음식점,경도:126.9870464,위도:37.56713356,도로명주소:서울 중구 장교동 1,웹링크:http://place.map.kakao.com/1331184708
장소이름:전남화순댁,음식점,경도:126.9870419,위도:37.56715158,도로명주소:서울 중구 장교동 1,웹링크:http://place.map.kakao.com/1039438943
장소이름:산골마을,음식점,경도:126.9864894,위도:37.56755156,도로명주소:서울 중구 장교동 1,웹링크:http://place.map.kakao.com/16617603
장소이름:오부자,음식점,경도:126.9870374,위도:37.56717681,도로명주소:서울 중구 장교동 1,웹링크:http://place.map.kakao.com/16876475
장소이름:빈스앤베리즈 한화빌딩점,음식점,경도:126.9865076,위도:37.56755517,도로명주소:서울 중구 장교동 1,웹링크:http://place.map.kakao.com/10459194
장소이름:이삭손칼국수손만두수제돈까스,음식점,경도:126.9865211,위도:37.56754436,도로명주소:서울 중구 장교동 1,웹링크:http://place.map.kakao.com/1827059388
장소이름:다미초밥전문점,음식점,경도:126.9870691,위도:37.56714077,도로명주소:서울 중구 장교동 1,웹링크:http://place.map.kakao.com/8294199
장소이름:짬뽕향,음식점,경도:126.987034,위도:37.56705067,도로명주소:서울 중구 장교동 1,웹링크:http://place.map.kakao.com/348920849
장소이름:을지로뚝배기,음식점,경도:126.9870374,위도:37.56717681,도로명주소:서울 중구 장교동 1,웹링크:http://place.map.kakao.com/14715656
장소이름:빈스앤베리즈 한화빌딩2호점,음식점,경도:126.9865257,위도:37.56752273,도로명주소:서울 중구 장교동 1,웹링크:http://place.map.kakao.com/1537225085
장소이름:월화수목금토,음식점,경도:126.98658,위도:37.56743625,도로명주소:서울 중구 장교동 1,웹링크:http://place.map.kakao.com/20741127
장소이름:소금나무,음식점,경도:126.9870509,위도:37.56715519,도로명주소:서울 중구 장교동 1,웹링크:http://place.map.kakao.com/16791752
장소이름:팔선각,음식점,경도:126.9870509,위도:37.56715519,도로명주소:서울 중구 장교동 1,웹링크:http://place.map.kakao.com/10040380
장소이름:한화솔루션인사이트,음식점,경도:126.9865698,위도:37.5674831,도로명주소:서울 중구 장교동 1,웹링크:http://place.map.kakao.com/1939693134
장소이름:회림초밥,음식점,경도:126.9870283,위도:37.56715518,도로명주소:서울 중구 장교동 1,웹링크:http://place.map.kakao.com/16647052
장소이름:카페트리빈,음식점,경도:126.9870509,위도:37.56715158,도로명주소:서울 중구 장교동 1,웹링크:http://place.map.kakao.com/27583426
장소이름:한화솔루션무와랩,음식점,경도:126.9865268,위도:37.56752183,도로명주소:서울 중구 장교동 1,웹링크:http://place.map.kakao.com/224968585
장소이름:스타벅스 을지로2가점,음식점,경도:126.9880019,위도:37.56637322,도로명주소:서울 중구 을지로2가 205,웹링크:http://place.map.kakao.com/205260182
장소이름:그라츠과자점,음식점,경도:126.9875831,위도:37.56616775,도로명주소:서울 중구 을지로2가 149-10,웹링크:http://place.map.kakao.com/334771636
장소이름:디저트스토리 을지로점,음식점,경도:126.9879204,위도:37.56619121,도로명주소:서울 중구 을지로2가 149-10,웹링크:http://place.map.kakao.com/497689094
장소이름:쥬씨 을지로스타몰점,음식점,경도:126.9875322,위도:37.56616685,도로명주소:서울 중구 을지로2가 149-10,웹링크:http://place.map.kakao.com/853003608
장소이름:밥이랑국수랑비빔밥이랑,음식점,경도:126.9875265,위도:37.56614252,도로명주소:서울 중구 을지로2가 149-10,웹링크:http://place.map.kakao.com/1687799549
장소이름:파라오,음식점,경도:126.988029,위도:37.56686697,도로명주소:서울 중구 장교동 74,웹링크:http://place.map.kakao.com/8568598
장소이름:엔제리너스 명동시티호텔점,음식점,경도:126.9878886,위도:37.56698589,도로명주소:서울 중구 장교동 74,웹링크:http://place.map.kakao.com/550309056
장소이름:서울초밥,음식점,경도:126.9870713,위도:37.56714798,도로명주소:서울 중구 장교동 1,웹링크:http://place.map.kakao.com/514521795
장소이름:산골백반,음식점,경도:126.9871528,위도:37.56730296,도로명주소:서울 중구 장교동 1,웹링크:http://place.map.kakao.com/1497615865
장소이름:커피한약방,음식점,경도:126.9886017,위도:37.56656429,도로명주소:서울 중구 을지로2가 101-34,웹링크:http://place.map.kakao.com/1440347564
장소이름:이남장 본점,음식점,경도:126.9886583,위도:37.56666881,도로명주소:서울 중구 을지로2가 101-32,웹링크:http://place.map.kakao.com/10668060
장소이름:동강나루터,음식점,경도:126.9889753,위도:37.56642918,도로명주소:서울 중구 을지로2가 101-17,웹링크:http://place.map.kakao.com/18241603
장소이름:혜민당,음식점,경도:126.9886131,위도:37.5664778,도로명주소:서울 중구 을지로2가 101-37,웹링크:http://place.map.kakao.com/346424300
장소이름:훅트포케 을지로점,음식점,경도:126.9887602,위도:37.56661837,도로명주소:서울 중구 을지로2가 101-30,웹링크:http://place.map.kakao.com/1287846446
장소이름:카페느티,음식점,경도:126.9887127,위도:37.56637329,도로명주소:서울 중구 을지로2가 101-21,웹링크:http://place.map.kakao.com/2039117711
장소이름:투썸플레이스 파인애비뉴점,음식점,경도:126.9888803,위도:37.5659165,도로명주소:서울 중구 을지로2가 203,웹링크:http://place.map.kakao.com/1030563249
장소이름:가야성,음식점,경도:126.9885089,위도:37.56650031,도로명주소:서울 중구 을지로2가 101-38,웹링크:http://place.map.kakao.com/9687201
장소이름:바302호,음식점,경도:126.9887715,위도:37.56662558,도로명주소:서울 중구 을지로2가 101-30,웹링크:http://place.map.kakao.com/530313904
장소이름:신라원삼계탕,음식점,경도:126.9884999,위도:37.5664922,도로명주소:서울 중구 을지로2가 101-38,웹링크:http://place.map.kakao.com/773196619
장소이름:예전명가,음식점,경도:126.9884953,위도:37.56661114,도로명주소:서울 중구 을지로2가 101-28,웹링크:http://place.map.kakao.com/19244314
장소이름:화담,음식점,경도:126.9884546,위도:37.56681656,도로명주소:서울 중구 수표동 56-11,웹링크:http://place.map.kakao.com/216398795
장소이름:갈치호,음식점,경도:126.988896,위도:37.56661838,도로명주소:서울 중구 을지로2가 101-24,웹링크:http://place.map.kakao.com/894901230
장소이름:홍스황금족발,음식점,경도:126.9889753,위도:37.56669587,도로명주소:서울 중구 을지로2가 101-27,웹링크:http://place.map.kakao.com/572478607
장소이름:매일호프,음식점,경도:126.9890058,위도:37.56667606,도로명주소:서울 중구 을지로2가 101-27,웹링크:http://place.map.kakao.com/18567499
장소이름:경성양꼬치 수표동점,음식점,경도:126.9884681,위도:37.56684539,도로명주소:서울 중구 수표동 56-11,웹링크:http://place.map.kakao.com/1907432513
장소이름:맛깔참죽 을지로점,음식점,경도:126.9885123,위도:37.56643905,도로명주소:서울 중구 을지로2가 101-39,웹링크:http://place.map.kakao.com/15593907
장소이름:부지,음식점,경도:126.9885814,위도:37.56665079,도로명주소:서울 중구 을지로2가 101-44,웹링크:http://place.map.kakao.com/800227900
장소이름:커피기업 을지로L타워점,음식점,경도:126.9881037,위도:37.56648946,도로명주소:서울 중구 을지로2가 205,웹링크:http://place.map.kakao.com/777700142
장소이름:임진각민물매운탕,음식점,경도:126.9887715,위도:37.56680758,도로명주소:서울 중구 수표동 56-9,웹링크:http://place.map.kakao.com/1806099979
장소이름:을지로도화지,음식점,경도:126.9887715,위도:37.56662558,도로명주소:서울 중구 을지로2가 101-30,웹링크:http://place.map.kakao.com/1915967711
장소이름:카페1988,음식점,경도:126.9884681,위도:37.56684539,도로명주소:서울 중구 수표동 56-11,웹링크:http://place.map.kakao.com/1578572758
장소이름:동의명가찌개집 을지로점,음식점,경도:126.9889888,위도:37.56664722,도로명주소:서울 중구 을지로2가 101-27,웹링크:http://place.map.kakao.com/1868429537
장소이름:매일월드,음식점,경도:126.9888926,위도:37.56666974,도로명주소:서울 중구 을지로2가 101-24,웹링크:http://place.map.kakao.com/524364021
장소이름:콘레드커피 을지로점,음식점,경도:126.9885112,위도:37.56643364,도로명주소:서울 중구 을지로2가 101-39,웹링크:http://place.map.kakao.com/449888026
장소이름:커피밀 을지로점,음식점,경도:126.9885859,위도:37.5666652,도로명주소:서울 중구 을지로2가 101-44,웹링크:http://place.map.kakao.com/27402260
장소이름:VIP한우,음식점,경도:126.9890432,위도:37.56683824,도로명주소:서울 중구 수표동 56-5,웹링크:http://place.map.kakao.com/914114537
장소이름:42바,음식점,경도:126.9885791,위도:37.56663637,도로명주소:서울 중구 을지로2가 101-44,웹링크:http://place.map.kakao.com/869323392
장소이름:도리요시,음식점,경도:126.9884681,위도:37.56684539,도로명주소:서울 중구 수표동 56-11,웹링크:http://place.map.kakao.com/1350844802
장소이름:라링귀니,음식점,경도:126.9884681,위도:37.56684539,도로명주소:서울 중구 수표동 56-11,웹링크:http://place.map.kakao.com/1875936198
장소이름:나미,음식점,경도:126.9880788,위도:37.56648856,도로명주소:서울 중구 을지로2가 205,웹링크:http://place.map.kakao.com/1414723613
장소이름:매일집,음식점,경도:126.9888349,위도:37.56666523,도로명주소:서울 중구 을지로2가 101-40,웹링크:http://place.map.kakao.com/1045097690
장소이름:도쿄가든,음식점,경도:126.9889923,위도:37.56619042,도로명주소:서울 중구 을지로2가 149-10,웹링크:http://place.map.kakao.com/1077511633
장소이름:포비 을지로점,음식점,경도:126.9884431,위도:37.56759141,도로명주소:서울 중구 수표동 99,웹링크:http://place.map.kakao.com/851649773
장소이름:바른고기정육점 을지로점,음식점,경도:126.9883492,위도:37.56754365,도로명주소:서울 중구 수표동 99,웹링크:http://place.map.kakao.com/1162074112
장소이름:롯데시티호텔명동 씨카페,음식점,경도:126.9880878,위도:37.56693185,도로명주소:서울 중구 장교동 74,웹링크:http://place.map.kakao.com/358080401
장소이름:차이797 을지로점,음식점,경도:126.9882971,위도:37.56753103,도로명주소:서울 중구 수표동 99,웹링크:http://place.map.kakao.com/2069792254
장소이름:9988숯불구이,음식점,경도:126.9890205,위도:37.56701844,도로명주소:서울 중구 수표동 56-16,웹링크:http://place.map.kakao.com/397416853
장소이름:황금 족발,음식점,경도:126.9890069,위도:37.56694996,도로명주소:서울 중구 수표동 56-16,웹링크:http://place.map.kakao.com/575635700
장소이름:사프란레스토랑,음식점,경도:126.9880844,위도:37.56694987,도로명주소:서울 중구 장교동 74,웹링크:http://place.map.kakao.com/1329385383
장소이름:순심김밥,음식점,경도:126.9889979,위도:37.56694275,도로명주소:서울 중구 수표동 56-16,웹링크:http://place.map.kakao.com/1813989813
장소이름:쓰리도어즈컴퍼니,음식점,경도:126.9889978,위도:37.56701483,도로명주소:서울 중구 수표동 56-16,웹링크:http://place.map.kakao.com/1493276092
장소이름:성실한부엌,음식점,경도:126.9882247,위도:37.56754634,도로명주소:서울 중구 수표동 99,웹링크:http://place.map.kakao.com/680035487
장소이름:형제네,음식점,경도:126.9881149,위도:37.56746524,도로명주소:서울 중구 수표동 99,웹링크:http://place.map.kakao.com/19292898
장소이름:카페아이엠티 을지로시그니처타워점,음식점,경도:126.9882621,위도:37.56728956,도로명주소:서울 중구 수표동 99,웹링크:http://place.map.kakao.com/1919675357
장소이름:일리카페 시그니처타워점,음식점,경도:126.9887657,위도:37.56761847,도로명주소:서울 중구 수표동 99,웹링크:http://place.map.kakao.com/1121716508
장소이름:브알라 을지로점,음식점,경도:126.9884261,위도:37.56760943,도로명주소:서울 중구 수표동 99,웹링크:http://place.map.kakao.com/1452724597
장소이름:코코이찌방야 을지로시그니쳐타워점,음식점,경도:126.9884205,위도:37.56754456,도로명주소:서울 중구 수표동 99,웹링크:http://place.map.kakao.com/286912302
장소이름:나주곰탕 을지로본점,음식점,경도:126.9887126,위도:37.56705445,도로명주소:서울 중구 수표동 56-14,웹링크:http://place.map.kakao.com/1914078067
장소이름:고마워요오늘도,음식점,경도:126.9883401,위도:37.56760492,도로명주소:서울 중구 수표동 99,웹링크:http://place.map.kakao.com/1548184133
장소이름:스쿱,음식점,경도:126.9882768,위도:37.56735984,도로명주소:서울 중구 수표동 99,웹링크:http://place.map.kakao.com/1430322888
장소이름:김밥킹,음식점,경도:126.9881138,위도:37.56747245,도로명주소:서울 중구 수표동 99,웹링크:http://place.map.kakao.com/1400522843
장소이름:레이드버거,음식점,경도:126.9881138,위도:37.56747245,도로명주소:서울 중구 수표동 99,웹링크:http://place.map.kakao.com/1476125965
장소이름:초우커피숍,음식점,경도:126.9890024,위도:37.56689229,도로명주소:서울 중구 수표동 56-6,웹링크:http://place.map.kakao.com/15755597
장소이름:NY 카페,음식점,경도:126.9883413,위도:37.56754455,도로명주소:서울 중구 수표동 99,웹링크:http://place.map.kakao.com/27588967
장소이름:키친스트웰브,음식점,경도:126.9884454,위도:37.56765268,도로명주소:서울 중구 수표동 99,웹링크:http://place.map.kakao.com/1085852724
장소이름:커피앤브레드,음식점,경도:126.9884182,위도:37.5676743,도로명주소:서울 중구 수표동 99,웹링크:http://place.map.kakao.com/22251973
장소이름:봄이온소반 시그니쳐타워,음식점,경도:126.9882371,위도:37.56755535,도로명주소:서울 중구 수표동 99,웹링크:http://place.map.kakao.com/24199440
장소이름:저스트커피,음식점,경도:126.9884171,위도:37.56759592,도로명주소:서울 중구 수표동 99,웹링크:http://place.map.kakao.com/680633150
장소이름:삼성웰스토리시그니쳐타워 탕맛기픈,음식점,경도:126.9882054,위도:37.56758418,도로명주소:서울 중구 수표동 99,웹링크:http://place.map.kakao.com/24199443
장소이름:델라코트 시그니쳐타워점,음식점,경도:126.9886718,위도:37.5674689,도로명주소:서울 중구 수표동 99,웹링크:http://place.map.kakao.com/22482937
장소이름:청와옥 을지로3가 직영점,음식점,경도:126.9900507,위도:37.56601482,도로명주소:서울 중구 을지로3가 346-1,웹링크:http://place.map.kakao.com/502452137
장소이름:본가을지오뎅도루묵,음식점,경도:126.9899262,위도:37.5659157,도로명주소:서울 중구 을지로3가 348-5,웹링크:http://place.map.kakao.com/11786286
장소이름:락희옥 을지로지점,음식점,경도:126.9891711,위도:37.566431,도로명주소:서울 중구 을지로2가 101-11,웹링크:http://place.map.kakao.com/26843651
장소이름:오구반점,음식점,경도:126.9898729,위도:37.56652477,도로명주소:서울 중구 을지로3가 5-9,웹링크:http://place.map.kakao.com/8016538
장소이름:을지로전주옥,음식점,경도:126.9891734,위도:37.56636162,도로명주소:서울 중구 을지로2가 101-11,웹링크:http://place.map.kakao.com/9387801
장소이름:을지로양대장,음식점,경도:126.9899262,위도:37.56596976,도로명주소:서울 중구 을지로3가 348-4,웹링크:http://place.map.kakao.com/1833059878
장소이름:에이스포클럽,음식점,경도:126.9895503,위도:37.56643824,도로명주소:서울 중구 을지로2가 101-2,웹링크:http://place.map.kakao.com/1801878671
장소이름:오덕장 을지로본점,음식점,경도:126.9900529,위도:37.56602112,도로명주소:서울 중구 을지로3가 346-1,웹링크:http://place.map.kakao.com/744276748
장소이름:용대리황태해장국,음식점,경도:126.9895503,위도:37.56643824,도로명주소:서울 중구 을지로2가 101-2,웹링크:http://place.map.kakao.com/53092196
장소이름:을지삼계탕,음식점,경도:126.989093,위도:37.56637693,도로명주소:서울 중구 을지로2가 101-15,웹링크:http://place.map.kakao.com/375557778
장소이름:원조영락골뱅이 분점,음식점,경도:126.9899216,위도:37.56599138,도로명주소:서울 중구 을지로3가 348-4,웹링크:http://place.map.kakao.com/18833952
장소이름:써브웨이 을지로3가점,음식점,경도:126.9894235,위도:37.56636525,도로명주소:서울 중구 을지로2가 101-6,웹링크:http://place.map.kakao.com/26932816
장소이름:카다로그,음식점,경도:126.9895526,위도:37.56642923,도로명주소:서울 중구 을지로2가 101-2,웹링크:http://place.map.kakao.com/324146172
장소이름:올디스하우스,음식점,경도:126.9898514,위도:37.56640043,도로명주소:서울 중구 을지로3가 5-7,웹링크:http://place.map.kakao.com/78472138
장소이름:양평해장국,음식점,경도:126.9900439,위도:37.56590129,도로명주소:서울 중구 을지로3가 348-7,웹링크:http://place.map.kakao.com/14511305
장소이름:오브렛,음식점,경도:126.9898389,위도:37.56645809,도로명주소:서울 중구 을지로3가 5-7,웹링크:http://place.map.kakao.com/1068599049
장소이름:황소풍천민물장어직판장,음식점,경도:126.9890783,위도:37.56636252,도로명주소:서울 중구 을지로2가 101-12,웹링크:http://place.map.kakao.com/1831613949
장소이름:황소유황오리,음식점,경도:126.9890749,위도:37.5664418,도로명주소:서울 중구 을지로2가 101-12,웹링크:http://place.map.kakao.com/21297261
장소이름:5:37,음식점,경도:126.9891519,위도:37.56649947,도로명주소:서울 중구 을지로2가 101-11,웹링크:http://place.map.kakao.com/1470742396
장소이름:스탠드업플리즈 을지로,음식점,경도:126.9899262,위도:37.56596976,도로명주소:서울 중구 을지로3가 348-4,웹링크:http://place.map.kakao.com/920924204
장소이름:사이드바이사이드커피,음식점,경도:126.9895978,위도:37.56647429,도로명주소:서울 중구 을지로2가 101-2,웹링크:http://place.map.kakao.com/1981914383
장소이름:이모네영양돌솥,음식점,경도:126.9898537,위도:37.56640583,도로명주소:서울 중구 을지로3가 5-7,웹링크:http://place.map.kakao.com/2137396903
장소이름:김가네 을지로3가점,음식점,경도:126.9894156,위도:37.56635714,도로명주소:서울 중구 을지로2가 101-6,웹링크:http://place.map.kakao.com/2052560620
장소이름:서울골뱅이북어구이,음식점,경도:126.9893001,위도:37.56681934,도로명주소:서울 중구 수표동 56-22,웹링크:http://place.map.kakao.com/26931102
장소이름:임도영의자연밥상,음식점,경도:126.9893059,위도:37.56611026,도로명주소:서울 중구 을지로2가 149-10,웹링크:http://place.map.kakao.com/1566003027
장소이름:바지선라딸랑뜨,음식점,경도:126.9899262,위도:37.5659157,도로명주소:서울 중구 을지로3가 348-5,웹링크:http://place.map.kakao.com/839315790
장소이름:골든케이지,음식점,경도:126.9890885,위도:37.56635891,도로명주소:서울 중구 을지로2가 101-12,웹링크:http://place.map.kakao.com/2081948491
장소이름:판코리아다방,음식점,경도:126.9893692,위도:37.56665086,도로명주소:서울 중구 을지로2가 101-1,웹링크:http://place.map.kakao.com/21396810
장소이름:수라칼국수,음식점,경도:126.9893692,위도:37.56661843,도로명주소:서울 중구 을지로2가 101-1,웹링크:http://place.map.kakao.com/13290978
장소이름:오프렛,음식점,경도:126.9898536,위도:37.5664635,도로명주소:서울 중구 을지로3가 5-8,웹링크:http://place.map.kakao.com/41481592
장소이름:스위트부스,음식점,경도:126.9893738,위도:37.56609945,도로명주소:서울 중구 을지로2가 149-10,웹링크:http://place.map.kakao.com/24584212
장소이름:부산갈매기살,음식점,경도:126.9892876,위도:37.56685628,도로명주소:서울 중구 수표동 56-22,웹링크:http://place.map.kakao.com/23108398
장소이름:스타벅스 청계크리스탈스퀘어점,음식점,경도:126.9894143,위도:37.56770773,도로명주소:서울 중구 수표동 100,웹링크:http://place.map.kakao.com/2056391005
장소이름:광장,음식점,경도:126.9895106,위도:37.56690225,도로명주소:서울 중구 수표동 56-3,웹링크:http://place.map.kakao.com/228428661
장소이름:몬떼비서울 수표점,음식점,경도:126.9892807,위도:37.56763654,도로명주소:서울 중구 수표동 47-1,웹링크:http://place.map.kakao.com/2073929963
장소이름:한국관,음식점,경도:126.9901706,위도:37.56603105,도로명주소:서울 중구 을지로3가 345-7,웹링크:http://place.map.kakao.com/19576297
장소이름:뼈탄집 을지로점,음식점,경도:126.9905147,위도:37.56605991,도로명주소:서울 중구 을지로3가 342-3,웹링크:http://place.map.kakao.com/167637474
장소이름:을지로만선호프,음식점,경도:126.9907501,위도:37.56669783,도로명주소:서울 중구 을지로3가 5-1,웹링크:http://place.map.kakao.com/1319031641
장소이름:세광양대창 을지로3가점,음식점,경도:126.9902295,위도:37.56602384,도로명주소:서울 중구 을지로3가 345-6,웹링크:http://place.map.kakao.com/195212577
장소이름:공평동꼼장어 을지로점,음식점,경도:126.990157,위도:37.56670138,도로명주소:서울 중구 을지로3가 5-16,웹링크:http://place.map.kakao.com/590134050
장소이름:디엣지,음식점,경도:126.9910467,위도:37.56594282,도로명주소:서울 중구 을지로3가 334-8,웹링크:http://place.map.kakao.com/2077670614
장소이름:한라식당,음식점,경도:126.9901343,위도:37.56675184,도로명주소:서울 중구 을지로3가 5-14,웹링크:http://place.map.kakao.com/272759175
장소이름:109st,음식점,경도:126.9901072,위도:37.56646532,도로명주소:서울 중구 을지로3가 5-6,웹링크:http://place.map.kakao.com/34071272
장소이름:코와핀,음식점,경도:126.991058,위도:37.56629421,도로명주소:서울 중구 을지로3가 335-1,웹링크:http://place.map.kakao.com/21299615
장소이름:일공구에스티커피,음식점,경도:126.9901072,위도:37.56647073,도로명주소:서울 중구 을지로3가 5-6,웹링크:http://place.map.kakao.com/413585169
장소이름:라임푸드,음식점,경도:126.9903087,위도:37.56626622,도로명주소:서울 중구 을지로3가 347-3,웹링크:http://place.map.kakao.com/1610483670
장소이름:수표교호프,음식점,경도:126.9910126,위도:37.56718439,도로명주소:서울 중구 을지로3가 95-14,웹링크:http://place.map.kakao.com/27009203
장소이름:신도시,음식점,경도:126.9907183,위도:37.56779884,도로명주소:서울 중구 수표동 11-2,웹링크:http://place.map.kakao.com/27302182
장소이름:청시행,음식점,경도:126.9909719,위도:37.56706545,도로명주소:서울 중구 을지로3가 95-13,웹링크:http://place.map.kakao.com/523085499
장소이름:대지식당,음식점,경도:126.9904534,위도:37.56770242,도로명주소:서울 중구 수표동 11-4,웹링크:http://place.map.kakao.com/8901934
장소이름:영동호프&식당,음식점,경도:126.9907318,위도:37.56770694,도로명주소:서울 중구 수표동 11-3,웹링크:http://place.map.kakao.com/637150774
장소이름:영동분식,음식점,경도:126.9907318,위도:37.56770694,도로명주소:서울 중구 수표동 11-3,웹링크:http://place.map.kakao.com/10644465
장소이름:비긴어게인,음식점,경도:126.9909628,위도:37.56707266,도로명주소:서울 중구 을지로3가 95,웹링크:http://place.map.kakao.com/1899525521
장소이름:돈오네호남집,음식점,경도:126.9909368,위도:37.56744567,도로명주소:서울 중구 입정동 272-8,웹링크:http://place.map.kakao.com/1036673095
장소이름:골드커피팟 을지로점,음식점,경도:126.9907318,위도:37.56768532,도로명주소:서울 중구 수표동 11-3,웹링크:http://place.map.kakao.com/857760641
장소이름:그루터기카페테리아,음식점,경도:126.9905598,위도:37.56748348,도로명주소:서울 중구 수표동 27-2,웹링크:http://place.map.kakao.com/21340825
장소이름:대성호프,음식점,경도:126.9910081,위도:37.56718799,도로명주소:서울 중구 을지로3가 95-14,웹링크:http://place.map.kakao.com/21848767
장소이름:을지로생고기,음식점,경도:126.9909719,위도:37.56718438,도로명주소:서울 중구 을지로3가 95-14,웹링크:http://place.map.kakao.com/24574275
장소이름:하이드미플리즈 을지로점,음식점,경도:126.9907296,위도:37.56789795,도로명주소:서울 중구 수표동 11-25,웹링크:http://place.map.kakao.com/2096752710
장소이름:안동장,음식점,경도:126.9915787,위도:37.56608521,도로명주소:서울 중구 을지로3가 315-18,웹링크:http://place.map.kakao.com/10582837
장소이름:죠지서울,음식점,경도:126.9912029,위도:37.5660095,도로명주소:서울 중구 을지로3가 334-7,웹링크:http://place.map.kakao.com/831681203
장소이름:을지다방,음식점,경도:126.9917802,위도:37.56616181,도로명주소:서울 중구 을지로3가 315-3,웹링크:http://place.map.kakao.com/349314259
장소이름:맥파이 을지로점,음식점,경도:126.992062,위도:37.5665862,도로명주소:서울 중구 을지로3가 118-6,웹링크:http://place.map.kakao.com/1228139047
장소이름:친앤노즈,음식점,경도:126.9914565,위도:37.56611674,도로명주소:서울 중구 을지로3가 315-22,웹링크:http://place.map.kakao.com/999357347
장소이름:원조만선호프 노가리체인본점,음식점,경도:126.9917823,위도:37.56724931,도로명주소:서울 중구 을지로3가 95-1,웹링크:http://place.map.kakao.com/8332362
장소이름:원조만선호프 2,음식점,경도:126.9918163,위도:37.56693397,도로명주소:서울 중구 을지로3가 95-4,웹링크:http://place.map.kakao.com/1134368106
장소이름:명동골뱅이,음식점,경도:126.9916963,위도:37.56695018,도로명주소:서울 중구 을지로3가 95-6,웹링크:http://place.map.kakao.com/18757975
장소이름:초원호프,음식점,경도:126.9920494,위도:37.56725294,도로명주소:서울 중구 을지로3가 110-1,웹링크:http://place.map.kakao.com/25626473
장소이름:부,음식점,경도:126.9918208,위도:37.56698803,도로명주소:서울 중구 을지로3가 95-4,웹링크:http://place.map.kakao.com/973849508
장소이름:을지나른,음식점,경도:126.9918208,위도:37.56698803,도로명주소:서울 중구 을지로3가 95-4,웹링크:http://place.map.kakao.com/1080262707
장소이름:만선호프4,음식점,경도:126.9915322,위도:37.56715289,도로명주소:서울 중구 을지로3가 95-20,웹링크:http://place.map.kakao.com/1745558364
장소이름:힙지로호프,음식점,경도:126.9918231,위도:37.56698623,도로명주소:서울 중구 을지로3가 95-4,웹링크:http://place.map.kakao.com/945263456
장소이름:구구알칼리치킨,음식점,경도:126.9910941,위도:37.56719881,도로명주소:서울 중구 을지로3가 95-15,웹링크:http://place.map.kakao.com/755822338
장소이름:우화식당 을지로점,음식점,경도:126.991488,위도:37.56750157,도로명주소:서울 중구 입정동 250,웹링크:http://place.map.kakao.com/13300631
장소이름:종로빈대떡,음식점,경도:126.9913703,위도:37.56724208,도로명주소:서울 중구 입정동 268-2,웹링크:http://place.map.kakao.com/25531891
장소이름:을지로한량,음식점,경도:126.9918038,위도:37.56712408,도로명주소:서울 중구 을지로3가 95-3,웹링크:http://place.map.kakao.com/285476357
장소이름:에이스호프,음식점,경도:126.9915922,위도:37.56700423,도로명주소:서울 중구 을지로3가 95-6,웹링크:http://place.map.kakao.com/856102567
장소이름:포틀럭,음식점,경도:126.9918208,위도:37.56698803,도로명주소:서울 중구 을지로3가 95-4,웹링크:http://place.map.kakao.com/996805822
장소이름:만선호프5,음식점,경도:126.991831,위도:37.56718174,도로명주소:서울 중구 을지로3가 95-2,웹링크:http://place.map.kakao.com/988748839
장소이름:풍년집,음식점,경도:126.9919317,위도:37.56766739,도로명주소:서울 중구 입정동 237,웹링크:http://place.map.kakao.com/2144683418
장소이름:만선3,음식점,경도:126.991805,위도:37.56712318,도로명주소:서울 중구 을지로3가 95-3,웹링크:http://place.map.kakao.com/617035752
장소이름:종로전&호프,음식점,경도:126.9913567,위도:37.56723847,도로명주소:서울 중구 입정동 268-2,웹링크:http://place.map.kakao.com/786504079
장소이름:청계광장,음식점,경도:126.9918208,위도:37.56698803,도로명주소:서울 중구 을지로3가 95-4,웹링크:http://place.map.kakao.com/272038878
장소이름:을지호프,음식점,경도:126.9920539,위도:37.56753044,도로명주소:서울 중구 입정동 233-2,웹링크:http://place.map.kakao.com/13593507
장소이름:만선6,음식점,경도:126.9916827,위도:37.56701144,도로명주소:서울 중구 을지로3가 95-6,웹링크:http://place.map.kakao.com/919033783
장소이름:만선스카이,음식점,경도:126.9916657,위도:37.5672475,도로명주소:서울 중구 을지로3가 95-23,웹링크:http://place.map.kakao.com/395312820
장소이름:등대해물,음식점,경도:126.9911348,위도:37.56738982,도로명주소:서울 중구 입정동 272-2,웹링크:http://place.map.kakao.com/13094052
