place_name,category_group_name,category_name,x,y,road_address_name,place_url
롯데시네마 김포공항,문화시설,"문화,예술 > 영화,영상 > 영화관 > 롯데시네마",126.803871637376,37.5637133658076,서울 강서구 하늘길 지하 77,http://place.map.kakao.com/21344827
국립항공박물관,문화시설,"문화,예술 > 문화시설 > 박물관",126.80886929349872,37.55686858966058,서울 강서구 하늘길 177,http://place.map.kakao.com/1873127229
초이아트홀,문화시설,"문화,예술 > 문화시설 > 공연장,연극극장",126.81537156133376,37.5681954379457,서울 강서구 양천로24길 113,http://place.map.kakao.com/1904266033
강서별빛우주과학관,문화시설,"문화,예술 > 문화시설 > 과학관",126.81469235812853,37.581006501296706,서울 강서구 금낭화로 178,http://place.map.kakao.com/2133821001
평화박물관,문화시설,"문화,예술 > 문화시설 > 박물관",126.82180978997916,37.496930824160344,서울 구로구 부일로9길 135,http://place.map.kakao.com/737780
푸른수목원,관광명소,"여행 > 관광,명소 > 수목원,식물원",126.82541340864,37.4839833354275,서울 구로구 연동로 240,http://place.map.kakao.com/20002003
재활용창작품상설전시관,문화시설,"문화,예술 > 문화시설 > 전시관",126.82822235479,37.537110616448,서울 양천구 화곡로4길 26,http://place.map.kakao.com/12728909
LG아트센터 서울,문화시설,"문화,예술 > 문화시설 > 공연장,연극극장",126.82927805089568,37.56536922310509,서울 강서구 마곡중앙로 136,http://place.map.kakao.com/992535148
LG디스커버리랩 서울,문화시설,"문화,예술 > 문화시설 > 과학관",126.829388989386,37.5653630765092,서울 강서구 마곡중앙로 136,http://place.map.kakao.com/643449402
스페이스K서울미술관,문화시설,"문화,예술 > 문화시설 > 미술관",126.83097417878128,37.56110995518217,서울 강서구 마곡중앙8로 32,http://place.map.kakao.com/1008871331
메가박스 마곡,문화시설,"문화,예술 > 영화,영상 > 영화관 > 메가박스",126.835238296528,37.5593139908802,서울 강서구 공항대로 247,http://place.map.kakao.com/207824581
서울식물원,관광명소,"여행 > 관광,명소 > 수목원,식물원",126.835037244018,37.5693958477101,서울 강서구 마곡동로 161,http://place.map.kakao.com/1164966384
서울식물원 식물문화센터,관광명소,"여행 > 관광,명소 > 수목원,식물원",126.835034928473,37.5694192703326,서울 강서구 마곡동로 161,http://place.map.kakao.com/1825513490
서울식물원 오늘의정원,관광명소,"여행 > 관광,명소 > 수목원,식물원",126.833334891498,37.5683392930297,서울 강서구 마곡동로 161,http://place.map.kakao.com/1603462815
서울식물원 어린이정원학교,관광명소,"여행 > 관광,명소 > 수목원,식물원",126.834380578754,37.5704806266327,서울 강서구 마곡동로 161,http://place.map.kakao.com/1235444926
강서문화원,문화시설,"문화,예술 > 문화시설 > 문화원",126.8376419131825,37.53754290729429,서울 강서구 가로공원로 195,http://place.map.kakao.com/8668826
메가박스 화곡,문화시설,"문화,예술 > 영화,영상 > 영화관 > 메가박스",126.8375663037943,37.54058097265443,서울 강서구 화곡로 142,http://place.map.kakao.com/26781195
겸재정선미술관,문화시설,"문화,예술 > 문화시설 > 미술관",126.838474523164,37.5722171090187,서울 강서구 양천로47길 36,http://place.map.kakao.com/8651724
호강아트홀,문화시설,"문화,예술 > 문화시설 > 공연장,연극극장",126.84031191684,37.5726628978187,서울 강서구 양천로47나길 48-1,http://place.map.kakao.com/1085559277
평강성서유물박물관,문화시설,"문화,예술 > 문화시설 > 박물관",126.84405487638372,37.49195809528819,서울 구로구 오류로8라길 44,http://place.map.kakao.com/8131859
오류아트홀,문화시설,"문화,예술 > 문화시설 > 공연장,연극극장",126.846035798837,37.4953574870152,서울 구로구 경인로20가길 38,http://place.map.kakao.com/110967947
구로문화원,문화시설,"문화,예술 > 문화시설 > 문화원",126.8460527611692,37.49535750912037,서울 구로구 경인로20가길 38,http://place.map.kakao.com/1090968012
오류문화센터 오류아트홀,문화시설,"문화,예술 > 문화시설 > 공연장,연극극장",126.846035799022,37.4953573969149,서울 구로구 경인로20가길 38,http://place.map.kakao.com/897176381
KBS스포츠월드 워터플레이,관광명소,"여행 > 관광,명소 > 테마파크 > 워터테마파크",126.848693914857,37.5566362198515,서울 강서구 공항대로 376,http://place.map.kakao.com/1068712068
KBS아레나,문화시설,"문화,예술 > 문화시설 > 공연장,연극극장",126.84796255512904,37.55675871689889,서울 강서구 공항대로 376,http://place.map.kakao.com/27305412
스카이아트홀,문화시설,"문화,예술 > 문화시설 > 공연장,연극극장",126.84939856075307,37.5579769026158,서울 강서구 화곡로63길 65,http://place.map.kakao.com/1446437489
한국건강관리협회 기생충박물관,문화시설,"문화,예술 > 문화시설 > 박물관",126.850741618549,37.5536150805963,서울 강서구 화곡로 333,http://place.map.kakao.com/18619443
허준박물관,문화시설,"문화,예술 > 문화시설 > 박물관",126.850998403189,37.5678799742891,서울 강서구 허준로 87,http://place.map.kakao.com/8144917
CGV 등촌,문화시설,"문화,예술 > 영화,영상 > 영화관 > CGV",126.85599360789234,37.55786349608616,서울 강서구 공항대로45길 63,http://place.map.kakao.com/1509815784
제니스아트홀,문화시설,"문화,예술 > 문화시설 > 공연장,연극극장",126.862941812203,37.5002113053612,서울 구로구 중앙로3길 12,http://place.map.kakao.com/45765227
양천문화회관,문화시설,"문화,예술 > 문화시설 > 공연장,연극극장",126.863221859318,37.516555845645,서울 양천구 목동서로 367,http://place.map.kakao.com/11108826
양천문화회관 대극장,문화시설,"문화,예술 > 문화시설 > 공연장,연극극장",126.863262711975,37.5164838127114,서울 양천구 목동서로 367,http://place.map.kakao.com/27319305
형우도기,관광명소,"여행 > 관광,명소 > 도자기,도예촌",126.863848877276,37.5474753055379,서울 양천구 목동중앙북로8나길 29,http://place.map.kakao.com/20520388
구구갤러리 목동본점,문화시설,"문화,예술 > 문화시설 > 미술관",126.866666266424,37.5336788154134,서울 양천구 목동중앙서로9길 30,http://place.map.kakao.com/1872157338
에스제이세라믹스,관광명소,"여행 > 관광,명소 > 도자기,도예촌",126.865506336494,37.5420027372845,서울 양천구 목동중앙남로14가길 34,http://place.map.kakao.com/705187787
양천문화원,문화시설,"문화,예술 > 문화시설 > 문화원",126.8701996777558,37.51080270400357,서울 양천구 목동남로 106,http://place.map.kakao.com/9907535
로운아트홀,문화시설,"문화,예술 > 문화시설 > 공연장,연극극장",126.87074619294,37.527073608816,서울 양천구 목동서로 225,http://place.map.kakao.com/608658254
한생연생명과학박물관,문화시설,"문화,예술 > 문화시설 > 과학관",126.872023169586,37.5239178897046,서울 양천구 목동동로 206-1,http://place.map.kakao.com/10744685
메가박스 더부티크 목동현대백화점,문화시설,"문화,예술 > 영화,영상 > 영화관 > 메가박스",126.87560987143218,37.52695179034791,서울 양천구 목동동로 257,http://place.map.kakao.com/1898363263
메가박스 목동,문화시설,"문화,예술 > 영화,영상 > 영화관 > 메가박스",126.876069465384,37.5288308612468,서울 양천구 목동동로 309,http://place.map.kakao.com/21551839
시립목동청소년센터 문화의집,문화시설,"문화,예술 > 문화시설 > 공연장,연극극장",126.87542359208,37.5308015719409,서울 양천구 목동서로 143,http://place.map.kakao.com/7869354
오아시스 아트홀,문화시설,"문화,예술 > 문화시설 > 공연장,연극극장",126.873984473216,37.5536764122537,서울 강서구 양천로73길 80,http://place.map.kakao.com/1504116688
노랑그릇도예공방,관광명소,"여행 > 관광,명소 > 도자기,도예촌",126.878039904776,37.5359868575714,서울 양천구 목동서로 77,http://place.map.kakao.com/26584457
시네마9,문화시설,"문화,예술 > 영화,영상 > 영화관",126.88039326444984,37.48142534625769,서울 금천구 가산디지털1로 181,http://place.map.kakao.com/1406649405
서울시립 난지미술창작스튜디오,문화시설,"문화,예술 > 문화시설 > 미술관",126.878923224215,37.5690723972468,서울 마포구 하늘공원로 108-1,http://place.map.kakao.com/11980980
CGV 구로,문화시설,"문화,예술 > 영화,영상 > 영화관 > CGV",126.882208106149,37.501457454683,서울 구로구 구로중앙로 152,http://place.map.kakao.com/7999536
구로공단 노동자생활체험관,문화시설,"문화,예술 > 문화시설 > 전시관",126.8836303058,37.4828260427702,서울 금천구 벚꽃로44길 17,http://place.map.kakao.com/25759840
서울특별시교육청융합과학교육원 남부분원,문화시설,"문화,예술 > 문화시설 > 과학관",126.885943087687,37.4965416281648,서울 구로구 구로중앙로27나길 21,http://place.map.kakao.com/21051382
예술나무씨어터,문화시설,"문화,예술 > 문화시설 > 공연장,연극극장",126.884132790487,37.5000826217182,서울 구로구 구로중앙로 134,http://place.map.kakao.com/19551745
효명아트홀,문화시설,"문화,예술 > 문화시설 > 공연장,연극극장",126.887663373524,37.4684173998477,서울 금천구 가산디지털1로 24,http://place.map.kakao.com/1028410069
구로꿈나무극장,문화시설,"문화,예술 > 문화시설 > 공연장,연극극장",126.886414977948,37.4896043310609,서울 구로구 구로동로26길 54,http://place.map.kakao.com/1464800764
구캔갤러리,문화시설,"문화,예술 > 문화시설 > 전시관",126.886987229389,37.5090494853742,서울 구로구 경인로 661,http://place.map.kakao.com/1315584631
아트센터 예술의 시간,문화시설,"문화,예술 > 문화시설 > 미술관",126.89009170305684,37.46751687079913,서울 금천구 범안로9길 23,http://place.map.kakao.com/680043846
롯데시네마 가산디지털,문화시설,"문화,예술 > 영화,영상 > 영화관 > 롯데시네마",126.889145868138,37.478019960086,서울 금천구 디지털로10길 9,http://place.map.kakao.com/19339548
구로아트밸리 예술극장,문화시설,"문화,예술 > 문화시설 > 공연장,연극극장",126.888837855958,37.4966705283723,서울 구로구 가마산로25길 9-24,http://place.map.kakao.com/8191841
구로구민회관 대강당,문화시설,"문화,예술 > 문화시설 > 공연장,연극극장",126.889674007092,37.4971290233331,서울 구로구 가마산로25길 21,http://place.map.kakao.com/8189116
씨네Q 신도림,문화시설,"문화,예술 > 영화,영상 > 영화관",126.89003874131905,37.507516152916054,서울 구로구 새말로 97,http://place.map.kakao.com/626866180
롯데시네마 신도림,문화시설,"문화,예술 > 영화,영상 > 영화관 > 롯데시네마",126.888937271598,37.5089531254915,서울 구로구 경인로 662,http://place.map.kakao.com/21581716
디큐브링크아트센터,문화시설,"문화,예술 > 문화시설 > 공연장,연극극장",126.889588489589,37.5091267288182,서울 구로구 경인로 662,http://place.map.kakao.com/14090753
문래재즈인,문화시설,"문화,예술 > 문화시설 > 공연장,연극극장",126.890659535745,37.5161339303745,서울 영등포구 도림로 475,http://place.map.kakao.com/1859969394
이스포츠 명예의 전당,문화시설,"문화,예술 > 문화시설 > 전시관",126.88962183626676,37.57553130328157,서울 마포구 매봉산로 31,http://place.map.kakao.com/1654574737
한국영화박물관,문화시설,"문화,예술 > 문화시설 > 박물관",126.889632572273,37.5805291256918,서울 마포구 월드컵북로 400,http://place.map.kakao.com/12678249
시네마테크KOFA,문화시설,"문화,예술 > 영화,영상 > 영화관",126.890026424992,37.5806123846609,서울 마포구 월드컵북로 400,http://place.map.kakao.com/13605665
서울생활문화센터 신도림,문화시설,"문화,예술 > 문화시설 > 전시관",126.89156678441512,37.508263597201896,서울 구로구 새말로 지하 117-21,http://place.map.kakao.com/17605938
서울에너지드림센터,문화시설,"문화,예술 > 문화시설 > 전시관",126.891419369729,37.5631523966308,서울 마포구 증산로 14,http://place.map.kakao.com/19190782
G밸리산업박물관,문화시설,"문화,예술 > 문화시설 > 박물관",126.895266356332,37.4799176625706,서울 구로구 디지털로26길 38,http://place.map.kakao.com/1363614560
아트필드갤러리,문화시설,"문화,예술 > 문화시설 > 미술관",126.895259783495,37.5137738662507,서울 영등포구 도림로129길 2-1,http://place.map.kakao.com/1685605183
tcc아트센터,문화시설,"문화,예술 > 문화시설 > 공연장,연극극장",126.895029886383,37.529317756205,서울 영등포구 국회대로 539,http://place.map.kakao.com/26551231
제일라아트홀,문화시설,"문화,예술 > 문화시설 > 공연장,연극극장",126.895490994614,37.5750456032333,서울 마포구 월드컵북로 323,http://place.map.kakao.com/23211225
은평문화원,문화시설,"문화,예술 > 문화시설 > 문화원",126.893343788346,37.5835977159463,서울 은평구 수색로 282,http://place.map.kakao.com/93840303
금나래아트홀,문화시설,"문화,예술 > 문화시설 > 공연장,연극극장",126.895999696467,37.456553303655,서울 금천구 시흥대로73길 70,http://place.map.kakao.com/8213955
롯데시네마 독산,문화시설,"문화,예술 > 영화,영상 > 영화관 > 롯데시네마",126.89689640341986,37.46941422510262,서울 금천구 시흥대로 399,http://place.map.kakao.com/26234854
쥬라리움 금천점,관광명소,"여행 > 관광,명소 > 동물원 > 실내동물원",126.895763111781,37.4706575260821,서울 금천구 두산로 71,http://place.map.kakao.com/659257382
레미어린이극장 금천점,문화시설,"문화,예술 > 문화시설 > 공연장,연극극장",126.895708907661,37.4706160317842,서울 금천구 두산로 71,http://place.map.kakao.com/614932744
문화정원아트홀,문화시설,"문화,예술 > 문화시설 > 공연장,연극극장",126.89584289656892,37.47181629546638,서울 금천구 가산로 61,http://place.map.kakao.com/27168222
주말극장,문화시설,"문화,예술 > 문화시설 > 공연장,연극극장",126.896481080122,37.5139875797694,서울 영등포구 도림로126길 1,http://place.map.kakao.com/26481206
창작플랫폼 경험과상상,문화시설,"문화,예술 > 문화시설 > 공연장,연극극장",126.897170408544,37.5325920750248,서울 영등포구 선유동2로 46,http://place.map.kakao.com/1482688193
풋볼팬타지움,문화시설,"문화,예술 > 문화시설 > 기념관",126.896070957369,37.5682670305061,서울 마포구 월드컵로 240,http://place.map.kakao.com/7922763
래빗아트홀,문화시설,"문화,예술 > 문화시설 > 공연장,연극극장",126.897104366238,37.5814602942218,서울 은평구 수색로 242,http://place.map.kakao.com/648623780
독산동맛나는거리,관광명소,"여행 > 관광,명소 > 테마거리",126.899065425467,37.4696242311409,서울 금천구 시흥대로124길 4,http://place.map.kakao.com/577967097
문래예술공장,문화시설,"문화,예술 > 문화시설 > 공연장,연극극장",126.900137835853,37.513223072829,서울 영등포구 경인로88길 5-4,http://place.map.kakao.com/23893856
영등포아트홀,문화시설,"문화,예술 > 문화시설 > 공연장,연극극장",126.90011827359992,37.52620290196588,서울 영등포구 국회대로 596,http://place.map.kakao.com/10643233
메가박스 상암월드컵경기장,문화시설,"문화,예술 > 영화,영상 > 영화관 > 메가박스",126.89821583795988,37.569187914348674,서울 마포구 월드컵로 240,http://place.map.kakao.com/320786874
문화공간 아이원,문화시설,"문화,예술 > 문화시설 > 공연장,연극극장",126.90241371752288,37.448799249934595,서울 금천구 시흥대로 167,http://place.map.kakao.com/481536119
CGV 영등포,문화시설,"문화,예술 > 영화,영상 > 영화관 > CGV",126.902756404631,37.5175176380239,서울 영등포구 영중로 15,http://place.map.kakao.com/8000376
만천곤충박물관,문화시설,"문화,예술 > 문화시설 > 박물관",126.9023428600484,37.52063656874581,서울 영등포구 영등포로 187,http://place.map.kakao.com/15982156
금천문화원,문화시설,"문화,예술 > 문화시설 > 문화원",126.904430623356,37.4464222216028,서울 금천구 시흥대로38길 61,http://place.map.kakao.com/10213591
롯데시네마 신대방,문화시설,"문화,예술 > 영화,영상 > 영화관 > 롯데시네마",126.90500256135137,37.48653388706543,서울 동작구 시흥대로 606,http://place.map.kakao.com/916795237
주렁주렁 타임스퀘어점,관광명소,"여행 > 관광,명소 > 동물원 > 실내동물원",126.90299334402,37.51711057944,서울 영등포구 영중로 15,http://place.map.kakao.com/1713912549
WWWSPACE,문화시설,"문화,예술 > 문화시설 > 전시관",126.903802888715,37.5552668005838,서울 마포구 망원로6길 37,http://place.map.kakao.com/250331355
브라이트룸,관광명소,"여행 > 관광,명소 > 도자기,도예촌",126.903338270923,37.5574900821482,서울 마포구 월드컵로25길 79,http://place.map.kakao.com/772925094
벨로주 망원,문화시설,"문화,예술 > 문화시설 > 공연장,연극극장",126.904270903481,37.557443990148,서울 마포구 포은로 117,http://place.map.kakao.com/10832358
더블유더블유더블유스페이스2,문화시설,"문화,예술 > 문화시설 > 전시관",126.904122471322,37.5619939028646,서울 마포구 월드컵로 163-5,http://place.map.kakao.com/1350678014
시흥행궁 전시관,문화시설,"문화,예술 > 문화시설 > 전시관",126.908295881674,37.4507609616721,서울 금천구 금하로24길 6,http://place.map.kakao.com/2131389741
U갤러리,문화시설,"문화,예술 > 문화시설 > 미술관",126.90798434503846,37.51406197343171,서울 영등포구 영신로 29,http://place.map.kakao.com/1464827843
롯데시네마 영등포,문화시설,"문화,예술 > 영화,영상 > 영화관 > 롯데시네마",126.90784590233508,37.51626572006917,서울 영등포구 경인로 846,http://place.map.kakao.com/8354578
롯데문화홀 롯데백화점 영등포점,문화시설,"문화,예술 > 문화시설 > 공연장,연극극장",126.9076739146415,37.51630973492114,서울 영등포구 경인로 846,http://place.map.kakao.com/1436086021
G스페이스홀,문화시설,"문화,예술 > 문화시설 > 공연장,연극극장",126.9093554492971,37.54942011396458,서울 마포구 포은로 14,http://place.map.kakao.com/1888442011
아트스페이스 합정,문화시설,"문화,예술 > 문화시설 > 전시관",126.908660925456,37.5500980304218,서울 마포구 포은로 24,http://place.map.kakao.com/1624232094
영등포문화원,문화시설,"문화,예술 > 문화시설 > 문화원",126.912133103463,37.516115816593,서울 영등포구 신길로 275,http://place.map.kakao.com/21212305
한국천주교순교자박물관,문화시설,"문화,예술 > 문화시설 > 박물관",126.91191899586276,37.54429086657112,서울 마포구 토정로 6,http://place.map.kakao.com/18209956
한국기독교선교기념관,문화시설,"문화,예술 > 문화시설 > 기념관",126.911377759544,37.5464970079284,서울 마포구 양화진길 46,http://place.map.kakao.com/25977600
양화진문화원,문화시설,"문화,예술 > 문화시설 > 문화원",126.9113867984548,37.5465087276954,서울 마포구 양화진길 46,http://place.map.kakao.com/27104112
양화진홀 전시관,문화시설,"문화,예술 > 문화시설 > 전시관",126.911825757308,37.5465946511698,서울 마포구 양화진길 46,http://place.map.kakao.com/25588461
논스케일드 갤러리 & 스튜디오,문화시설,"문화,예술 > 문화시설 > 전시관",126.911523013338,37.5538096180516,서울 마포구 월드컵로 51,http://place.map.kakao.com/2034292977
롯데시네마 합정,문화시설,"문화,예술 > 영화,영상 > 영화관 > 롯데시네마",126.913390790739,37.5514575965918,서울 마포구 양화로 45,http://place.map.kakao.com/17811672
신한카드 SOL페이 스퀘어,문화시설,"문화,예술 > 문화시설 > 공연장,연극극장",126.9143892242954,37.55119703529659,서울 마포구 양화로 45,http://place.map.kakao.com/408816532
라디오가가,문화시설,"문화,예술 > 문화시설 > 공연장,연극극장",126.913824319535,37.5523553077196,서울 마포구 양화로11길 54,http://place.map.kakao.com/15299361
전쟁과여성인권박물관,문화시설,"문화,예술 > 문화시설 > 박물관",126.9148770537037,37.560081221933736,서울 마포구 월드컵북로11길 20,http://place.map.kakao.com/18637327
금천사이언스큐브,문화시설,"문화,예술 > 문화시설 > 과학관",126.916544472791,37.450107532277,서울 금천구 금하로 783,http://place.map.kakao.com/82464473
여의도KBS홀,문화시설,"문화,예술 > 문화시설 > 공연장,연극극장",126.915221437055,37.5258272783362,서울 영등포구 여의공원로 13,http://place.map.kakao.com/11000761
스페이스소,문화시설,"문화,예술 > 문화시설 > 미술관",126.915091611529,37.5565188344795,서울 마포구 동교로17길 37,http://place.map.kakao.com/1235106546
사월갤러리 성산점,문화시설,"문화,예술 > 문화시설 > 미술관",126.916397249082,37.5619428660262,서울 마포구 성미산로11길 32,http://place.map.kakao.com/2052055330
오온,문화시설,"문화,예술 > 문화시설 > 미술관",126.9161688494707,37.56173727688495,서울 마포구 성미산로11길 25,http://place.map.kakao.com/469122552
호림박물관,문화시설,"문화,예술 > 문화시설 > 박물관",126.918166742193,37.4807502545322,서울 관악구 남부순환로152길 53,http://place.map.kakao.com/21330649
농심 식문화연구,문화시설,"문화,예술 > 문화시설 > 문화원",126.918827951967,37.496604840721,서울 동작구 여의대방로 112,http://place.map.kakao.com/11539152
국회의사당 국회박물관,문화시설,"문화,예술 > 문화시설 > 박물관",126.919106553541,37.531852297174,서울 영등포구 의사당대로 1,http://place.map.kakao.com/17990828
유니아트홀,문화시설,"문화,예술 > 문화시설 > 전시관",126.917937515278,37.5455719181006,서울 마포구 독막로8길 49,http://place.map.kakao.com/20549804
얼라이브홀,문화시설,"문화,예술 > 문화시설 > 공연장,연극극장",126.919165295887,37.5487046363934,서울 마포구 독막로7길 20,http://place.map.kakao.com/612943766
DSM스퀘어아트홀,문화시설,"문화,예술 > 문화시설 > 공연장,연극극장",126.917601888313,37.5503001247806,서울 마포구 독막로3길 45,http://place.map.kakao.com/1562211494
스페이스브릭,문화시설,"문화,예술 > 문화시설 > 공연장,연극극장",126.919696744088,37.5512043681761,서울 마포구 잔다리로 31,http://place.map.kakao.com/862171644
프리즘홀,문화시설,"문화,예술 > 문화시설 > 공연장,연극극장",126.917505331821,37.5516587624754,서울 마포구 양화로12길 6,http://place.map.kakao.com/20849833
홍대앞,문화시설,"문화,예술 > 문화시설 > 공연장,연극극장",126.919293568995,37.5514834026843,서울 마포구 잔다리로 35,http://place.map.kakao.com/11394126
벨로주 홍대,문화시설,"문화,예술 > 문화시설 > 공연장,연극극장",126.918817238433,37.5524309259852,서울 마포구 잔다리로 46,http://place.map.kakao.com/2136641458
가온스테이지,문화시설,"문화,예술 > 문화시설 > 공연장,연극극장",126.917525236149,37.5531084819554,서울 마포구 잔다리로 59,http://place.map.kakao.com/629098009
전시공간,문화시설,"문화,예술 > 문화시설 > 전시관",126.919672472644,37.5527306421902,서울 마포구 홍익로5길 59,http://place.map.kakao.com/410357223
롤러코스터,문화시설,"문화,예술 > 문화시설 > 공연장,연극극장",126.918320436404,37.5555336192085,서울 마포구 동교로 147,http://place.map.kakao.com/13566726
전시장,문화시설,"문화,예술 > 문화시설 > 전시관",126.917513856108,37.5644592328589,서울 마포구 성미산로17길 68,http://place.map.kakao.com/371852048
ii (아이아이) 연남,문화시설,"문화,예술 > 문화시설 > 전시관",126.918710227857,37.5665557790488,서울 마포구 연남로 86,http://place.map.kakao.com/422848204
롯데시네마 은평,문화시설,"문화,예술 > 영화,영상 > 영화관 > 롯데시네마",126.91789992144192,37.637537034256034,서울 은평구 통일로 1050,http://place.map.kakao.com/373308156
아이공유,문화시설,"문화,예술 > 문화시설 > 미술관",126.921884422136,37.5109112619492,서울 영등포구 영등포로84길 28,http://place.map.kakao.com/988729082
롤링홀,문화시설,"문화,예술 > 문화시설 > 공연장,연극극장",126.920161326794,37.548521510366,서울 마포구 어울마당로 35,http://place.map.kakao.com/7854938
베짱이홀,문화시설,"문화,예술 > 문화시설 > 공연장,연극극장",126.921528378505,37.5484791788445,서울 마포구 독막로15길 3-12,http://place.map.kakao.com/22650511
오아시스 방탈출,문화시설,"문화,예술 > 문화시설 > 전시관",126.920103009829,37.5490872979376,서울 마포구 독막로9길 18,http://place.map.kakao.com/848848018
클럽프리버드,문화시설,"문화,예술 > 문화시설 > 공연장,연극극장",126.921314704422,37.5493620151058,서울 마포구 와우산로17길 19-22,http://place.map.kakao.com/25969713
KT&G상상마당 홍대,문화시설,"문화,예술 > 문화시설 > 공연장,연극극장",126.921068533254,37.5510088755674,서울 마포구 어울마당로 65,http://place.map.kakao.com/8016441
KT&G 상상마당시네마,문화시설,"문화,예술 > 영화,영상 > 영화관",126.921036839018,37.5510160623612,서울 마포구 어울마당로 65,http://place.map.kakao.com/21059836
KT&G상상마당 라이브홀,문화시설,"문화,예술 > 문화시설 > 공연장,연극극장",126.921100311063,37.5509224009872,서울 마포구 어울마당로 65,http://place.map.kakao.com/8634325
홍대난타전용극장,문화시설,"문화,예술 > 문화시설 > 공연장,연극극장",126.921161292611,37.5531929565343,서울 마포구 양화로16길 29,http://place.map.kakao.com/25080914
메가박스 홍대,문화시설,"문화,예술 > 영화,영상 > 영화관 > 메가박스",126.92204557664462,37.55604249793133,서울 마포구 양화로 147,http://place.map.kakao.com/1365253252
4233마음센터,문화시설,"문화,예술 > 문화시설 > 전시관",126.921572502101,37.5582081818418,서울 마포구 월드컵북로4길 43,http://place.map.kakao.com/560668862
챕터투,문화시설,"문화,예술 > 문화시설 > 전시관",126.921203611709,37.5602928429239,서울 마포구 동교로27길 54,http://place.map.kakao.com/927286713
연남스페이스,문화시설,"문화,예술 > 문화시설 > 공연장,연극극장",126.920873413728,37.5621594869202,서울 마포구 성미산로22길 16,http://place.map.kakao.com/667878863
아트마트,문화시설,"문화,예술 > 문화시설 > 전시관",126.923923884482,37.498493137413,서울 동작구 여의대방로24길 65,http://place.map.kakao.com/1697613523
SeMA 벙커,문화시설,"문화,예술 > 문화시설 > 미술관",126.92378607494264,37.52503572891962,서울 영등포구 여의대로 지하 76,http://place.map.kakao.com/27435105
한국수출입은행 금고미술관,문화시설,"문화,예술 > 문화시설 > 미술관",126.923416918577,37.5287088744903,서울 영등포구 은행로 38,http://place.map.kakao.com/50214683
빚다도예공방 홍대점,관광명소,"여행 > 관광,명소 > 도자기,도예촌",126.923168173207,37.547312563033,서울 마포구 와우산로 32,http://place.map.kakao.com/26537684
닻올림,문화시설,"문화,예술 > 문화시설 > 공연장,연극극장",126.922806221671,37.5471537511983,서울 마포구 와우산로 29,http://place.map.kakao.com/1000159546
프로타주,문화시설,"문화,예술 > 문화시설 > 미술관",126.922302527462,37.5483679669631,서울 마포구 독막로15길 12,http://place.map.kakao.com/1554084498
메타코미디클럽 홍대,문화시설,"문화,예술 > 문화시설 > 공연장,연극극장",126.92360319715,37.5512718321649,서울 마포구 와우산로 76-1,http://place.map.kakao.com/1283856138
공공일클럽,문화시설,"문화,예술 > 문화시설 > 공연장,연극극장",126.924015401066,37.5509999967189,서울 마포구 와우산로18길 20,http://place.map.kakao.com/23696074
띠아트,문화시설,"문화,예술 > 문화시설 > 전시관",126.922690619283,37.5528047367104,서울 마포구 와우산로21길 20-11,http://place.map.kakao.com/796032194
윤형빈소극장 홍대점,문화시설,"문화,예술 > 문화시설 > 공연장,연극극장",126.922402732682,37.5521342054393,서울 마포구 와우산로21길 29,http://place.map.kakao.com/26859800
제이엘씨어터,문화시설,"문화,예술 > 문화시설 > 공연장,연극극장",126.922224002393,37.5531504134308,서울 마포구 어울마당로 94-8,http://place.map.kakao.com/978657107
CGV 홍대,문화시설,"문화,예술 > 영화,영상 > 영화관 > CGV",126.922624553201,37.5565023873948,서울 마포구 양화로 153,http://place.map.kakao.com/25540042
다리소극장,문화시설,"문화,예술 > 문화시설 > 공연장,연극극장",126.923049345733,37.557227066772,서울 마포구 월드컵북로2길 49,http://place.map.kakao.com/1666527949
라이브앤라우드,문화시설,"문화,예술 > 문화시설 > 공연장,연극극장",126.92234732201,37.5575473621315,서울 마포구 동교로 191,http://place.map.kakao.com/8275621
아리인,문화시설,"문화,예술 > 문화시설 > 공연장,연극극장",126.92456791077,37.50580611179,서울 동작구 여의대방로36길 29,http://place.map.kakao.com/20052886
CGV 여의도,문화시설,"문화,예술 > 영화,영상 > 영화관 > CGV",126.92558188499092,37.5256928036018,서울 영등포구 국제금융로 10,http://place.map.kakao.com/18133518
영산아트홀,문화시설,"문화,예술 > 문화시설 > 공연장,연극극장",126.924946840511,37.5294739059123,서울 영등포구 여의공원로 101,http://place.map.kakao.com/8005993
디티에이블,문화시설,"문화,예술 > 문화시설 > 미술관",126.925227011506,37.54800585166,서울 마포구 독막로19길 7-3,http://place.map.kakao.com/977448526
홍익대학교 박물관,문화시설,"문화,예술 > 문화시설 > 박물관",126.9259892811786,37.550742663974425,서울 마포구 와우산로 94,http://place.map.kakao.com/8680787
아트한 갤러리,문화시설,"문화,예술 > 문화시설 > 미술관",126.92628133454826,37.55295479676686,서울 마포구 와우산로26길 5,http://place.map.kakao.com/561123464
홍익대학교 현대미술관,문화시설,"문화,예술 > 문화시설 > 공연장,연극극장",126.9249576489718,37.55255752386486,서울 마포구 와우산로 94,http://place.map.kakao.com/19155949
스머프 매직 포레스트 홍대점,관광명소,"여행 > 관광,명소 > 테마파크",126.926701922993,37.5568320510154,서울 마포구 어울마당로 151-1,http://place.map.kakao.com/1259545565
롯데시네마 홍대입구,문화시설,"문화,예술 > 영화,영상 > 영화관 > 롯데시네마",126.92488294990304,37.55707507803642,서울 마포구 양화로 176,http://place.map.kakao.com/7856282
인디스페이스,문화시설,"문화,예술 > 영화,영상 > 영화관",126.92498690357512,37.55724272960245,서울 마포구 양화로 176,http://place.map.kakao.com/17532139
CGV 연남,문화시설,"문화,예술 > 영화,영상 > 영화관 > CGV",126.92586924777189,37.55767576550851,서울 마포구 양화로 186,http://place.map.kakao.com/1066689336
뮤씨엄 홍대점,문화시설,"문화,예술 > 문화시설 > 전시관",126.9264916573095,37.55773922444777,서울 마포구 양화로 188,http://place.map.kakao.com/65894579
성수미술관 연남점,문화시설,"문화,예술 > 문화시설 > 미술관",126.925066022734,37.5596069959436,서울 마포구 양화로23길 28,http://place.map.kakao.com/136549427
플레이스막2,문화시설,"문화,예술 > 문화시설 > 전시관",126.92654312673676,37.57447975885542,서울 서대문구 홍제천로4길 39-26,http://place.map.kakao.com/11922740
갤러리인,문화시설,"문화,예술 > 문화시설 > 미술관",126.926931896551,37.5751404290877,서울 서대문구 홍제천로 116,http://place.map.kakao.com/47705634
플랜비 프로젝트스페이스,문화시설,"문화,예술 > 문화시설 > 전시관",126.926716470832,37.5824176231603,서울 서대문구 가좌로 108-8,http://place.map.kakao.com/261455178
샤머니즘박물관,문화시설,"문화,예술 > 문화시설 > 박물관",126.92545247781,37.6351391208422,서울 은평구 진관2로 57-23,http://place.map.kakao.com/1627450312
삼모아트센터,문화시설,"문화,예술 > 문화시설 > 공연장,연극극장",126.928919654579,37.4822384711187,서울 관악구 신원로 35,http://place.map.kakao.com/25923280
아트홀봄,문화시설,"문화,예술 > 문화시설 > 공연장,연극극장",126.92714521582,37.511837252159,서울 동작구 여의대방로54길 18,http://place.map.kakao.com/12735693
스페이스한강,문화시설,"문화,예술 > 문화시설 > 공연장,연극극장",126.927655999935,37.5533115411549,서울 마포구 와우산로 128,http://place.map.kakao.com/1178862249
구름아래소극장,문화시설,"문화,예술 > 문화시설 > 공연장,연극극장",126.92855259799,37.5541923618684,서울 마포구 와우산로29가길 15,http://place.map.kakao.com/397903247
대안공간 루프,문화시설,"문화,예술 > 문화시설 > 미술관",126.927846144554,37.5544658355542,서울 마포구 와우산로29나길 20,http://place.map.kakao.com/7819282
우주정거장,문화시설,"문화,예술 > 문화시설 > 공연장,연극극장",126.929009037709,37.5550071390076,서울 마포구 와우산로29길 16,http://place.map.kakao.com/1964441344
연남장,문화시설,"문화,예술 > 문화시설 > 공연장,연극극장",126.927583093706,37.564329788073,서울 서대문구 연희로5길 22,http://place.map.kakao.com/1115772275
무소속컴퍼니 무소속연구소,문화시설,"문화,예술 > 문화시설 > 전시관",126.928944837298,37.5654091077212,서울 서대문구 연희로 77-12,http://place.map.kakao.com/2132033597
뉴스뮤지엄 연희점,문화시설,"문화,예술 > 문화시설 > 전시관",126.92744244197,37.5669732236782,서울 서대문구 연희로11가길 48-10,http://place.map.kakao.com/416345529
플로어,문화시설,"문화,예술 > 문화시설 > 미술관",126.928911996187,37.5701906714717,서울 서대문구 연희로15길 65-6,http://place.map.kakao.com/1452748295
은평문화예술회관,문화시설,"문화,예술 > 문화시설 > 공연장,연극극장",126.9278088473254,37.6036618787743,서울 은평구 녹번로 16,http://place.map.kakao.com/10669473
은평문화예술회관 숲속극장,문화시설,"문화,예술 > 문화시설 > 공연장,연극극장",126.92853554302302,37.60402334776131,서울 은평구 은평로21길 54,http://place.map.kakao.com/1757828035
CGV 불광,문화시설,"문화,예술 > 영화,영상 > 영화관 > CGV",126.92918154846974,37.60947048970448,서울 은평구 불광로 20,http://place.map.kakao.com/10812689
사비나미술관,문화시설,"문화,예술 > 문화시설 > 미술관",126.92927751015938,37.63012118353018,서울 은평구 진관1로 93,http://place.map.kakao.com/7913752
롯데시네마 신림,문화시설,"문화,예술 > 영화,영상 > 영화관 > 롯데시네마",126.930193627803,37.4837168847,서울 관악구 신림로 330,http://place.map.kakao.com/10356766
한국잡지정보관,문화시설,"문화,예술 > 문화시설 > 전시관",126.930295877155,37.5196850922663,서울 영등포구 여의대방로67길 11,http://place.map.kakao.com/10950465
CJ아지트 광흥창,문화시설,"문화,예술 > 문화시설 > 공연장,연극극장",126.930327330763,37.544246399824,서울 마포구 창전로 14,http://place.map.kakao.com/17158968
한국미술역사관,문화시설,"문화,예술 > 문화시설 > 전시관",126.93174887013,37.5439228702906,서울 마포구 토정로14길 38,http://place.map.kakao.com/1762539553
포스트극장,문화시설,"문화,예술 > 문화시설 > 공연장,연극극장",126.929616463143,37.5541353369781,서울 마포구 와우산로 148,http://place.map.kakao.com/10880392
라이카시네마,문화시설,"문화,예술 > 영화,영상 > 영화관",126.930932651709,37.5651643154485,서울 서대문구 연희로8길 18,http://place.map.kakao.com/584284
동서의약박물관,문화시설,"문화,예술 > 문화시설 > 박물관",126.930475794313,37.5647099453039,서울 서대문구 성산로 365-14,http://place.map.kakao.com/7839293
갤러리호호,문화시설,"문화,예술 > 문화시설 > 전시관",126.93068462715252,37.57631128190302,서울 서대문구 홍연길 72,http://place.map.kakao.com/794209270
아터테인,문화시설,"문화,예술 > 문화시설 > 미술관",126.93015695457072,37.57645873395025,서울 서대문구 홍연길 63-4,http://place.map.kakao.com/26829208
서대문문화체육회관 대극장,문화시설,"문화,예술 > 문화시설 > 공연장,연극극장",126.931556761951,37.5807590968923,서울 서대문구 백련사길 39,http://place.map.kakao.com/1596472592
서대문문화원,문화시설,"문화,예술 > 문화시설 > 문화원",126.931520474829,37.5808239473865,서울 서대문구 백련사길 39,http://place.map.kakao.com/8372423
서대문문화체육회관 소극장,문화시설,"문화,예술 > 문화시설 > 공연장,연극극장",126.931556761951,37.5807590968923,서울 서대문구 백련사길 39,http://place.map.kakao.com/1400435680
쏙아트홀,문화시설,"문화,예술 > 문화시설 > 공연장,연극극장",126.932272193905,37.5107879302025,서울 동작구 등용로 106-1,http://place.map.kakao.com/27277222
AAC아트홀,문화시설,"문화,예술 > 문화시설 > 공연장,연극극장",126.93224961509,37.5107410650298,서울 동작구 등용로 106-1,http://place.map.kakao.com/26532521
유니세프어린이지구촌체험관,문화시설,"문화,예술 > 문화시설 > 전시관",126.932219935004,37.5485506719202,서울 마포구 서강로 60,http://place.map.kakao.com/1584365725
이한열기념관,문화시설,"문화,예술 > 문화시설 > 기념관",126.93387315446894,37.55505771622096,서울 마포구 신촌로12나길 26,http://place.map.kakao.com/12729373
긱라이브하우스,문화시설,"문화,예술 > 문화시설 > 공연장,연극극장",126.932036293024,37.5563784364405,서울 마포구 신촌로10길 7,http://place.map.kakao.com/12729676
겨울토끼,문화시설,"문화,예술 > 문화시설 > 전시관",126.933841563159,37.5728667891533,서울 서대문구 연희로27길 36,http://place.map.kakao.com/1628384268
화가의뜰,문화시설,"문화,예술 > 문화시설 > 미술관",126.934040643171,37.5743220070093,서울 서대문구 연희로29길 27-5,http://place.map.kakao.com/107248742
갤러리인 HQ,문화시설,"문화,예술 > 문화시설 > 미술관",126.931795540235,37.57714354663958,서울 서대문구 홍연길 97,http://place.map.kakao.com/744894736
다문화박물관,문화시설,"문화,예술 > 문화시설 > 박물관",126.932550391279,37.6187994961979,서울 은평구 불광로 135,http://place.map.kakao.com/14663248
관악청소년회관 소극장,문화시설,"문화,예술 > 문화시설 > 공연장,연극극장",126.935293256192,37.4701469805005,서울 관악구 신림로23길 17,http://place.map.kakao.com/1132019077
이너프라운지,문화시설,"문화,예술 > 문화시설 > 전시관",126.93565842163994,37.5452225040192,서울 마포구 토정로17길 11,http://place.map.kakao.com/575716343
노무현사료관,문화시설,"문화,예술 > 문화시설 > 문화원",126.934570900102,37.5466022368341,서울 마포구 신수로 56,http://place.map.kakao.com/207255905
복합문화공간 몽향,문화시설,"문화,예술 > 문화시설 > 공연장,연극극장",126.934996817742,37.5565242630214,서울 서대문구 연세로5다길 10,http://place.map.kakao.com/108835601
AC'SCENT(악센트),문화시설,"문화,예술 > 문화시설 > 전시관",126.935870985549,37.5586321734384,서울 서대문구 연세로9길 16,http://place.map.kakao.com/1691148401
금호아트홀연세,문화시설,"문화,예술 > 문화시설 > 공연장,연극극장",126.93654284199992,37.56313301480718,서울 서대문구 연세로 50,http://place.map.kakao.com/27235510
서울기록원,문화시설,"문화,예술 > 문화시설 > 전시관",126.934857350185,37.60749969144621,서울 은평구 통일로62길 7,http://place.map.kakao.com/26452826
SeMA 창고,문화시설,"문화,예술 > 문화시설 > 미술관",126.9343574359082,37.60932571993423,서울 은평구 통일로 684,http://place.map.kakao.com/705457295
박종철센터,문화시설,"문화,예술 > 문화시설 > 기념관",126.938111033901,37.4692907277962,서울 관악구 대학5길 7,http://place.map.kakao.com/795391984
틈새소극장,문화시설,"문화,예술 > 문화시설 > 공연장,연극극장",126.938908519826,37.4839163301012,서울 관악구 남부순환로 1695,http://place.map.kakao.com/651196627
CTS아트홀,문화시설,"문화,예술 > 문화시설 > 공연장,연극극장",126.937061522698,37.512974613298,서울 동작구 노량진로 100,http://place.map.kakao.com/7991264
연세대학교 박물관,문화시설,"문화,예술 > 문화시설 > 박물관",126.937925937699,37.5617984733829,서울 서대문구 연세로 50,http://place.map.kakao.com/9226968
연세대학교 대강당,문화시설,"문화,예술 > 문화시설 > 공연장,연극극장",126.938928948429,37.5643145782691,서울 서대문구 연세로 50,http://place.map.kakao.com/8504308
서대문자연사박물관,문화시설,"문화,예술 > 문화시설 > 박물관",126.937732431365,37.5767116472635,서울 서대문구 연희로32길 51,http://place.map.kakao.com/11139995
은평역사한옥박물관,문화시설,"문화,예술 > 문화시설 > 박물관",126.937978427932,37.6404045181413,서울 은평구 연서로50길 8,http://place.map.kakao.com/25626158
너나들이센터,문화시설,"문화,예술 > 문화시설 > 전시관",126.938562926995,37.6405742090445,서울 은평구 연서로50길 10,http://place.map.kakao.com/642735740
진관동그림가게,문화시설,"문화,예술 > 문화시설 > 미술관",126.93733479038,37.6512916647154,서울 은평구 북한산로 232,http://place.map.kakao.com/313986543
상도어울마당 아트홀,문화시설,"문화,예술 > 문화시설 > 공연장,연극극장",126.940378609472,37.4992630371498,서울 동작구 성대로 180,http://place.map.kakao.com/1942853934
동작문화원,문화시설,"문화,예술 > 문화시설 > 문화원",126.94109946093,37.5044135474575,서울 동작구 장승배기로10길 42,http://place.map.kakao.com/19531309
63아트 (2024년7월1일 영업종료),문화시설,"문화,예술 > 문화시설 > 전시관",126.9399144283606,37.51966424797833,서울 영등포구 63로 50,http://place.map.kakao.com/17811214
서강대학교 메리홀 대극장,문화시설,"문화,예술 > 문화시설 > 공연장,연극극장",126.939536435572,37.5521117863308,서울 마포구 백범로 35,http://place.map.kakao.com/1502697518
서강대학교메리홀 소극장,문화시설,"문화,예술 > 문화시설 > 공연장,연극극장",126.939513790271,37.552126190701,서울 마포구 백범로 35,http://place.map.kakao.com/176886678
CGV 신촌아트레온,문화시설,"문화,예술 > 영화,영상 > 영화관 > CGV",126.94024927380556,37.55651712691753,서울 서대문구 신촌로 129,http://place.map.kakao.com/20126041
연세대학교 윤주용홀,문화시설,"문화,예술 > 문화시설 > 공연장,연극극장",126.94056369952,37.5638937463489,서울 서대문구 연세로 50,http://place.map.kakao.com/1010621469
삼각산금암미술관,문화시설,"문화,예술 > 문화시설 > 미술관",126.941263225457,37.6416279340854,서울 은평구 진관길 21-2,http://place.map.kakao.com/2034721568
셋이서문학관,문화시설,"문화,예술 > 문화시설 > 전시관",126.941181757458,37.6414873399403,서울 은평구 진관길 23,http://place.map.kakao.com/26433419
KP갤러리온,문화시설,"문화,예술 > 문화시설 > 미술관",126.942930110774,37.5405545601829,서울 마포구 토정로 305,http://place.map.kakao.com/2131949973
메가박스 신촌,문화시설,"문화,예술 > 영화,영상 > 영화관 > 메가박스",126.94187662155964,37.559570517501,서울 서대문구 신촌역로 30,http://place.map.kakao.com/10340258
극단로얄씨어터,문화시설,"문화,예술 > 문화시설 > 공연장,연극극장",126.9437551618486,37.58848885190411,서울 서대문구 통일로39가길 2,http://place.map.kakao.com/25894449
북한산식물원,관광명소,"여행 > 관광,명소 > 수목원,식물원",126.942942005855,37.6569418678643,서울 은평구 북한산로 316,http://place.map.kakao.com/15440274
관악아트홀,문화시설,"문화,예술 > 문화시설 > 공연장,연극극장",126.944833718578,37.4677551310373,서울 관악구 신림로3길 35,http://place.map.kakao.com/1387783779
마포아트센터 아트홀맥,문화시설,"문화,예술 > 문화시설 > 공연장,연극극장",126.94560157555075,37.54993450086795,서울 마포구 대흥로20길 28,http://place.map.kakao.com/18376586
마포아트센터 플레이맥,문화시설,"문화,예술 > 문화시설 > 공연장,연극극장",126.9456270360332,37.549936765090735,서울 마포구 대흥로20길 28,http://place.map.kakao.com/15201986
마포아트센터 갤러리맥,문화시설,"문화,예술 > 문화시설 > 미술관",126.9452421713044,37.55007849448376,서울 마포구 대흥로20길 28,http://place.map.kakao.com/17475248
이화여자대학교 대강당,문화시설,"문화,예술 > 문화시설 > 공연장,연극극장",126.945006970396,37.561380317548,서울 서대문구 이화여대길 52,http://place.map.kakao.com/17807847
이화여자대학교 100주년기념박물관,문화시설,"문화,예술 > 문화시설 > 박물관",126.944708954847,37.5603170022437,서울 서대문구 이화여대길 52,http://place.map.kakao.com/17806916
필름포럼,문화시설,"문화,예술 > 영화,영상 > 영화관",126.944068037521,37.56376571506,서울 서대문구 성산로 527,http://place.map.kakao.com/17734296
스튜디오리움,문화시설,"문화,예술 > 문화시설 > 공연장,연극극장",126.9445669122348,37.56413716079409,서울 서대문구 성산로 533,http://place.map.kakao.com/12143674
사육신역사공원 사육신역사관,문화시설,"문화,예술 > 문화시설 > 전시관",126.9485458395054,37.514124449351286,서울 동작구 노량진로 191,http://place.map.kakao.com/18061508
이화아트센터,문화시설,"문화,예술 > 문화시설 > 미술관",126.947913939922,37.56073742314097,서울 서대문구 이화여대길 52,http://place.map.kakao.com/869086836
이화여자대학교 삼성홀,문화시설,"문화,예술 > 문화시설 > 공연장,연극극장",126.94670005154022,37.56155768935297,서울 서대문구 이화여대길 52,http://place.map.kakao.com/11808008
아트하우스모모,문화시설,"문화,예술 > 영화,영상 > 영화관",126.9465416294436,37.561510765904394,서울 서대문구 이화여대길 52,http://place.map.kakao.com/10610128
영산불교문화원,문화시설,"문화,예술 > 문화시설 > 문화원",126.94708048582528,37.57095885161812,서울 서대문구 봉원사길 102,http://place.map.kakao.com/1498423371
서울대학교 미술관,문화시설,"문화,예술 > 문화시설 > 미술관",126.9496783370364,37.466545433547736,서울 관악구 관악로 1,http://place.map.kakao.com/10500732
서울대학교 박물관,문화시설,"문화,예술 > 문화시설 > 박물관",126.952357503653,37.4645471999822,서울 관악구 관악로 1,http://place.map.kakao.com/11137940
우리누리아트,문화시설,"문화,예술 > 문화시설 > 공연장,연극극장",126.95259981743,37.4746296070962,서울 관악구 관악로 105,http://place.map.kakao.com/788811746
롯데시네마 서울대입구,문화시설,"문화,예술 > 영화,영상 > 영화관 > 롯데시네마",126.95215035036244,37.480973433386254,서울 관악구 남부순환로 1820,http://place.map.kakao.com/18822096
보현미술관,문화시설,"문화,예술 > 문화시설 > 미술관",126.95318670454,37.5124351952905,서울 동작구 노량진로24길 2,http://place.map.kakao.com/186465533
용산문화원,문화시설,"문화,예술 > 문화시설 > 문화원",126.952200593528,37.5334092384559,서울 용산구 효창원로8길 28,http://place.map.kakao.com/8032284
추계예술대학교 콘서트홀,문화시설,"문화,예술 > 문화시설 > 공연장,연극극장",126.952588735873,37.5636685326391,서울 서대문구 북아현로11가길 7,http://place.map.kakao.com/8114729
안팎,문화시설,"문화,예술 > 문화시설 > 전시관",126.952840232497,37.5651084252905,서울 서대문구 북아현로 96-1,http://place.map.kakao.com/818652939
서울대학교 인문소극장,문화시설,"문화,예술 > 문화시설 > 공연장,연극극장",126.9551381537322,37.46083071381345,서울 관악구 관악로 1,http://place.map.kakao.com/1532226892
중앙대학교 중앙문화예술관,문화시설,"문화,예술 > 문화시설 > 공연장,연극극장",126.954403534396,37.5053528734016,서울 동작구 흑석로 84,http://place.map.kakao.com/11249716
노량진문화원,문화시설,"문화,예술 > 문화시설 > 문화원",126.955435228276,37.5125540965722,서울 동작구 노량진로30길 12,http://place.map.kakao.com/17043156
라이트 (Light),문화시설,"문화,예술 > 문화시설 > 미술관",126.954234677446,37.5299907446597,서울 용산구 이촌로 20,http://place.map.kakao.com/847891727
마포문화원,문화시설,"문화,예술 > 문화시설 > 문화원",126.955489989088,37.5422295146787,서울 마포구 백범로 227,http://place.map.kakao.com/20661651
북아현문화체육센터 아트홀,문화시설,"문화,예술 > 문화시설 > 공연장,연극극장",126.955437569333,37.5618568374173,서울 서대문구 북아현로 51,http://place.map.kakao.com/1362585916
아트스페이스 라프,문화시설,"문화,예술 > 문화시설 > 미술관",126.95508839449384,37.56280815743444,서울 서대문구 북아현로 63,http://place.map.kakao.com/2011207193
국립대한민국임시정부기념관,문화시설,"문화,예술 > 문화시설 > 기념관",126.95436726930023,37.576025483934245,서울 서대문구 통일로 279-24,http://place.map.kakao.com/1904473447
쉼박물관 (휴관중),문화시설,"문화,예술 > 문화시설 > 박물관",126.955668804423,37.5994680062094,서울 종로구 세검정로 209-17,http://place.map.kakao.com/11465113
숭실대학교 한국기독교박물관,문화시설,"문화,예술 > 문화시설 > 박물관",126.95699222933,37.4956878521096,서울 동작구 상도로 369,http://place.map.kakao.com/8457278
노들섬,관광명소,"여행 > 관광,명소 > 섬 > 섬(내륙)",126.95803386590158,37.51766013568054,서울 용산구 양녕로 445,http://place.map.kakao.com/8252248
시청각,문화시설,"문화,예술 > 문화시설 > 전시관",126.95601842677324,37.53643087640938,서울 용산구 효창원로25길 9,http://place.map.kakao.com/22424190
서울마포음악창작소,문화시설,"문화,예술 > 문화시설 > 공연장,연극극장",126.95753304524,37.5550676954389,서울 마포구 마포대로 지하 238,http://place.map.kakao.com/1591847891
서대문형무소역사관,문화시설,"문화,예술 > 문화시설 > 전시관",126.95631527553331,37.57450354008834,서울 서대문구 통일로 251,http://place.map.kakao.com/7936297
김달진 미술자료박물관,문화시설,"문화,예술 > 문화시설 > 박물관",126.956660452087,37.6000450086259,서울 종로구 홍지문1길 4,http://place.map.kakao.com/26185102
상명아트센터 계당홀,문화시설,"문화,예술 > 문화시설 > 공연장,연극극장",126.956613265866,37.6032993689949,서울 종로구 홍지문2길 20,http://place.map.kakao.com/17566299
상명아트센터,문화시설,"문화,예술 > 문화시설 > 공연장,연극극장",126.956337148378,37.6029532868975,서울 종로구 홍지문2길 20,http://place.map.kakao.com/18332764
상명아트센터 대신홀,문화시설,"문화,예술 > 문화시설 > 공연장,연극극장",126.956568089078,37.6030903226352,서울 종로구 홍지문2길 20,http://place.map.kakao.com/18512054
상명아트센터 콘서트홀,문화시설,"문화,예술 > 문화시설 > 공연장,연극극장",126.956645127365,37.6030362915427,서울 종로구 홍지문2길 20,http://place.map.kakao.com/18512053
삼성출판박물관,문화시설,"문화,예술 > 문화시설 > 박물관",126.957085790478,37.6087090847805,서울 종로구 비봉길 2-2,http://place.map.kakao.com/10420812
서울특별시교육청융합과학교육원 천문대,관광명소,"여행 > 관광,명소 > 천문대",126.960312594227,37.4695741773455,서울 관악구 낙성대로 101,http://place.map.kakao.com/26992126
강감찬전시관,문화시설,"문화,예술 > 문화시설 > 전시관",126.959927264301,37.4714121088814,서울 관악구 낙성대로 77,http://place.map.kakao.com/1213379888
콜링아트센터,문화시설,"문화,예술 > 문화시설 > 공연장,연극극장",126.95840669011749,37.47770964299986,서울 관악구 관악로14길 110,http://place.map.kakao.com/301873586
용산랜드홀,문화시설,"문화,예술 > 문화시설 > 공연장,연극극장",126.95908328814484,37.532702735861896,서울 용산구 청파로 74,http://place.map.kakao.com/816684329
롯데시네마 용산,문화시설,"문화,예술 > 영화,영상 > 영화관 > 롯데시네마",126.960138744633,37.5329472681101,서울 용산구 청파로 74,http://place.map.kakao.com/20617480
갤러리 워터마크,문화시설,"문화,예술 > 문화시설 > 전시관",126.958414510477,37.5390428433263,서울 용산구 새창로14길 8,http://place.map.kakao.com/1244326351
백범김구기념관,문화시설,"문화,예술 > 문화시설 > 기념관",126.959458190692,37.5444798383171,서울 용산구 임정로 26,http://place.map.kakao.com/11893490
자하미술관,문화시설,"문화,예술 > 문화시설 > 미술관",126.96030340960624,37.5893893617136,서울 종로구 창의문로5가길 46,http://place.map.kakao.com/12651426
본화랑,문화시설,"문화,예술 > 문화시설 > 미술관",126.95960522563227,37.59910001285726,서울 종로구 자하문로 299,http://place.map.kakao.com/18578840
이봉창의사역사울림관,문화시설,"문화,예술 > 문화시설 > 전시관",126.9608387388138,37.54008522815864,서울 용산구 백범로 281-9,http://place.map.kakao.com/1511717884
모두예술극장,문화시설,"문화,예술 > 문화시설 > 공연장,연극극장",126.962276968597,37.5601121880739,서울 서대문구 충정로 7,http://place.map.kakao.com/618732998
고촌이종근기념관,문화시설,"문화,예술 > 문화시설 > 기념관",126.9630117048616,37.559716882894094,서울 서대문구 충정로 8,http://place.map.kakao.com/25776444
경찰박물관,문화시설,"문화,예술 > 문화시설 > 박물관",126.96219623292242,37.572058467776735,서울 종로구 송월길 162,http://place.map.kakao.com/1610978252
유금와당박물관,문화시설,"문화,예술 > 문화시설 > 박물관",126.96263594959083,37.59369776622138,서울 종로구 창의문로11가길 4,http://place.map.kakao.com/18193036
석파정 서울미술관 신관,문화시설,"문화,예술 > 문화시설 > 미술관",126.96290059758287,37.59432854388868,서울 종로구 창의문로11길 6,http://place.map.kakao.com/173277499
스페이스셀,문화시설,"문화,예술 > 문화시설 > 공연장,연극극장",126.96274651693548,37.60358347427896,서울 종로구 평창문화로 6-1,http://place.map.kakao.com/15737413
공간일리 수경재배,문화시설,"문화,예술 > 문화시설 > 전시관",126.96112008509591,37.60399830616461,서울 종로구 세검정로9길 19,http://place.map.kakao.com/145667693
중력장,문화시설,"문화,예술 > 문화시설 > 공연장,연극극장",126.96504730749577,37.5074576462225,서울 동작구 현충로 104,http://place.map.kakao.com/1443650847
CGV 용산아이파크몰,문화시설,"문화,예술 > 영화,영상 > 영화관 > CGV",126.963950815777,37.5297517407141,서울 용산구 한강대로23길 55,http://place.map.kakao.com/10813506
CGV 씨네드쉐프 용산아이파크 몰,문화시설,"문화,예술 > 영화,영상 > 영화관 > CGV",126.9639383918022,37.529708488847525,서울 용산구 한강대로23길 55,http://place.map.kakao.com/1198372911
대원뮤지엄,문화시설,"문화,예술 > 문화시설 > 전시관",126.964887490056,37.5299214111974,서울 용산구 한강대로23길 55,http://place.map.kakao.com/540569375
꽃술,문화시설,"문화,예술 > 문화시설 > 전시관",126.96524516973,37.5392991332167,서울 용산구 원효로77길 33,http://place.map.kakao.com/1917222218
김세중미술관,문화시설,"문화,예술 > 문화시설 > 미술관",126.963881564986,37.5419764956208,서울 용산구 효창원로70길 35,http://place.map.kakao.com/27325120
숙명역사관,문화시설,"문화,예술 > 문화시설 > 전시관",126.965453587274,37.5437194990713,서울 용산구 청파로47길 99,http://place.map.kakao.com/545882921
숙명여자대학교 박물관,문화시설,"문화,예술 > 문화시설 > 박물관",126.964120102109,37.5447876866082,서울 용산구 청파로47길 99,http://place.map.kakao.com/7962976
숙명여자대학교 한상은라운지,문화시설,"문화,예술 > 문화시설 > 공연장,연극극장",126.965519139513,37.5438889061149,서울 용산구 청파로47길 99,http://place.map.kakao.com/1689682505
숙명여자대학교 정영양자수박물관,문화시설,"문화,예술 > 문화시설 > 박물관",126.964106554345,37.544722810546,서울 용산구 청파로47길 99,http://place.map.kakao.com/18384806
손기정기념관,문화시설,"문화,예술 > 문화시설 > 기념관",126.96464679169269,37.55569082707682,서울 중구 손기정로 101-4,http://place.map.kakao.com/18478789
양정원갤러리,문화시설,"문화,예술 > 문화시설 > 미술관",126.964831383097,37.5722935409127,서울 종로구 송월1길 56,http://place.map.kakao.com/1478977958
황학정 국궁전시관,문화시설,"문화,예술 > 문화시설 > 전시관",126.964765745351,37.5770615850763,서울 종로구 사직로9길 15-32,http://place.map.kakao.com/26905709
황학정,관광명소,"여행 > 관광,명소 > 문화유적 > 고궁,궁",126.96395704641743,37.57790737451272,서울 종로구 사직로9길 15-32,http://place.map.kakao.com/8623102
목인박물관 목석원,문화시설,"문화,예술 > 문화시설 > 박물관",126.9633199024179,37.589010118837855,서울 종로구 창의문로5길 46-1,http://place.map.kakao.com/9772361
무계원,문화시설,"문화,예술 > 문화시설 > 문화원",126.963372829163,37.591909528303,서울 종로구 창의문로5가길 2,http://place.map.kakao.com/24357072
석파정 서울미술관,문화시설,"문화,예술 > 문화시설 > 미술관",126.9632162240255,37.59492059415746,서울 종로구 자하문로 231,http://place.map.kakao.com/18201536
용산역사박물관,문화시설,"문화,예술 > 문화시설 > 박물관",126.9658024323378,37.525661743005074,서울 용산구 한강대로14길 35-29,http://place.map.kakao.com/1197228828
용산도시기억전시관,문화시설,"문화,예술 > 문화시설 > 전시관",126.966445788697,37.5264295813297,서울 용산구 서빙고로 17,http://place.map.kakao.com/192108645
캡션서울,문화시설,"문화,예술 > 문화시설 > 전시관",126.967218469688,37.5393393414907,서울 용산구 원효로81길 5,http://place.map.kakao.com/238967398
식민지역사박물관,문화시설,"문화,예술 > 문화시설 > 박물관",126.966835436396,37.5457795795213,서울 용산구 청파로47다길 27,http://place.map.kakao.com/1496920955
가톨릭 성음악아카데미 최양업홀,문화시설,"문화,예술 > 문화시설 > 공연장,연극극장",126.96772150332816,37.55882087140542,서울 중구 청파로 447-1,http://place.map.kakao.com/17358734
KT&G상상유니브 아틀리에서울,문화시설,"문화,예술 > 문화시설 > 공연장,연극극장",126.96615169243752,37.56388133027521,서울 서대문구 충정로 60,http://place.map.kakao.com/17201964
농협중앙회 쌀박물관,문화시설,"문화,예술 > 문화시설 > 박물관",126.96778386357435,37.56644602189297,서울 중구 새문안로 16,http://place.map.kakao.com/17059143
페인터즈 서대문 전용관 NH아트홀,문화시설,"문화,예술 > 문화시설 > 공연장,연극극장",126.96757701216109,37.56578553521637,서울 중구 통일로 120,http://place.map.kakao.com/1465081202
국립기상박물관,문화시설,"문화,예술 > 문화시설 > 박물관",126.966264876069,37.5714163900279,서울 종로구 송월길 52,http://place.map.kakao.com/206411746
이회영기념관,문화시설,"문화,예술 > 문화시설 > 기념관",126.96583279055288,37.573174107055664,서울 종로구 사직로6길 15,http://place.map.kakao.com/1613673516
스페이스 사직,문화시설,"문화,예술 > 문화시설 > 박물관",126.967043975881,37.5733023926656,서울 종로구 경희궁3가길 8-4,http://place.map.kakao.com/1832546941
종로구립 박노수미술관,문화시설,"문화,예술 > 문화시설 > 미술관",126.966783450397,37.5813184655898,서울 종로구 옥인1길 34,http://place.map.kakao.com/21631695
윤동주문학관,문화시설,"문화,예술 > 문화시설 > 전시관",126.967118332223,37.5921304732029,서울 종로구 창의문로 119,http://place.map.kakao.com/12765701
환기미술관,문화시설,"문화,예술 > 문화시설 > 미술관",126.966109708704,37.594085340208,서울 종로구 자하문로40길 63,http://place.map.kakao.com/1645854601
하랑갤러리,문화시설,"문화,예술 > 문화시설 > 미술관",126.965622774547,37.5941662886414,서울 종로구 자하문로38길 45,http://place.map.kakao.com/2140317396
화정박물관,문화시설,"문화,예술 > 문화시설 > 박물관",126.965939553026,37.6046971618139,서울 종로구 평창8길 3,http://place.map.kakao.com/8684961
동작문화원 사당분원,문화시설,"문화,예술 > 문화시설 > 문화원",126.969657437861,37.4847535518423,서울 동작구 사당로8길 9,http://place.map.kakao.com/27199870
아모레퍼시픽미술관,문화시설,"문화,예술 > 문화시설 > 미술관",126.968458359299,37.5291241314767,서울 용산구 한강대로 100,http://place.map.kakao.com/12099818
서소문성지역사박물관,문화시설,"문화,예술 > 문화시설 > 박물관",126.969644798536,37.560641395397894,서울 중구 칠패로 5,http://place.map.kakao.com/198489475
서울유관순기념관,문화시설,"문화,예술 > 문화시설 > 기념관",126.970299752309,37.5644131334488,서울 중구 통일로4길 30-1,http://place.map.kakao.com/7856720
농업박물관,문화시설,"문화,예술 > 문화시설 > 박물관",126.968329319115,37.5667299831859,서울 중구 새문안로 16,http://place.map.kakao.com/8226363
국토발전전시관,문화시설,"문화,예술 > 문화시설 > 전시관",126.97008485950153,37.56683765958173,서울 중구 정동길 18,http://place.map.kakao.com/1610551587
서울아트시네마,문화시설,"문화,예술 > 영화,영상 > 영화관",126.96997000422864,37.56816479719067,서울 중구 정동길 3,http://place.map.kakao.com/26606071
문화일보홀,문화시설,"문화,예술 > 문화시설 > 공연장,연극극장",126.968646123861,37.567036406339,서울 중구 새문안로 22,http://place.map.kakao.com/8987923
청춘극장,문화시설,"문화,예술 > 영화,영상 > 영화관",126.968664210245,37.5670940748742,서울 중구 새문안로 22,http://place.map.kakao.com/13498855
페인터즈 광화문전용관 경향아트힐,문화시설,"문화,예술 > 문화시설 > 공연장,연극극장",126.9696700482712,37.56815390855725,서울 중구 정동길 3,http://place.map.kakao.com/23772673
돈의문역사관,문화시설,"문화,예술 > 문화시설 > 전시관",126.968781044412,37.5692132476349,서울 종로구 새문안로 35-54,http://place.map.kakao.com/1481203143
서울 도시재생이야기관,문화시설,"문화,예술 > 문화시설 > 전시관",126.96874510690012,37.56853208548537,서울 종로구 송월길 2,http://place.map.kakao.com/1766344793
경희궁,관광명소,"여행 > 관광,명소 > 문화유적 > 고궁,궁",126.968649079046,37.5707881525953,서울 종로구 새문안로 45,http://place.map.kakao.com/10166255
에무시네마,문화시설,"문화,예술 > 영화,영상 > 영화관",126.969006250711,37.5720658580513,서울 종로구 경희궁1가길 7,http://place.map.kakao.com/652170159
팡타개라지,문화시설,"문화,예술 > 문화시설 > 공연장,연극극장",126.969024355752,37.5720820807144,서울 종로구 경희궁1가길 7,http://place.map.kakao.com/932087275
성곡미술관,문화시설,"문화,예술 > 문화시설 > 미술관",126.969780082012,37.5731706785274,서울 종로구 경희궁길 42,http://place.map.kakao.com/11147054
tya,문화시설,"문화,예술 > 문화시설 > 미술관",126.970312542225,37.5778172425068,서울 종로구 자하문로5길 28,http://place.map.kakao.com/136380522
오르겔하우스,문화시설,"문화,예술 > 문화시설 > 공연장,연극극장",126.970037060161,37.5844367735047,서울 종로구 자하문로 95,http://place.map.kakao.com/1578565612
JJ중정갤러리,문화시설,"문화,예술 > 문화시설 > 미술관",126.968104845407,37.6047157866563,서울 종로구 평창10길 7-12,http://place.map.kakao.com/22300021
가인갤러리,문화시설,"문화,예술 > 문화시설 > 미술관",126.968928426959,37.6067918871185,서울 종로구 평창문화로 75,http://place.map.kakao.com/26125601
비컨갤러리,문화시설,"문화,예술 > 문화시설 > 미술관",126.97147870914,37.5240126139706,서울 용산구 서빙고로 67,http://place.map.kakao.com/11816720
민주화운동기념관,문화시설,"문화,예술 > 문화시설 > 기념관",126.971712091439,37.5410776313133,서울 용산구 한강대로71길 37,http://place.map.kakao.com/12322934
문화역서울284,문화시설,"문화,예술 > 문화시설 > 전시관",126.97162727684288,37.55587561333548,서울 중구 통일로 1,http://place.map.kakao.com/27299118
문화역서울284 RTO공연장,문화시설,"문화,예술 > 문화시설 > 공연장,연극극장",126.971597848869,37.5558828142407,서울 중구 통일로 1,http://place.map.kakao.com/139067352
배재학당역사박물관,문화시설,"문화,예술 > 문화시설 > 박물관",126.972599859421,37.5640064393478,서울 중구 서소문로11길 19,http://place.map.kakao.com/12692417
영국문화원 분사무소,문화시설,"문화,예술 > 문화시설 > 문화원",126.972079267039,37.5638333260871,서울 중구 서소문로11길 19,http://place.map.kakao.com/27375424
이화박물관,문화시설,"문화,예술 > 문화시설 > 박물관",126.97144909650876,37.56607665581958,서울 중구 정동길 26,http://place.map.kakao.com/8557277
고종의길,관광명소,"여행 > 관광,명소 > 테마거리",126.972675463746,37.5677363101102,서울 중구 덕수궁길 83,http://place.map.kakao.com/450093031
정동문화예술회관 정동A&C,문화시설,"문화,예술 > 문화시설 > 공연장,연극극장",126.970964056141,37.5675956165668,서울 중구 정동길 21-15,http://place.map.kakao.com/8060842
씨네큐브 광화문,문화시설,"문화,예술 > 영화,영상 > 영화관",126.972131429357,37.5696501678756,서울 종로구 새문안로 68,http://place.map.kakao.com/15533457
세화미술관,문화시설,"문화,예술 > 문화시설 > 미술관",126.9720296089277,37.56950328153664,서울 종로구 새문안로 68,http://place.map.kakao.com/1684105979
서울역사박물관,문화시설,"문화,예술 > 문화시설 > 박물관",126.970546366796,37.5705003227005,서울 종로구 새문안로 55,http://place.map.kakao.com/7934135
마리오폰테의 트웰브,문화시설,"문화,예술 > 문화시설 > 전시관",126.9715118171172,37.57079608607658,서울 종로구 경희궁1길 1,http://place.map.kakao.com/1602317080
북한인권박물관,문화시설,"문화,예술 > 문화시설 > 박물관",126.971883951005,37.5715485062915,서울 종로구 경희궁길 14,http://place.map.kakao.com/675552138
표갤러리,문화시설,"문화,예술 > 문화시설 > 미술관",126.97082873644398,37.57789575768786,서울 종로구 자하문로5길 18-4,http://place.map.kakao.com/8129692
갤러리B,문화시설,"문화,예술 > 문화시설 > 미술관",126.971276934955,37.5781625618643,서울 종로구 자하문로7길 5,http://place.map.kakao.com/595557737
경복궁아트홀,문화시설,"문화,예술 > 문화시설 > 공연장,연극극장",126.970699806044,37.5833521439842,서울 종로구 자하문로 82,http://place.map.kakao.com/16065155
곧곳,문화시설,"문화,예술 > 문화시설 > 미술관",126.970764757225,37.5851775723232,서울 종로구 자하문로28길 5,http://place.map.kakao.com/400493919
서울시립 미술아카이브,문화시설,"문화,예술 > 문화시설 > 미술관",126.97193826762,37.60778643279106,서울 종로구 평창문화로 101,http://place.map.kakao.com/1898395306
프로젝트 스페이스 미음,문화시설,"문화,예술 > 문화시설 > 미술관",126.972230159526,37.6085928874806,서울 종로구 평창20길 14,http://place.map.kakao.com/816509385
영인문학관,문화시설,"문화,예술 > 문화시설 > 전시관",126.971730587066,37.6119102112176,서울 종로구 평창30길 81,http://place.map.kakao.com/9283486
머리가좋아지는 IQ박물관,문화시설,"문화,예술 > 문화시설 > 박물관",126.973071322388,37.5371531925803,서울 용산구 한강대로 211,http://place.map.kakao.com/24209985
동자아트홀,문화시설,"문화,예술 > 문화시설 > 공연장,연극극장",126.972785466779,37.5516087600095,서울 용산구 한강대로 372,http://place.map.kakao.com/26928421
그라운드시소 센트럴,문화시설,"문화,예술 > 문화시설 > 전시관",126.974399370837,37.5578314113011,서울 중구 세종대로 14,http://place.map.kakao.com/1875653630
서울시립미술관 서소문본관,문화시설,"문화,예술 > 문화시설 > 미술관",126.973790543874,37.5641076212639,서울 중구 덕수궁길 61,http://place.map.kakao.com/10507051
덕수궁,관광명소,"여행 > 관광,명소 > 문화유적 > 고궁,궁",126.974894754989,37.5655638710672,서울 중구 세종대로 99,http://place.map.kakao.com/10305191
국립현대미술관 덕수궁,문화시설,"문화,예술 > 문화시설 > 미술관",126.973740099183,37.5659384342432,서울 중구 세종대로 99,http://place.map.kakao.com/7836503
국립정동극장,문화시설,"문화,예술 > 문화시설 > 공연장,연극극장",126.972775755916,37.5658589281598,서울 중구 정동길 43,http://place.map.kakao.com/8060966
정동극장 야외마당,문화시설,"문화,예술 > 문화시설 > 공연장,연극극장",126.972811963329,37.5658949763444,서울 중구 정동길 43,http://place.map.kakao.com/286548081
구세군역사박물관,문화시설,"문화,예술 > 문화시설 > 박물관",126.97394312358352,37.56799455177643,서울 중구 덕수궁길 130,http://place.map.kakao.com/1631116379
세종문화회관 S씨어터,문화시설,"문화,예술 > 문화시설 > 공연장,연극극장",126.97515948536,37.5727754952377,서울 종로구 세종대로 175,http://place.map.kakao.com/1847666883
국립고궁박물관,문화시설,"문화,예술 > 문화시설 > 박물관",126.97483446000231,37.57656320804203,서울 종로구 효자로 12,http://place.map.kakao.com/8214304
대림미술관,문화시설,"문화,예술 > 문화시설 > 미술관",126.97336244129605,37.5775449688657,서울 종로구 자하문로4길 21,http://place.map.kakao.com/8299285
그라운드시소 서촌,문화시설,"문화,예술 > 문화시설 > 전시관",126.972916300185,37.5778385914657,서울 종로구 자하문로6길 18-8,http://place.map.kakao.com/341652379
아트스페이스3,문화시설,"문화,예술 > 문화시설 > 전시관",126.973319096728,37.5784585671646,서울 종로구 효자로7길 23,http://place.map.kakao.com/1231489264
인디프레스갤러리,문화시설,"문화,예술 > 문화시설 > 미술관",126.973717475463,37.5787830144003,서울 종로구 효자로 31,http://place.map.kakao.com/158908100
갤러리시몬,문화시설,"문화,예술 > 문화시설 > 미술관",126.97329204906,37.5781161832806,서울 종로구 자하문로6길 20,http://place.map.kakao.com/8778944
진갤러리,문화시설,"문화,예술 > 문화시설 > 미술관",126.97349913667044,37.57834868643844,서울 종로구 자하문로6길 25,http://place.map.kakao.com/23298803
가나아트센터,문화시설,"문화,예술 > 문화시설 > 미술관",126.975119159947,37.6123074094318,서울 종로구 평창30길 28,http://place.map.kakao.com/8673831
평창아트,문화시설,"문화,예술 > 문화시설 > 전시관",126.974928744919,37.6127218240216,서울 종로구 평창30길 31,http://place.map.kakao.com/26203269
일우스페이스 별관,문화시설,"문화,예술 > 문화시설 > 미술관",126.973440999127,37.61452347601,서울 종로구 평창길 258,http://place.map.kakao.com/528211347
국립서울현충원 유품전시관,문화시설,"문화,예술 > 문화시설 > 전시관",126.976925024056,37.5005516535036,서울 동작구 현충로 210,http://place.map.kakao.com/17985103
전쟁기념관 기획전시실,문화시설,"문화,예술 > 문화시설 > 전시관",126.97711747962752,37.53693420180437,서울 용산구 이태원로 29,http://place.map.kakao.com/12421790
아이큐박물관,문화시설,"문화,예술 > 문화시설 > 박물관",126.977094846145,37.5369486134239,서울 용산구 이태원로 29,http://place.map.kakao.com/13559946
전쟁기념관 국군발전실,문화시설,"문화,예술 > 문화시설 > 전시관",126.977510072399,37.5370063572599,서울 용산구 이태원로 29,http://place.map.kakao.com/547180283
전쟁기념관,문화시설,"문화,예술 > 문화시설 > 기념관",126.9770880207577,37.53706844515933,서울 용산구 이태원로 29,http://place.map.kakao.com/8077761
덕수궁돌담길,관광명소,"여행 > 관광,명소 > 도보여행",126.975664628917,37.564976582796,서울 중구 세종대로 지하 101,http://place.map.kakao.com/23209304
국립정동극장 세실,문화시설,"문화,예술 > 문화시설 > 공연장,연극극장",126.97590401119,37.5667642080192,서울 중구 세종대로19길 16,http://place.map.kakao.com/11731415
서울도시건축전시관,문화시설,"문화,예술 > 문화시설 > 전시관",126.97670535593808,37.56690492421112,서울 중구 세종대로 119,http://place.map.kakao.com/107324777
아트조선스페이스,문화시설,"문화,예술 > 문화시설 > 미술관",126.97589460754,37.5678454010722,서울 중구 세종대로21길 30,http://place.map.kakao.com/494004358
한국금융사박물관,문화시설,"문화,예술 > 문화시설 > 박물관",126.976410528269,37.568591529702,서울 중구 세종대로 135-5,http://place.map.kakao.com/12110587
세종문화회관 M씨어터,문화시설,"문화,예술 > 문화시설 > 공연장,연극극장",126.975685044186,37.5718133419444,서울 종로구 세종대로 175,http://place.map.kakao.com/18607961
세종문화회관,문화시설,"문화,예술 > 문화시설 > 공연장,연극극장",126.9757787456328,37.572594523923904,서울 종로구 세종대로 175,http://place.map.kakao.com/8373453
세종문화회관 대극장,문화시설,"문화,예술 > 문화시설 > 공연장,연극극장",126.976069582189,37.5728621787462,서울 종로구 세종대로 175,http://place.map.kakao.com/27151624
세종충무공이야기,문화시설,"문화,예술 > 문화시설 > 기념관",126.97617156726932,37.5725315342155,서울 종로구 세종대로 175,http://place.map.kakao.com/12729021
세종문화회관 세종예술아카데미,문화시설,"문화,예술 > 문화시설 > 공연장,연극극장",126.97589412977398,37.5728400686737,서울 종로구 세종대로 175,http://place.map.kakao.com/18583642
세종문화회관 전시관,문화시설,"문화,예술 > 문화시설 > 전시관",126.975870396071,37.5727215829861,서울 종로구 세종대로 175,http://place.map.kakao.com/18583637
세종문화회관 뮤지컬단,문화시설,"문화,예술 > 문화시설 > 공연장,연극극장",126.975902091927,37.5727215894603,서울 종로구 세종대로 175,http://place.map.kakao.com/10587734
세종문화회관 화원,문화시설,"문화,예술 > 문화시설 > 공연장,연극극장",126.975888499855,37.5727468145445,서울 종로구 세종대로 175,http://place.map.kakao.com/9314636
세종문화회관 무용단,문화시설,"문화,예술 > 문화시설 > 공연장,연극극장",126.975888513798,37.5727035667882,서울 종로구 세종대로 175,http://place.map.kakao.com/9892529
경복궁,관광명소,"여행 > 관광,명소 > 문화유적 > 고궁,궁",126.97689786832184,37.577613288258206,서울 종로구 사직로 161,http://place.map.kakao.com/18619553
궁중문화축전,관광명소,"여행 > 관광,명소 > 문화유적 > 고궁,궁",126.976883149476,37.5776195923364,서울 종로구 사직로 161,http://place.map.kakao.com/699964074
상명대학교 박물관,문화시설,"문화,예술 > 문화시설 > 박물관",126.9760382700056,37.610512829422625,서울 종로구 평창문화로 151,http://place.map.kakao.com/9080032
상원미술관,문화시설,"문화,예술 > 문화시설 > 미술관",126.976560027273,37.6116481804902,서울 종로구 평창31길 27,http://place.map.kakao.com/7922634
토탈미술관,문화시설,"문화,예술 > 문화시설 > 미술관",126.9756990938195,37.61216787699209,서울 종로구 평창32길 8,http://place.map.kakao.com/15237698
김종영미술관,문화시설,"문화,예술 > 문화시설 > 미술관",126.97756193640366,37.613073739708746,서울 종로구 평창32길 30,http://place.map.kakao.com/12721866
아트센터 자인,문화시설,"문화,예술 > 문화시설 > 전시관",126.975186254927,37.6148977661408,서울 종로구 평창34길 27,http://place.map.kakao.com/1786101489
서울시립 남서울미술관,문화시설,"문화,예술 > 문화시설 > 미술관",126.9794807787916,37.47607534453375,서울 관악구 남부순환로 2076,http://place.map.kakao.com/7937927
국립서울현충원 호국전시관,문화시설,"문화,예술 > 문화시설 > 전시관",126.97842204233643,37.5015916972943,서울 동작구 현충로 210,http://place.map.kakao.com/17985109
국립중앙박물관 어린이박물관,문화시설,"문화,예술 > 문화시설 > 전시관",126.979112346915,37.5243529876125,서울 용산구 서빙고로 137,http://place.map.kakao.com/8208781
국립중앙박물관 극장용,문화시설,"문화,예술 > 문화시설 > 공연장,연극극장",126.978949457103,37.5243097105777,서울 용산구 서빙고로 137,http://place.map.kakao.com/11028993
국립중앙박물관 기획전시실,문화시설,"문화,예술 > 문화시설 > 전시관",126.979012929988,37.5238736366995,서울 용산구 서빙고로 137,http://place.map.kakao.com/17557162
아트퐁당,문화시설,"문화,예술 > 문화시설 > 미술관",126.979026518181,37.5238267869852,서울 용산구 서빙고로 137,http://place.map.kakao.com/987839845
전쟁기념관 야외전시장,문화시설,"문화,예술 > 문화시설 > 전시관",126.978850885979,37.5368660489251,서울 용산구 이태원로 29,http://place.map.kakao.com/17578060
전쟁기념관 어린이박물관,문화시설,"문화,예술 > 문화시설 > 박물관",126.97851355798178,37.53740658828956,서울 용산구 이태원로 29,http://place.map.kakao.com/26337923
피크닉,문화시설,"문화,예술 > 문화시설 > 전시관",126.97812881011951,37.55694738165452,서울 중구 퇴계로6가길 30,http://place.map.kakao.com/225473638
더벨스파,관광명소,"여행 > 관광,명소 > 온천",126.9780914738,37.5646382835128,서울 중구 소공로 119,http://place.map.kakao.com/27390814
서울시민청 바스락홀,문화시설,"문화,예술 > 문화시설 > 공연장,연극극장",126.978563388844,37.5668778859271,서울 중구 세종대로 110,http://place.map.kakao.com/748166001
시민청 활짝라운지,문화시설,"문화,예술 > 문화시설 > 공연장,연극극장",126.978656787988,37.566818797519,서울 중구 세종대로 110,http://place.map.kakao.com/27143902
일민미술관,문화시설,"문화,예술 > 문화시설 > 미술관",126.977637157186,37.5698819940064,서울 종로구 세종대로 152,http://place.map.kakao.com/11179476
신문박물관,문화시설,"문화,예술 > 문화시설 > 박물관",126.977682403001,37.5699901220177,서울 종로구 세종대로 152,http://place.map.kakao.com/7982743
대한민국역사박물관,문화시설,"문화,예술 > 문화시설 > 박물관",126.97785780450153,37.573986969296435,서울 종로구 세종대로 198,http://place.map.kakao.com/15104327
주대한민국일본국대사관 공보문화원,문화시설,"문화,예술 > 문화시설 > 문화원",126.97977051335752,37.57544692393916,서울 종로구 율곡로 6,http://place.map.kakao.com/1037171324
금호미술관,문화시설,"문화,예술 > 문화시설 > 미술관",126.979894494703,37.577465172613,서울 종로구 삼청로 18,http://place.map.kakao.com/12163059
갤러리현대 본관,문화시설,"문화,예술 > 문화시설 > 미술관",126.97985056770656,37.57663534934952,서울 종로구 삼청로 8,http://place.map.kakao.com/17513074
아프리카미술관,문화시설,"문화,예술 > 문화시설 > 미술관",126.979912482877,37.5779300886963,서울 종로구 삼청로 22,http://place.map.kakao.com/10589343
국립민속박물관,문화시설,"문화,예술 > 문화시설 > 박물관",126.9790159546164,37.581699691218866,서울 종로구 삼청로 37,http://place.map.kakao.com/8191467
국립민속박물관 어린이박물관,문화시설,"문화,예술 > 문화시설 > 박물관",126.9794688106425,37.58168625594765,서울 종로구 사직로 161,http://place.map.kakao.com/8208595
공근혜갤러리,문화시설,"문화,예술 > 문화시설 > 미술관",126.97961874072315,37.58404598373672,서울 종로구 삼청로7길 38,http://place.map.kakao.com/8750355
수애뇨339,문화시설,"문화,예술 > 문화시설 > 미술관",126.978725279578,37.6125243519681,서울 종로구 평창길 339,http://place.map.kakao.com/1276769233
아트라운지 디방,문화시설,"문화,예술 > 문화시설 > 미술관",126.978766251893,37.6118251919232,서울 종로구 평창40길 4,http://place.map.kakao.com/17320324
삼세영,문화시설,"문화,예술 > 문화시설 > 전시관",126.978275317661,37.613626179307,서울 종로구 평창44길 2,http://place.map.kakao.com/2122227493
삼세영미술관,문화시설,"문화,예술 > 문화시설 > 미술관",126.97827531766082,37.613626179306976,서울 종로구 평창44길 2,http://place.map.kakao.com/1055527919
메가박스 이수,문화시설,"문화,예술 > 영화,영상 > 영화관 > 메가박스",126.98166627919224,37.484613666261986,서울 동작구 동작대로 89,http://place.map.kakao.com/8471776
메가박스 아트나인,문화시설,"문화,예술 > 영화,영상 > 영화관 > 메가박스",126.98170019714026,37.4846217805965,서울 동작구 동작대로 89,http://place.map.kakao.com/18722015
국립한글박물관,문화시설,"문화,예술 > 문화시설 > 박물관",126.980977473728,37.5211853774917,서울 용산구 서빙고로 139,http://place.map.kakao.com/25612651
국립중앙박물관,문화시설,"문화,예술 > 문화시설 > 박물관",126.98020301886912,37.52384681210344,서울 용산구 서빙고로 137,http://place.map.kakao.com/8830150
국립중앙박물관 상설전시관,문화시설,"문화,예술 > 문화시설 > 전시관",126.98116228092,37.5240181594648,서울 용산구 서빙고로 137,http://place.map.kakao.com/17558259
안중근의사기념관,문화시설,"문화,예술 > 문화시설 > 기념관",126.980407931726,37.55352399072,서울 중구 소월로 91,http://place.map.kakao.com/11106477
서울특별시교육청융합과학교육원 남산분원,문화시설,"문화,예술 > 문화시설 > 전시관",126.98094182272716,37.55459806753188,서울 중구 소파로 46,http://place.map.kakao.com/10155812
우리은행 은행사박물관,문화시설,"문화,예술 > 문화시설 > 박물관",126.981664986647,37.5592401206899,서울 중구 소공로 51,http://place.map.kakao.com/10705584
한국은행 화폐박물관,문화시설,"문화,예술 > 문화시설 > 박물관",126.980523397494,37.5620978998462,서울 중구 남대문로 39,http://place.map.kakao.com/8691199
우표박물관,문화시설,"문화,예술 > 문화시설 > 박물관",126.98208990250843,37.56190353259943,서울 중구 소공로 70,http://place.map.kakao.com/11562199
롯데시네마 에비뉴엘,문화시설,"문화,예술 > 영화,영상 > 영화관 > 롯데시네마",126.981844846266,37.5642965417763,서울 중구 남대문로 73,http://place.map.kakao.com/11082743
그라운드시소 명동,문화시설,"문화,예술 > 문화시설 > 전시관",126.98192069531612,37.56423888965341,서울 중구 남대문로 73,http://place.map.kakao.com/516939602
하이커그라운드,문화시설,"문화,예술 > 문화시설 > 전시관",126.981418201295,37.5685753051734,서울 중구 청계천로 40,http://place.map.kakao.com/520168372
CKL기업지원센터 CKL스테이지,문화시설,"문화,예술 > 문화시설 > 공연장,연극극장",126.981318589692,37.5685815964224,서울 중구 청계천로 40,http://place.map.kakao.com/910453874
더 케이브,문화시설,"문화,예술 > 문화시설 > 전시관",126.980209313522,37.5685156429997,서울 중구 청계천로 24,http://place.map.kakao.com/1155592538
아트센터나비,문화시설,"문화,예술 > 문화시설 > 미술관",126.980557593063,37.5698825110856,서울 종로구 종로 26,http://place.map.kakao.com/11098140
OCI미술관,문화시설,"문화,예술 > 문화시설 > 미술관",126.9821098451121,37.573168685915746,서울 종로구 우정국로 45-14,http://place.map.kakao.com/18573750
불교중앙박물관,문화시설,"문화,예술 > 문화시설 > 박물관",126.9819894929616,37.57466341800256,서울 종로구 우정국로 55,http://place.map.kakao.com/8138151
조계사 불교역사문화기념관,문화시설,"문화,예술 > 문화시설 > 기념관",126.981733745705,37.5742939708717,서울 종로구 우정국로 55,http://place.map.kakao.com/17808472
전통문화예술공연장,문화시설,"문화,예술 > 문화시설 > 공연장,연극극장",126.9817292097058,37.57432640598065,서울 종로구 우정국로 55,http://place.map.kakao.com/8079764
종로문화원,문화시설,"문화,예술 > 문화시설 > 문화원",126.98035899939175,37.57610474931733,서울 종로구 율곡로 5,http://place.map.kakao.com/8071409
국립현대미술관 서울,문화시설,"문화,예술 > 문화시설 > 미술관",126.9800979573524,37.578627489574416,서울 종로구 삼청로 30,http://place.map.kakao.com/17952661
아트선재센터,문화시설,"문화,예술 > 문화시설 > 미술관",126.981836609,37.5795738136114,서울 종로구 율곡로3길 87,http://place.map.kakao.com/8474452
CN갤러리,문화시설,"문화,예술 > 문화시설 > 전시관",126.981945178203,37.5800387431225,서울 종로구 북촌로5길 56-7,http://place.map.kakao.com/6543297
가고시포갤러리,문화시설,"문화,예술 > 문화시설 > 미술관",126.98216701332,37.5802802431958,서울 종로구 북촌로5가길 16,http://place.map.kakao.com/1691396042
갤러리 기체,문화시설,"문화,예술 > 문화시설 > 미술관",126.98210923887864,37.580434304397414,서울 종로구 북촌로5가길 20,http://place.map.kakao.com/25973504
국제갤러리 K1,문화시설,"문화,예술 > 문화시설 > 미술관",126.980459686997,37.5806836181488,서울 종로구 삼청로 54,http://place.map.kakao.com/12447481
바라캇컨템포러리,문화시설,"문화,예술 > 문화시설 > 미술관",126.9806521004518,37.580862046606576,서울 종로구 삼청로 58-4,http://place.map.kakao.com/159296251
세계장신구박물관,문화시설,"문화,예술 > 문화시설 > 박물관",126.981809094039,37.5809901716813,서울 종로구 북촌로5나길 2,http://place.map.kakao.com/11132352
이음더플레이스,문화시설,"문화,예술 > 문화시설 > 미술관",126.982402084039,37.5820137903565,서울 종로구 북촌로11나길 21,http://place.map.kakao.com/1253619891
한벽원미술관,문화시설,"문화,예술 > 문화시설 > 미술관",126.981468948854,37.583044384109,서울 종로구 삼청로 83,http://place.map.kakao.com/20034262
갤러리민정,문화시설,"문화,예술 > 문화시설 > 미술관",126.981974957211,37.5833066515375,서울 종로구 삼청로 90-2,http://place.map.kakao.com/339396562
더아트나인 갤러리,문화시설,"문화,예술 > 문화시설 > 미술관",126.981499859787,37.5862339047675,서울 종로구 삼청로 121,http://place.map.kakao.com/1667567762
정수아트센터,문화시설,"문화,예술 > 문화시설 > 미술관",126.98149986023284,37.58623210278167,서울 종로구 삼청로 121,http://place.map.kakao.com/1285054477
MGFS100 갤러리,문화시설,"문화,예술 > 문화시설 > 전시관",126.981844059587,37.5861880075723,서울 종로구 삼청로 122,http://place.map.kakao.com/978965273
뮤지엄한미 삼청,문화시설,"문화,예술 > 문화시설 > 미술관",126.9806706683131,37.58786366786638,서울 종로구 삼청로9길 45,http://place.map.kakao.com/20950644
뮤지엄한미 삼청별관,문화시설,"문화,예술 > 문화시설 > 미술관",126.98104644359,37.5883493638341,서울 종로구 삼청로11길 11,http://place.map.kakao.com/1424798668
아트그라운드 헵타,문화시설,"문화,예술 > 문화시설 > 전시관",126.982092850856,37.5874088908715,서울 종로구 삼청로10길 24,http://place.map.kakao.com/1503132620
갤러리롤랑,문화시설,"문화,예술 > 문화시설 > 미술관",126.981431420209,37.5882773456148,서울 종로구 삼청로 143,http://place.map.kakao.com/1359369446
클래식라운지,문화시설,"문화,예술 > 문화시설 > 공연장,연극극장",126.98432992345973,37.49640012956767,서울 서초구 방배중앙로29길 21,http://place.map.kakao.com/1678573951
스페이스 해방공원,문화시설,"문화,예술 > 문화시설 > 미술관",126.98428837654716,37.54355051529814,서울 용산구 신흥로5길 70,http://place.map.kakao.com/1121017483
다이아몬드지,문화시설,"문화,예술 > 문화시설 > 미술관",126.983846266332,37.5472778892164,서울 용산구 신흥로20길 37-3,http://place.map.kakao.com/494853122
초전섬유퀼트박물관,문화시설,"문화,예술 > 문화시설 > 박물관",126.984232119295,37.5581448789131,서울 중구 퇴계로18길 66,http://place.map.kakao.com/8097876
CGV 명동,문화시설,"문화,예술 > 영화,영상 > 영화관 > CGV",126.982583010911,37.5634929642429,서울 중구 명동길 14,http://place.map.kakao.com/25121674
명동난타극장,문화시설,"문화,예술 > 문화시설 > 공연장,연극극장",126.983751090997,37.5634679028825,서울 중구 명동길 26,http://place.map.kakao.com/12526895
페럼타워 페럼홀,문화시설,"문화,예술 > 문화시설 > 공연장,연극극장",126.984130644256,37.5670034633584,서울 중구 을지로5길 19,http://place.map.kakao.com/18809282
공평도시유적전시관,문화시설,"문화,예술 > 문화시설 > 전시관",126.98338702457757,37.57190117255984,서울 종로구 우정국로 26,http://place.map.kakao.com/593401689
그라운드서울,문화시설,"문화,예술 > 문화시설 > 미술관",126.983628934337,37.5734292938767,서울 종로구 인사동9길 26,http://place.map.kakao.com/1179165909
백악미술관,문화시설,"문화,예술 > 문화시설 > 미술관",126.984233374424,37.5736708427746,서울 종로구 인사동9길 16,http://place.map.kakao.com/8316656
SK에코플랜트 행복station,문화시설,"문화,예술 > 문화시설 > 전시관",126.98432519388813,37.573066287427615,서울 종로구 인사동7길 32,http://place.map.kakao.com/27043382
인사센트럴뮤지엄,문화시설,"문화,예술 > 문화시설 > 전시관",126.9835211863394,37.57437081846456,서울 종로구 인사동길 49,http://place.map.kakao.com/555421049
인사아트센터,문화시설,"문화,예술 > 문화시설 > 전시관",126.98460576893604,37.573848387905215,서울 종로구 인사동길 41-1,http://place.map.kakao.com/8099727
갤러리인사아트,문화시설,"문화,예술 > 문화시설 > 전시관",126.983936503121,37.5749970670194,서울 종로구 인사동길 56,http://place.map.kakao.com/1417941448
한국공예디자인문화진흥원 갤러리,문화시설,"문화,예술 > 문화시설 > 전시관",126.98412915767824,37.57400960286309,서울 종로구 인사동11길 8,http://place.map.kakao.com/9330736
컬러풀뮤지엄,문화시설,"문화,예술 > 문화시설 > 전시관",126.983549473557,37.5744311890571,서울 종로구 인사동길 49,http://place.map.kakao.com/309581586
동덕아트갤러리,문화시설,"문화,예술 > 문화시설 > 전시관",126.983268609845,37.5749789543555,서울 종로구 우정국로 68,http://place.map.kakao.com/12447673
갤러리인덱스,문화시설,"문화,예술 > 문화시설 > 미술관",126.984432498524,37.5741970501689,서울 종로구 인사동길 45,http://place.map.kakao.com/24266251
예당,문화시설,"문화,예술 > 문화시설 > 전시관",126.983947731356,37.5754259419822,서울 종로구 인사동16길 3-10,http://place.map.kakao.com/12531729
서울공예박물관,문화시설,"문화,예술 > 문화시설 > 박물관",126.98329088000077,37.57663678742704,서울 종로구 율곡로3길 4,http://place.map.kakao.com/1038056172
서울공예박물관 어린이박물관,문화시설,"문화,예술 > 문화시설 > 박물관",126.982895731892,37.5769043261638,서울 종로구 율곡로3길 4,http://place.map.kakao.com/1395978192
57th갤러리,문화시설,"문화,예술 > 문화시설 > 미술관",126.982581124232,37.5764555849566,서울 종로구 율곡로3길 17,http://place.map.kakao.com/1863634404
갤러리더플럭스,문화시설,"문화,예술 > 문화시설 > 전시관",126.983974487784,37.5773504697247,서울 종로구 윤보선길 28,http://place.map.kakao.com/1479985456
사이아트센터,문화시설,"문화,예술 > 문화시설 > 전시관",126.98394505254768,37.57735767367937,서울 종로구 윤보선길 28,http://place.map.kakao.com/15439871
아트로직 스페이스,문화시설,"문화,예술 > 문화시설 > 전시관",126.983971094487,37.5773369543497,서울 종로구 윤보선길 28,http://place.map.kakao.com/1058701476
전북도립미술관 서울분관,문화시설,"문화,예술 > 문화시설 > 미술관",126.98268467709872,37.57902883969337,서울 종로구 율곡로3길 74-9,http://place.map.kakao.com/11991801
서울교육박물관,문화시설,"문화,예술 > 문화시설 > 박물관",126.983276586049,37.5798082848136,서울 종로구 북촌로5길 48,http://place.map.kakao.com/12447800
송원아트센터,문화시설,"문화,예술 > 문화시설 > 전시관",126.983471413583,37.579328983475,서울 종로구 윤보선길 75,http://place.map.kakao.com/27148388
북촌박물관,문화시설,"문화,예술 > 문화시설 > 박물관",126.984739162023,37.5802986236203,서울 종로구 북촌로 39,http://place.map.kakao.com/20058590
크래프트온더힐,문화시설,"문화,예술 > 문화시설 > 전시관",126.983890004886,37.5806462943974,서울 종로구 북촌로7길 20,http://place.map.kakao.com/974437016
푸투라 서울,문화시설,"문화,예술 > 문화시설 > 미술관",126.98473309985152,37.58226549204323,서울 종로구 북촌로 61,http://place.map.kakao.com/376841568
어둠속의대화,문화시설,"문화,예술 > 문화시설 > 전시관",126.98480081078836,37.5833349800145,서울 종로구 북촌로 71,http://place.map.kakao.com/11682128
북촌동양문화박물관,문화시설,"문화,예술 > 문화시설 > 박물관",126.98335716479964,37.58399791638415,서울 종로구 북촌로11길 76,http://place.map.kakao.com/7905169
지우헌,문화시설,"문화,예술 > 문화시설 > 전시관",126.9829995402,37.5833833879806,서울 종로구 북촌로11라길 13,http://place.map.kakao.com/1232116890
북촌생활사박물관,문화시설,"문화,예술 > 문화시설 > 박물관",126.983003819743,37.5844789964215,서울 종로구 북촌로5나길 90,http://place.map.kakao.com/10469899
새김아트,문화시설,"문화,예술 > 문화시설 > 미술관",126.983451446958,37.5877010108031,서울 종로구 북촌로 134-1,http://place.map.kakao.com/17384125
한생연 휴먼탐구과학관,문화시설,"문화,예술 > 문화시설 > 과학관",126.987152653484,37.50213357291602,서울 서초구 신반포로3길 8,http://place.map.kakao.com/829116293
쉐이커아트갤러리,문화시설,"문화,예술 > 문화시설 > 미술관",126.985213501838,37.5173549182916,서울 용산구 이촌로 352,http://place.map.kakao.com/11642594
CGV 명동역 씨네라이브러리,문화시설,"문화,예술 > 영화,영상 > 영화관 > CGV",126.98543344554172,37.56132014660064,서울 중구 퇴계로 123,http://place.map.kakao.com/27572008
미래기술 체험관 티움,문화시설,"문화,예술 > 문화시설 > 전시관",126.985099651856,37.5665314677789,서울 중구 을지로 65,http://place.map.kakao.com/12697270
다이나믹메이즈 서울인사동점,관광명소,"여행 > 관광,명소 > 테마파크",126.98714973498456,37.57189803811425,서울 종로구 인사동길 12,http://place.map.kakao.com/27215154
아름다운차박물관,문화시설,"문화,예술 > 문화시설 > 박물관",126.985881825528,37.5723700147182,서울 종로구 인사동길 19-11,http://place.map.kakao.com/11118966
갤러리라메르,문화시설,"문화,예술 > 문화시설 > 미술관",126.98494223644524,37.57255730558019,서울 종로구 인사동5길 26,http://place.map.kakao.com/27316531
뮤지엄김치간,문화시설,"문화,예술 > 문화시설 > 박물관",126.984903537733,37.5736024547676,서울 종로구 인사동길 35-4,http://place.map.kakao.com/26601040
구구갤러리 인사동,문화시설,"문화,예술 > 문화시설 > 미술관",126.986769279861,37.57251427672,서울 종로구 인사동길 20,http://place.map.kakao.com/885508156
가온갤러리,문화시설,"문화,예술 > 문화시설 > 미술관",126.985058660662,37.5734132655791,서울 종로구 인사동길 35-6,http://place.map.kakao.com/2039901187
경인미술관,문화시설,"문화,예술 > 문화시설 > 미술관",126.98544221439988,37.57442062570009,서울 종로구 인사동10길 11-4,http://place.map.kakao.com/8199463
인사아트프라자 갤러리,문화시설,"문화,예술 > 문화시설 > 미술관",126.985709475946,37.5738728535309,서울 종로구 인사동길 34-1,http://place.map.kakao.com/25700794
인사1010,문화시설,"문화,예술 > 문화시설 > 미술관",126.985632476951,37.5739881715206,서울 종로구 인사동10길 10,http://place.map.kakao.com/1772915611
운현궁,관광명소,"여행 > 관광,명소 > 문화유적 > 고궁,궁",126.987085596535,37.576226410093,서울 종로구 삼일대로 464,http://place.map.kakao.com/8465462
전통주갤러리,문화시설,"문화,예술 > 문화시설 > 전시관",126.9858376674118,37.57840306918705,서울 종로구 북촌로 18,http://place.map.kakao.com/257207231
명인박물관,문화시설,"문화,예술 > 문화시설 > 박물관",126.985210153839,37.5801256927512,서울 종로구 북촌로6길 1,http://place.map.kakao.com/9757996
가회민화박물관,문화시설,"문화,예술 > 문화시설 > 박물관",126.985227994125,37.581509621394,서울 종로구 북촌로 52,http://place.map.kakao.com/8125507
위크앨리,문화시설,"문화,예술 > 문화시설 > 전시관",126.98662177567,37.580771873736,서울 종로구 계동길 77,http://place.map.kakao.com/1744803942
뮤지엄헤드,문화시설,"문화,예술 > 문화시설 > 전시관",126.9869647231712,37.581253042755144,서울 종로구 계동길 84-3,http://place.map.kakao.com/983287184
동림매듭공방,문화시설,"문화,예술 > 문화시설 > 박물관",126.985635502714,37.5818088015703,서울 종로구 북촌로12길 10,http://place.map.kakao.com/7841800
북촌한옥역사관,문화시설,"문화,예술 > 문화시설 > 전시관",126.987066430886,37.5823135234214,서울 종로구 계동4길 3,http://place.map.kakao.com/1629306791
변종하미술관,문화시설,"문화,예술 > 문화시설 > 미술관",126.986058115985,37.5982609724817,서울 성북구 대사관로3길 41,http://place.map.kakao.com/25155600
서초수학박물관,문화시설,"문화,예술 > 문화시설 > 박물관",126.98947545520416,37.486908587093914,서울 서초구 방배중앙로 82,http://place.map.kakao.com/27500688
뮤제드파팡,문화시설,"문화,예술 > 문화시설 > 전시관",126.989600942855,37.4952086791953,서울 서초구 방배로42길 19,http://place.map.kakao.com/27364588
N서울타워,관광명소,"여행 > 관광,명소 > 전망대",126.988230622132,37.5513049702718,서울 용산구 남산공원길 105,http://place.map.kakao.com/1629378951
세종갤러리,문화시설,"문화,예술 > 문화시설 > 미술관",126.988120390747,37.5613276555049,서울 중구 퇴계로 145,http://place.map.kakao.com/21397600
삼일로창고극장,문화시설,"문화,예술 > 문화시설 > 공연장,연극극장",126.987984230554,37.5634539936501,서울 중구 삼일대로9길 12,http://place.map.kakao.com/7926624
아름다운청년전태일기념관,문화시설,"문화,예술 > 문화시설 > 기념관",126.98938249808266,37.56842041782943,서울 종로구 청계천로 105,http://place.map.kakao.com/1357502888
박물관은살아있다 인사동점,문화시설,"문화,예술 > 문화시설 > 박물관",126.987276534799,37.5717935364132,서울 종로구 인사동길 12,http://place.map.kakao.com/23680078
한국미술관,문화시설,"문화,예술 > 문화시설 > 미술관",126.98723576319,37.571912463369,서울 종로구 인사동길 12,http://place.map.kakao.com/8053124
실버영화관,문화시설,"문화,예술 > 영화,영상 > 영화관",126.9878299395856,37.57261620326433,서울 종로구 삼일대로 428,http://place.map.kakao.com/1348730757
아라리오뮤지엄 인 스페이스,문화시설,"문화,예술 > 문화시설 > 미술관",126.988547970142,37.5777438354931,서울 종로구 율곡로 83,http://place.map.kakao.com/14982312
서울우리소리박물관,문화시설,"문화,예술 > 문화시설 > 박물관",126.9896189928122,37.57714207035938,서울 종로구 율곡로 96,http://place.map.kakao.com/1811870430
북촌창우극장,문화시설,"문화,예술 > 문화시설 > 공연장,연극극장",126.988864779873,37.5788863263743,서울 종로구 창덕궁길 29-6,http://place.map.kakao.com/7910481
인사미술공간,문화시설,"문화,예술 > 문화시설 > 미술관",126.98922213675354,37.58154339041102,서울 종로구 창덕궁길 89,http://place.map.kakao.com/10758949
고희동미술관,문화시설,"문화,예술 > 문화시설 > 미술관",126.98897056989716,37.583131818761565,서울 종로구 창덕궁5길 40,http://place.map.kakao.com/114806024
313아트프로젝트 성북스페이스,문화시설,"문화,예술 > 문화시설 > 전시관",126.98935720695287,37.59501053932851,서울 성북구 성북로31길 34,http://place.map.kakao.com/1902094238
이상아트스페이스,문화시설,"문화,예술 > 문화시설 > 전시관",126.991106927696,37.4975081712071,서울 서초구 사평대로6길 13,http://place.map.kakao.com/668933830
심산김창숙기념관,문화시설,"문화,예술 > 문화시설 > 기념관",126.99121417041864,37.49912007964684,서울 서초구 사평대로 55,http://place.map.kakao.com/11985459
용산아트홀,문화시설,"문화,예술 > 문화시설 > 공연장,연극극장",126.9902225231591,37.532749063297786,서울 용산구 녹사평대로 150,http://place.map.kakao.com/13314714
용산아트홀 대극장미르,문화시설,"문화,예술 > 문화시설 > 공연장,연극극장",126.990310759146,37.5328454776885,서울 용산구 녹사평대로 150,http://place.map.kakao.com/18959688
용산아트홀 소극장가람,문화시설,"문화,예술 > 문화시설 > 공연장,연극극장",126.990319808419,37.5328598944481,서울 용산구 녹사평대로 150,http://place.map.kakao.com/631471849
한국나전칠기박물관,문화시설,"문화,예술 > 문화시설 > 박물관",126.991264493246,37.5427961998301,서울 용산구 소월로 266,http://place.map.kakao.com/26301028
만물전시관,문화시설,"문화,예술 > 문화시설 > 전시관",126.99112418029,37.5428106053603,서울 용산구 소월로 264-1,http://place.map.kakao.com/8351911
쾨닉 서울,문화시설,"문화,예술 > 문화시설 > 전시관",126.99025272503468,37.54409716388895,서울 용산구 소월로38길 30-34,http://place.map.kakao.com/174981003
CGV 피카디리1958,문화시설,"문화,예술 > 영화,영상 > 영화관 > CGV",126.99131327152529,37.570993818720254,서울 종로구 돈화문로5가길 1,http://place.map.kakao.com/27307026
떡박물관,문화시설,"문화,예술 > 문화시설 > 박물관",126.990649448489,37.5749076901335,서울 종로구 돈화문로 71,http://place.map.kakao.com/8344444
나마갤러리,문화시설,"문화,예술 > 문화시설 > 미술관",126.990830487242,37.5756068761527,서울 종로구 돈화문로 80-1,http://place.map.kakao.com/919372338
서울돈화문국악당,문화시설,"문화,예술 > 문화시설 > 공연장,연극극장",126.990671800431,37.5772214457464,서울 종로구 율곡로 102,http://place.map.kakao.com/26952171
서울무형유산 교육전시장,문화시설,"문화,예술 > 문화시설 > 전시관",126.9911065465007,37.576936765090245,서울 종로구 율곡로10길 13,http://place.map.kakao.com/14930642
창덕궁,관광명소,"여행 > 관광,명소 > 문화유적 > 고궁,궁",126.99099980677128,37.57964694739535,서울 종로구 율곡로 99,http://place.map.kakao.com/10771162
갤러리330,문화시설,"문화,예술 > 문화시설 > 미술관",126.989858212944,37.5995587872203,서울 성북구 대사관로13길 89-11,http://place.map.kakao.com/868749253
우리옛돌박물관,문화시설,"문화,예술 > 문화시설 > 박물관",126.99008564748388,37.60090128282046,서울 성북구 대사관로13길 66,http://place.map.kakao.com/27259890
유중아트센터,문화시설,"문화,예술 > 문화시설 > 공연장,연극극장",126.992826584622,37.4896479021521,서울 서초구 방배로 178,http://place.map.kakao.com/14871390
스페이스이수,문화시설,"문화,예술 > 문화시설 > 전시관",126.99389332160716,37.498021020781614,서울 서초구 사평대로 84,http://place.map.kakao.com/2086852903
스펙트럼갤러리,문화시설,"문화,예술 > 문화시설 > 미술관",126.99231488043,37.5397184574971,서울 용산구 회나무로32길 2-3,http://place.map.kakao.com/1124310495
서울남산국악당,문화시설,"문화,예술 > 문화시설 > 공연장,연극극장",126.993562423498,37.5586539187088,서울 중구 퇴계로34길 28,http://place.map.kakao.com/7940113
명보아트홀,문화시설,"문화,예술 > 문화시설 > 공연장,연극극장",126.993208758748,37.5646995866903,서울 중구 마른내로 47,http://place.map.kakao.com/2035051836
한국색동박물관,문화시설,"문화,예술 > 문화시설 > 박물관",126.99208610026172,37.57388516615074,서울 종로구 율곡로10길 85-7,http://place.map.kakao.com/26784597
글로브극장,문화시설,"문화,예술 > 문화시설 > 공연장,연극극장",126.994288772703,37.5916375675024,서울 성북구 성북로23가길 21,http://place.map.kakao.com/8206114
한국가구박물관,문화시설,"문화,예술 > 문화시설 > 박물관",126.99322140350704,37.60001763264553,서울 성북구 대사관로 121,http://place.map.kakao.com/8141776
국민대학교 박물관,문화시설,"문화,예술 > 문화시설 > 박물관",126.99399266941938,37.61290813602805,서울 성북구 정릉로 77,http://place.map.kakao.com/17568153
르비채아트뮤지엄,문화시설,"문화,예술 > 문화시설 > 미술관",126.994640366455,37.488602829324,서울 서초구 서초대로27길 11,http://place.map.kakao.com/502742466
아카데미웰,문화시설,"문화,예술 > 문화시설 > 미술관",126.994798281489,37.4941746664008,서울 서초구 동광로27길 3,http://place.map.kakao.com/27561479
APO프로젝트,문화시설,"문화,예술 > 문화시설 > 전시관",126.995475099147,37.5218031086222,서울 용산구 서빙고로71길 25,http://place.map.kakao.com/1465303602
프로젝트박스시야,문화시설,"문화,예술 > 문화시설 > 공연장,연극극장",126.996130970057,37.5264450964794,서울 용산구 장문로 60,http://place.map.kakao.com/19973650
캔파운데이션,문화시설,"문화,예술 > 문화시설 > 전시관",126.994912931736,37.5377030605311,서울 용산구 이태원로27길 101,http://place.map.kakao.com/1928382317
서진아트스페이스,문화시설,"문화,예술 > 문화시설 > 전시관",126.99490721975872,37.55514009442538,서울 중구 필동로8길 22,http://place.map.kakao.com/1588499544
세컨드에비뉴갤러리,문화시설,"문화,예술 > 문화시설 > 미술관",126.994925328399,37.555125679242,서울 중구 필동로8길 22,http://place.map.kakao.com/1337120885
공간하제,문화시설,"문화,예술 > 문화시설 > 공연장,연극극장",126.996477907926,37.5583612175936,서울 중구 필동로1길 10-6,http://place.map.kakao.com/12312233
대한극장,문화시설,"문화,예술 > 영화,영상 > 영화관",126.9953674605078,37.56116418086468,서울 중구 퇴계로 212,http://place.map.kakao.com/10558665
을지로OF,문화시설,"문화,예술 > 문화시설 > 전시관",126.99625338742652,37.566918875861425,서울 중구 창경궁로5길 31,http://place.map.kakao.com/1555038746
세운옥상 (휴업중),관광명소,"여행 > 관광,명소 > 전망대",126.995241309594,37.5693217949522,서울 종로구 청계천로 159,http://place.map.kakao.com/691115620
세운전자박물관,문화시설,"문화,예술 > 문화시설 > 박물관",126.99508055524971,37.56960109696208,서울 종로구 청계천로 159,http://place.map.kakao.com/2023832435
더소소,문화시설,"문화,예술 > 문화시설 > 전시관",126.996830597947,37.5683848128985,서울 중구 청계천로 172-1,http://place.map.kakao.com/1331538439
FF Seoul,문화시설,"문화,예술 > 문화시설 > 미술관",126.995240180231,37.5692812501081,서울 종로구 청계천로 159,http://place.map.kakao.com/1568834821
창경궁,관광명소,"여행 > 관광,명소 > 문화유적 > 고궁,궁",126.995199911733,37.5794165384496,서울 종로구 창경궁로 185,http://place.map.kakao.com/11156260
성균관대학교 새천년홀,문화시설,"문화,예술 > 문화시설 > 공연장,연극극장",126.994551768303,37.5874353512492,서울 종로구 성균관로 25-2,http://place.map.kakao.com/13319091
성균관대학교 박물관,문화시설,"문화,예술 > 문화시설 > 박물관",126.994556297174,37.5874353514582,서울 종로구 성균관로 25-2,http://place.map.kakao.com/7944171
한생연 융합교육과학관,문화시설,"문화,예술 > 문화시설 > 과학관",126.99670176066591,37.5894545553128,서울 종로구 성균관로15길 32,http://place.map.kakao.com/10101650
간송미술관,문화시설,"문화,예술 > 문화시설 > 미술관",126.99625540492724,37.59444243403915,서울 성북구 성북로 102-11,http://place.map.kakao.com/8129111
성북구립미술관,문화시설,"문화,예술 > 문화시설 > 미술관",126.994886397801,37.5948451259332,서울 성북구 성북로 134,http://place.map.kakao.com/12293765
이영미술관,문화시설,"문화,예술 > 문화시설 > 미술관",126.99586445246018,37.599876299290464,서울 성북구 선잠로 97,http://place.map.kakao.com/17419699
서울아트클럽,문화시설,"문화,예술 > 문화시설 > 미술관",126.995058151339,37.6002979319846,서울 성북구 선잠로 101,http://place.map.kakao.com/22578730
아트세빈,문화시설,"문화,예술 > 문화시설 > 미술관",126.996180542724,37.6191106311084,서울 성북구 보국문로 229,http://place.map.kakao.com/379651265
창작예술집단 보광극장,문화시설,"문화,예술 > 문화시설 > 공연장,연극극장",126.99778040894113,37.526096451180294,서울 용산구 장문로19길 4,http://place.map.kakao.com/479827651
파운드리서울,문화시설,"문화,예술 > 문화시설 > 미술관",126.99852913904,37.5354623726254,서울 용산구 이태원로 223,http://place.map.kakao.com/958016825
뉴스프링프로젝트,문화시설,"문화,예술 > 문화시설 > 미술관",126.99841936898042,37.53646698690474,서울 용산구 이태원로45길 22,http://place.map.kakao.com/290171398
리움미술관,문화시설,"문화,예술 > 문화시설 > 미술관",126.99911744955163,37.53833657002706,서울 용산구 이태원로55길 60-16,http://place.map.kakao.com/10427225
리버스마운틴2022,문화시설,"문화,예술 > 문화시설 > 미술관",126.998329949267,37.5380554494273,서울 용산구 이태원로55길 48,http://place.map.kakao.com/534613892
그랜드하얏트서울 그랜드볼룸,문화시설,"문화,예술 > 문화시설 > 공연장,연극극장",126.997379463631,37.5394916264724,서울 용산구 소월로 322,http://place.map.kakao.com/8198505
리움미술관 M1,문화시설,"문화,예술 > 문화시설 > 미술관",126.998805159048,37.5385510053389,서울 용산구 이태원로55길 60-16,http://place.map.kakao.com/17496428
갤러리어스,문화시설,"문화,예술 > 문화시설 > 전시관",126.998777608812,37.5627265936127,서울 중구 창경궁로 2-1,http://place.map.kakao.com/1737794767
푸르지오아트홀,문화시설,"문화,예술 > 문화시설 > 공연장,연극극장",126.997328727022,37.5661395435934,서울 중구 을지로 170,http://place.map.kakao.com/1818696928
중국어문화원,문화시설,"문화,예술 > 문화시설 > 문화원",126.998138906088,37.5765082120922,서울 종로구 창경궁로22길 11-4,http://place.map.kakao.com/9429428
국립어린이과학관,문화시설,"문화,예술 > 문화시설 > 과학관",126.99703380777856,37.58193577739816,서울 종로구 창경궁로 215,http://place.map.kakao.com/1955379751
한국창극원 창덕궁소극장,문화시설,"문화,예술 > 문화시설 > 공연장,연극극장",126.99774703781088,37.58242232968515,서울 종로구 창경궁로 227,http://place.map.kakao.com/14862881
안똔체홉극장,문화시설,"문화,예술 > 문화시설 > 공연장,연극극장",126.996997533451,37.5830818402188,서울 종로구 성균관로3길 23,http://place.map.kakao.com/24351005
성균소극장,문화시설,"문화,예술 > 문화시설 > 공연장,연극극장",126.997993798592,37.584141429518,서울 종로구 성균관로 12-3,http://place.map.kakao.com/7939663
스튜디오sk소극장,문화시설,"문화,예술 > 문화시설 > 공연장,연극극장",126.997092602105,37.5839071525106,서울 종로구 성균관로 15-10,http://place.map.kakao.com/720145712
한무숙문학관,문화시설,"문화,예술 > 문화시설 > 기념관",126.9986209529063,37.58775532134725,서울 종로구 혜화로9길 20,http://place.map.kakao.com/9556683
공연기획 실험극장,문화시설,"문화,예술 > 문화시설 > 공연장,연극극장",126.999171203876,37.5885851407133,서울 종로구 혜화로 35,http://place.map.kakao.com/15363236
아이들극장,문화시설,"문화,예술 > 문화시설 > 공연장,연극극장",126.99845219709556,37.59039432628729,서울 종로구 성균관로 91,http://place.map.kakao.com/788934926
아뜰리에터닝,문화시설,"문화,예술 > 문화시설 > 전시관",126.998147626687,37.5900627567255,서울 종로구 성균관로17길 5,http://place.map.kakao.com/26490133
성북선잠박물관,문화시설,"문화,예술 > 문화시설 > 박물관",126.998220015637,37.5932342500526,서울 성북구 성북로 96,http://place.map.kakao.com/2091478182
연극실험실일상지하,문화시설,"문화,예술 > 문화시설 > 공연장,연극극장",126.997219062204,37.5931080918512,서울 성북구 성북로 106,http://place.map.kakao.com/27329717
국민대학교 대극장,문화시설,"문화,예술 > 문화시설 > 공연장,연극극장",126.997784707665,37.6101872811746,서울 성북구 정릉로 77,http://place.map.kakao.com/342348406
세라아트도예학원,관광명소,"여행 > 관광,명소 > 도자기,도예촌",127.000185419692,37.480872298166,서울 서초구 효령로36길 18,http://place.map.kakao.com/11927156
파이프갤러리,문화시설,"문화,예술 > 문화시설 > 미술관",127.000814616475,37.5341559278121,서울 용산구 대사관로 21,http://place.map.kakao.com/353382040
갤러리비케이 한남,문화시설,"문화,예술 > 문화시설 > 미술관",127.0011947666611,37.533894634310585,서울 용산구 대사관로 25,http://place.map.kakao.com/18778490
현대카드 스토리지,문화시설,"문화,예술 > 문화시설 > 전시관",127.00085990334,37.5368030675472,서울 용산구 이태원로 248,http://place.map.kakao.com/1613335532
언더스테이지,문화시설,"문화,예술 > 문화시설 > 공연장,연극극장",127.00067886949,37.5366300766286,서울 용산구 이태원로 246,http://place.map.kakao.com/26647502
리움미술관 M2,문화시설,"문화,예술 > 문화시설 > 미술관",126.999398053785,37.5385293858439,서울 용산구 이태원로55길 60-16,http://place.map.kakao.com/17496429
반얀트리클럽앤스파서울 크리스탈볼룸,문화시설,"문화,예술 > 문화시설 > 공연장,연극극장",127.00117692824908,37.55069827809386,서울 중구 장충단로 60,http://place.map.kakao.com/23520899
국립극장,문화시설,"문화,예술 > 문화시설 > 공연장,연극극장",126.999569956338,37.5528192329617,서울 중구 장충단로 59,http://place.map.kakao.com/11330151
국립극장 달오름극장,문화시설,"문화,예술 > 문화시설 > 공연장,연극극장",127.000027160769,37.5531399890378,서울 중구 장충단로 59,http://place.map.kakao.com/8215045
국립극장 KB국민은행청소년하늘극장,문화시설,"문화,예술 > 문화시설 > 공연장,연극극장",127.00042551711708,37.552859777890085,서울 중구 장충단로 59,http://place.map.kakao.com/8191152
국립극장 무용단,문화시설,"문화,예술 > 문화시설 > 공연장,연극극장",126.999569956338,37.5528192329617,서울 중구 장충단로 59,http://place.map.kakao.com/10136132
국립극장 국악관현악단,문화시설,"문화,예술 > 문화시설 > 공연장,연극극장",126.999579009889,37.5528192329943,서울 중구 장충단로 59,http://place.map.kakao.com/8218713
국립극장 운영지원부장,문화시설,"문화,예술 > 문화시설 > 공연장,연극극장",126.999569956462,37.5527976090085,서울 중구 장충단로 59,http://place.map.kakao.com/8829577
공연예술박물관 (휴업중),문화시설,"문화,예술 > 문화시설 > 박물관",127.000475318511,37.5539364702609,서울 중구 장충단로 59,http://place.map.kakao.com/17567796
국립극장 별오름극장,문화시설,"문화,예술 > 문화시설 > 공연장,연극극장",127.000522851911,37.55415811553343,서울 중구 장충단로 59,http://place.map.kakao.com/8190001
두산아트센터 연강홀,문화시설,"문화,예술 > 문화시설 > 공연장,연극극장",127.001109340536,37.571743761114,서울 종로구 종로33길 15,http://place.map.kakao.com/18245163
두산아트센터 스페이스111,문화시설,"문화,예술 > 문화시설 > 공연장,연극극장",127.000941806432,37.5716608710148,서울 종로구 종로33길 15,http://place.map.kakao.com/7850816
더씨어터,문화시설,"문화,예술 > 문화시설 > 공연장,연극극장",127.001661798335,37.5740611137048,서울 종로구 대학로3길 10,http://place.map.kakao.com/12999525
한국교회 100주년기념관 대공연장,문화시설,"문화,예술 > 문화시설 > 공연장,연극극장",127.000556955834,37.5746449686871,서울 종로구 대학로3길 29,http://place.map.kakao.com/1284009886
홍익대학교 대학로아트센터 소극장,문화시설,"문화,예술 > 문화시설 > 공연장,연극극장",127.001390158431,37.5764145151565,서울 종로구 대학로 57,http://place.map.kakao.com/18959687
홍익대학교 대학로아트센터 대극장,문화시설,"문화,예술 > 문화시설 > 공연장,연극극장",127.00152148175482,37.576681207884405,서울 종로구 대학로 57,http://place.map.kakao.com/18664821
서울대학교병원 의학박물관,문화시설,"문화,예술 > 문화시설 > 박물관",126.99940678892,37.5784868086925,서울 종로구 대학로 101,http://place.map.kakao.com/17808435
백기완마당집,문화시설,"문화,예술 > 문화시설 > 기념관",127.000309071573,37.5816628131957,서울 종로구 대학로9길 27,http://place.map.kakao.com/1284296341
후암스테이지,문화시설,"문화,예술 > 문화시설 > 공연장,연극극장",127.000480025927,37.5820799726622,서울 종로구 대학로11길 23,http://place.map.kakao.com/26809602
대학로스타시티극장,문화시설,"문화,예술 > 문화시설 > 공연장,연극극장",127.000511726023,37.582119616246,서울 종로구 대학로11길 23,http://place.map.kakao.com/13122848
피카소소극장,문화시설,"문화,예술 > 문화시설 > 공연장,연극극장",127.000294357422,37.5825629058052,서울 종로구 대학로11길 38-11,http://place.map.kakao.com/24690489
CGV 대학로,문화시설,"문화,예술 > 영화,영상 > 영화관 > CGV",126.99984149795074,37.583458493533186,서울 종로구 대명길 28,http://place.map.kakao.com/7986504
한성아트홀,문화시설,"문화,예술 > 문화시설 > 공연장,연극극장",126.999950184867,37.5837630293767,서울 종로구 창경궁로 254,http://place.map.kakao.com/21087952
열린극장,문화시설,"문화,예술 > 문화시설 > 공연장,연극극장",127.000335119644,37.5836873454728,서울 종로구 창경궁로 258-12,http://place.map.kakao.com/8478869
씨어터쿰,문화시설,"문화,예술 > 문화시설 > 공연장,연극극장",126.9995516598612,37.58442075361745,서울 종로구 창경궁로 253-7,http://place.map.kakao.com/637325434
한성아트홀 2관,문화시설,"문화,예술 > 문화시설 > 공연장,연극극장",127.000022643222,37.5836981578662,서울 종로구 창경궁로 254,http://place.map.kakao.com/21135312
극장 동국,문화시설,"문화,예술 > 문화시설 > 공연장,연극극장",127.00005660867298,37.58451265576224,서울 종로구 창경궁로 259,http://place.map.kakao.com/24452561
창조소극장,문화시설,"문화,예술 > 문화시설 > 공연장,연극극장",127.000045286969,37.584563111386,서울 종로구 창경궁로 259,http://place.map.kakao.com/2026211773
지구인아트홀,문화시설,"문화,예술 > 문화시설 > 공연장,연극극장",127.0005604256936,37.58449012960955,서울 종로구 창경궁로 260,http://place.map.kakao.com/614332502
짚풀생활사박물관,문화시설,"문화,예술 > 문화시설 > 박물관",126.999981885125,37.5849235086584,서울 종로구 성균관로4길 47,http://place.map.kakao.com/8562010
선돌극장,문화시설,"문화,예술 > 문화시설 > 공연장,연극극장",126.999769029465,37.5868264056281,서울 종로구 혜화로5길 5,http://place.map.kakao.com/7939503
미마지아트센터 눈빛극장,문화시설,"문화,예술 > 문화시설 > 공연장,연극극장",126.99981884584912,37.587152565115574,서울 종로구 혜화로 17,http://place.map.kakao.com/13096346
나온씨어터,문화시설,"문화,예술 > 문화시설 > 공연장,연극극장",126.999384071329,37.5877057731972,서울 종로구 혜화로9길 7,http://place.map.kakao.com/10198186
최순우옛집,문화시설,"문화,예술 > 문화시설 > 기념관",127.0003510131624,37.59290089595328,서울 성북구 성북로15길 9,http://place.map.kakao.com/10845382
한상수자수박물관,문화시설,"문화,예술 > 문화시설 > 박물관",127.0009284952728,37.59361267639262,서울 성북구 성북로16길 4-10,http://place.map.kakao.com/1902450096
국민대학교 명원박물관,문화시설,"문화,예술 > 문화시설 > 박물관",127.000122318189,37.61106306340204,서울 성북구 정릉로9길 68,http://place.map.kakao.com/636190353
메가박스 센트럴,문화시설,"문화,예술 > 영화,영상 > 영화관 > 메가박스",127.00390751742334,37.50520032883598,서울 서초구 신반포로 176,http://place.map.kakao.com/7980397
프린트베이커리,문화시설,"문화,예술 > 문화시설 > 미술관",127.00350747240016,37.53620385322925,서울 용산구 한남대로 91,http://place.map.kakao.com/1511566694
블루스퀘어 신한카드홀,문화시설,"문화,예술 > 문화시설 > 공연장,연극극장",127.00231959701894,37.54070618075781,서울 용산구 이태원로 294,http://place.map.kakao.com/18192815
블루스퀘어,문화시설,"문화,예술 > 문화시설 > 공연장,연극극장",127.002548167462,37.5408611480276,서울 용산구 이태원로 294,http://place.map.kakao.com/14529813
블루스퀘어 마스터카드홀,문화시설,"문화,예술 > 문화시설 > 공연장,연극극장",127.0024780138899,37.54086835751958,서울 용산구 이태원로 294,http://place.map.kakao.com/1104690330
동국대학교 서울캠퍼스 이해랑예술극장,문화시설,"문화,예술 > 문화시설 > 공연장,연극극장",127.003309315842,37.5583152728918,서울 중구 필동로1길 30,http://place.map.kakao.com/14920014
동국대학교 서울캠퍼스 박물관,문화시설,"문화,예술 > 문화시설 > 박물관",127.00234051262028,37.55824682027692,서울 중구 필동로1길 30,http://place.map.kakao.com/1382835914
파라다이스집,문화시설,"문화,예술 > 문화시설 > 전시관",127.003834521115,37.5595009692068,서울 중구 동호로 268-8,http://place.map.kakao.com/269603045
앰배서더박물관 의종관,문화시설,"문화,예술 > 문화시설 > 박물관",127.001733911623,37.5595803064798,서울 중구 동호로25길 38-5,http://place.map.kakao.com/27122082
JTN아트홀,문화시설,"문화,예술 > 문화시설 > 공연장,연극극장",127.00393049263532,37.576645112479866,서울 종로구 이화장길 26,http://place.map.kakao.com/7825701
JTN아트홀 4관,문화시설,"문화,예술 > 문화시설 > 공연장,연극극장",127.00393954831,37.5766306962676,서울 종로구 이화장길 26,http://place.map.kakao.com/874511893
JTN아트홀 2관,문화시설,"문화,예술 > 문화시설 > 공연장,연극극장",127.003930492635,37.5766451124799,서울 종로구 이화장길 26,http://place.map.kakao.com/1492742507
JTN아트홀 3관,문화시설,"문화,예술 > 문화시설 > 공연장,연극극장",127.00393954831,37.5766306962676,서울 종로구 이화장길 26,http://place.map.kakao.com/1129035220
JTN아트홀 1관,문화시설,"문화,예술 > 문화시설 > 공연장,연극극장",127.00393954831,37.5766306962676,서울 종로구 이화장길 26,http://place.map.kakao.com/892781722
예스24 아트원,문화시설,"문화,예술 > 문화시설 > 공연장,연극극장",127.003980498905,37.5803247707903,서울 종로구 대학로12길 83,http://place.map.kakao.com/8046574
아르코미술관,문화시설,"문화,예술 > 문화시설 > 미술관",127.00323784065,37.5804617445584,서울 종로구 동숭길 3,http://place.map.kakao.com/7991363
미마지아트센터 물빛극장,문화시설,"문화,예술 > 문화시설 > 공연장,연극극장",127.003527652339,37.5802707255611,서울 종로구 대학로8가길 129,http://place.map.kakao.com/961256406
예스24아트원 3관,문화시설,"문화,예술 > 문화시설 > 공연장,연극극장",127.003994082108,37.5802851266024,서울 종로구 대학로12길 83,http://place.map.kakao.com/17552499
인터파크 유니플렉스,문화시설,"문화,예술 > 문화시설 > 공연장,연극극장",127.003704306017,37.5811717139277,서울 종로구 대학로12길 64,http://place.map.kakao.com/21029856
바탕골 소극장,문화시설,"문화,예술 > 문화시설 > 공연장,연극극장",127.002522391754,37.5818240645092,서울 종로구 대학로10길 5,http://place.map.kakao.com/18345287
플러스씨어터,문화시설,"문화,예술 > 문화시설 > 공연장,연극극장",127.003971468634,37.5808257236473,서울 종로구 대학로12길 73,http://place.map.kakao.com/2115601133
라온아트홀,문화시설,"문화,예술 > 문화시설 > 공연장,연극극장",127.002803161755,37.5818528899711,서울 종로구 대학로10길 11,http://place.map.kakao.com/1864612213
아르코예술극장,문화시설,"문화,예술 > 문화시설 > 공연장,연극극장",127.002993333291,37.5811825460218,서울 종로구 대학로8길 7,http://place.map.kakao.com/10593353
유니플렉스 2관,문화시설,"문화,예술 > 문화시설 > 공연장,연극극장",127.00352769553,37.581186135237,서울 종로구 대학로12길 64,http://place.map.kakao.com/21363476
유니플렉스 1관,문화시설,"문화,예술 > 문화시설 > 공연장,연극극장",127.003523167887,37.5812041552463,서울 종로구 대학로12길 64,http://place.map.kakao.com/21363475
댕로홀,문화시설,"문화,예술 > 문화시설 > 공연장,연극극장",127.003717924826,37.5818420527808,서울 종로구 대학로12길 50,http://place.map.kakao.com/7851151
아르코예술극장 대극장,문화시설,"문화,예술 > 문화시설 > 공연장,연극극장",127.002997863084,37.5812149816802,서울 종로구 대학로8길 7,http://place.map.kakao.com/18315841
유니플렉스 3관,문화시설,"문화,예술 > 문화시설 > 공연장,연극극장",127.003523167887,37.5812041552463,서울 종로구 대학로12길 64,http://place.map.kakao.com/21363478
소극장혜화당,문화시설,"문화,예술 > 문화시설 > 공연장,연극극장",127.004025832403,37.5812365749468,서울 종로구 대학로12길 63,http://place.map.kakao.com/27471995
대학로 연극순위아트홀 1관,문화시설,"문화,예술 > 문화시설 > 공연장,연극극장",127.002807689476,37.581831266017,서울 종로구 대학로10길 11,http://place.map.kakao.com/27199108
아트포레스트,문화시설,"문화,예술 > 문화시설 > 공연장,연극극장",127.003088485817,37.5824943902625,서울 종로구 대학로12길 22,http://place.map.kakao.com/2003000361
예스24스테이지,문화시설,"문화,예술 > 문화시설 > 공연장,연극극장",127.00326058293216,37.58275567374538,서울 종로구 대학로12길 21,http://place.map.kakao.com/1299291592
대학로예술극장,문화시설,"문화,예술 > 문화시설 > 공연장,연극극장",127.003228848811,37.5819682062752,서울 종로구 대학로10길 17,http://place.map.kakao.com/12984482
파랑씨어터,문화시설,"문화,예술 > 문화시설 > 공연장,연극극장",127.002472599844,37.5824871968218,서울 종로구 대학로8가길 36,http://place.map.kakao.com/26235257
대학로자유극장,문화시설,"문화,예술 > 문화시설 > 공연장,연극극장",127.003613812139,37.5827430495515,서울 종로구 대학로12길 31,http://place.map.kakao.com/17358384
컬쳐씨어터,문화시설,"문화,예술 > 문화시설 > 공연장,연극극장",127.003260570751,37.5824763657644,서울 종로구 대학로8가길 80,http://place.map.kakao.com/543976274
티오엠 1관,문화시설,"문화,예술 > 문화시설 > 공연장,연극극장",127.0036454894,37.5822745319552,서울 종로구 대학로8가길 85,http://place.map.kakao.com/27335413
올웨이즈씨어터,문화시설,"문화,예술 > 문화시설 > 공연장,연극극장",127.002094481016,37.583089067769,서울 종로구 대학로 132,http://place.map.kakao.com/1771072641
드림시어터,문화시설,"문화,예술 > 문화시설 > 공연장,연극극장",127.002848466031,37.5823502373355,서울 종로구 대학로10길 15-11,http://place.map.kakao.com/10914589
TOM,문화시설,"문화,예술 > 문화시설 > 공연장,연극극장",127.00364548913682,37.58226912599394,서울 종로구 대학로8가길 85,http://place.map.kakao.com/25779546
스튜디오 블루,문화시설,"문화,예술 > 문화시설 > 공연장,연극극장",127.003260569965,37.5824583458942,서울 종로구 대학로8가길 80,http://place.map.kakao.com/122400839
스타스테이지,문화시설,"문화,예술 > 문화시설 > 공연장,연극극장",127.0028167796696,37.58271063549632,서울 종로구 대학로12길 15,http://place.map.kakao.com/47436805
마루아트홀,문화시설,"문화,예술 > 문화시설 > 공연장,연극극장",127.002567693402,37.582299788139,서울 종로구 대학로8가길 30,http://place.map.kakao.com/1891154905
시온아트홀,문화시설,"문화,예술 > 문화시설 > 공연장,연극극장",127.00264923174262,37.58298454138512,서울 종로구 대학로8가길 52,http://place.map.kakao.com/287767397
하마씨어터,문화시설,"문화,예술 > 문화시설 > 공연장,연극극장",127.002771477123,37.5822601398146,서울 종로구 대학로10길 15-11,http://place.map.kakao.com/1852988870
티오엠 2관,문화시설,"문화,예술 > 문화시설 > 공연장,연극극장",127.0036454894,37.5822745319552,서울 종로구 대학로8가길 85,http://place.map.kakao.com/27335414
링크아트센터드림,문화시설,"문화,예술 > 문화시설 > 공연장,연극극장",127.003292306454,37.5832872589862,서울 종로구 동숭길 123,http://place.map.kakao.com/1390982986
더굿씨어터,문화시설,"문화,예술 > 문화시설 > 공연장,연극극장",127.00206506973008,37.5839819526946,서울 종로구 대학로 144,http://place.map.kakao.com/24048344
예그린씨어터,문화시설,"문화,예술 > 문화시설 > 공연장,연극극장",127.003043256729,37.5838855252471,서울 종로구 동숭길 130-5,http://place.map.kakao.com/22676315
서울문화재단 대학로극장 쿼드,문화시설,"문화,예술 > 문화시설 > 공연장,연극극장",127.003740659991,37.5836908906524,서울 종로구 동숭길 122,http://place.map.kakao.com/8257289
동덕여자대학교 공연예술센터,문화시설,"문화,예술 > 문화시설 > 공연장,연극극장",127.003328550494,37.5836260314729,서울 종로구 동숭길 126,http://place.map.kakao.com/10293467
상명아트홀,문화시설,"문화,예술 > 문화시설 > 공연장,연극극장",127.00288020332,37.5833197055225,서울 종로구 동숭길 133,http://place.map.kakao.com/21604016
동숭아트센터 소극장,문화시설,"문화,예술 > 문화시설 > 공연장,연극극장",127.0037134892,37.5837125153501,서울 종로구 동숭길 122,http://place.map.kakao.com/18552633
연우 소극장,문화시설,"문화,예술 > 문화시설 > 공연장,연극극장",127.001770778281,37.5870029871665,서울 종로구 창경궁로35길 21,http://place.map.kakao.com/15369930
홍사소극장,문화시설,"문화,예술 > 문화시설 > 공연장,연극극장",127.001915694385,37.5867326870523,서울 종로구 창경궁로 287,http://place.map.kakao.com/1552132174
한양도성 혜화동 전시안내센터,문화시설,"문화,예술 > 문화시설 > 전시관",127.003029862116,37.5886067285583,서울 종로구 창경궁로35길 63,http://place.map.kakao.com/2136256104
소극장공유,문화시설,"문화,예술 > 문화시설 > 공연장,연극극장",127.003206447715,37.5876012160981,서울 종로구 창경궁로 303,http://place.map.kakao.com/671936313
정유정 도예작업실,관광명소,"여행 > 관광,명소 > 도자기,도예촌",127.003106884538,37.5893383324785,서울 성북구 성북로5길 40,http://place.map.kakao.com/684673499
신민요민속보존회,문화시설,"문화,예술 > 문화시설 > 공연장,연극극장",127.002677294656,37.6078663227845,서울 성북구 정릉로 157,http://place.map.kakao.com/1508296729
근현대사기념관,문화시설,"문화,예술 > 문화시설 > 기념관",127.002787345359,37.6434408870332,서울 강북구 4.19로 114,http://place.map.kakao.com/27402363
브라움홀,문화시설,"문화,예술 > 문화시설 > 공연장,연극극장",127.005838412518,37.4802738840237,서울 서초구 명달로 30,http://place.map.kakao.com/652669050
모차르트홀,문화시설,"문화,예술 > 문화시설 > 공연장,연극극장",127.004495633777,37.4864945065723,서울 서초구 명달로 104,http://place.map.kakao.com/7868375
법원전시관,문화시설,"문화,예술 > 문화시설 > 전시관",127.005848407691,37.4924663266081,서울 서초구 서초대로 219,http://place.map.kakao.com/27495897
아트스페이스 이플,문화시설,"문화,예술 > 문화시설 > 미술관",127.006155714696,37.5305454584723,서울 용산구 대사관로34길 62,http://place.map.kakao.com/448743120
가나아트 나인원,문화시설,"문화,예술 > 문화시설 > 미술관",127.004719252252,37.5362785940696,서울 용산구 한남대로 91,http://place.map.kakao.com/1851158797
일신홀,문화시설,"문화,예술 > 문화시설 > 공연장,연극극장",127.005421947369,37.5372246144272,서울 용산구 한남대로 98,http://place.map.kakao.com/26559733
한익환 서울아트박물관,문화시설,"문화,예술 > 문화시설 > 박물관",127.00501241525198,37.53805715686027,서울 용산구 한남대로 108,http://place.map.kakao.com/25681570
브라운즈,문화시설,"문화,예술 > 문화시설 > 전시관",127.00610650297308,37.53751200014394,서울 용산구 한남대로28가길 23,http://place.map.kakao.com/136384196
종이나라박물관,문화시설,"문화,예술 > 문화시설 > 박물관",127.006211303255,37.5596558395786,서울 중구 장충단로 166,http://place.map.kakao.com/12283982
H씨어터,문화시설,"문화,예술 > 문화시설 > 공연장,연극극장",127.004718462711,37.5776001376023,서울 종로구 이화장길 54,http://place.map.kakao.com/1414841581
종로마루홀,문화시설,"문화,예술 > 문화시설 > 공연장,연극극장",127.006022530626,37.5766648461645,서울 종로구 율곡로19길 17-8,http://place.map.kakao.com/1232380239
한예극장,문화시설,"문화,예술 > 문화시설 > 공연장,연극극장",127.004709444748,37.578212814024,서울 종로구 이화장길 66,http://place.map.kakao.com/68565157
씨어터조이,문화시설,"문화,예술 > 문화시설 > 공연장,연극극장",127.0046415487,37.5786741257057,서울 종로구 이화장길 78,http://place.map.kakao.com/1633132843
이수아트홀,문화시설,"문화,예술 > 문화시설 > 공연장,연극극장",127.004627915499,37.577895667295,서울 종로구 이화장길 58,http://place.map.kakao.com/22015602
봄날아트홀,문화시설,"문화,예술 > 문화시설 > 공연장,연극극장",127.004247658243,37.579996799713,서울 종로구 동숭길 39,http://place.map.kakao.com/349733822
업스테이지,문화시설,"문화,예술 > 문화시설 > 공연장,연극극장",127.00430540073764,37.58008599601545,서울 종로구 동숭길 41,http://place.map.kakao.com/1780843633
콘텐츠박스,문화시설,"문화,예술 > 문화시설 > 공연장,연극극장",127.00413901486,37.5806959747884,서울 종로구 동숭길 55,http://place.map.kakao.com/27264356
플랫폼74,문화시설,"문화,예술 > 문화시설 > 공연장,연극극장",127.004302087626,37.5815320911279,서울 종로구 동숭길 74,http://place.map.kakao.com/804725468
해바라기소극장,문화시설,"문화,예술 > 문화시설 > 공연장,연극극장",127.004270394826,37.5816510234397,서울 종로구 동숭길 76,http://place.map.kakao.com/2129184210
플레이더씨어터,문화시설,"문화,예술 > 문화시설 > 공연장,연극극장",127.00458505936838,37.580548195324035,서울 종로구 동숭길 50,http://place.map.kakao.com/785938089
JS아트홀,문화시설,"문화,예술 > 문화시설 > 공연장,연극극장",127.004347425046,37.5824312810645,서울 종로구 동숭길 94,http://place.map.kakao.com/1529594305
가톨릭대학교 전례박물관,문화시설,"문화,예술 > 문화시설 > 박물관",127.004257058811,37.5860334553331,서울 종로구 창경궁로 296-12,http://place.map.kakao.com/8731995
성북문화원,문화시설,"문화,예술 > 문화시설 > 문화원",127.00574957681306,37.589713046180435,서울 성북구 성북로4길 13-8,http://place.map.kakao.com/7943135
하땅세극장,문화시설,"문화,예술 > 문화시설 > 공연장,연극극장",127.005151677341,37.5886931503092,서울 성북구 성북로 5-7,http://place.map.kakao.com/1948556440
성북예술창작터,문화시설,"문화,예술 > 문화시설 > 미술관",127.00412141540345,37.590026659613066,서울 성북구 성북로 23,http://place.map.kakao.com/11465851
갤러리이엘,문화시설,"문화,예술 > 문화시설 > 미술관",127.00490270185333,37.590470818960824,서울 성북구 성북로6가길 7,http://place.map.kakao.com/2118144996
스페이스 오뉴월,문화시설,"문화,예술 > 문화시설 > 전시관",127.00444301773275,37.590722214001545,서울 성북구 성북로8길 8-6,http://place.map.kakao.com/2065794717
성북구립최만린미술관,문화시설,"문화,예술 > 문화시설 > 미술관",127.004290174029,37.6106593423435,서울 성북구 솔샘로7길 23,http://place.map.kakao.com/604403034
난나소극장,문화시설,"문화,예술 > 문화시설 > 공연장,연극극장",127.006402048296,37.6459869269897,서울 강북구 4.19로 74,http://place.map.kakao.com/1782057564
국립국악원,문화시설,"문화,예술 > 문화시설 > 공연장,연극극장",127.00882857012994,37.47792476713986,서울 서초구 남부순환로 2364,http://place.map.kakao.com/12446320
국립국악원 예악당,문화시설,"문화,예술 > 문화시설 > 공연장,연극극장",127.008732436066,37.4776139259987,서울 서초구 남부순환로 2364,http://place.map.kakao.com/22135736
풍류사랑방,문화시설,"문화,예술 > 문화시설 > 공연장,연극극장",127.008631813122,37.4775860020964,서울 서초구 남부순환로 2364,http://place.map.kakao.com/1022020068
국립국악원 강습안내,문화시설,"문화,예술 > 문화시설 > 공연장,연극극장",127.00865556929212,37.47771124068471,서울 서초구 남부순환로 2364,http://place.map.kakao.com/8670445
샤론홀,문화시설,"문화,예술 > 문화시설 > 공연장,연극극장",127.008227242243,37.4894387996748,서울 서초구 서초대로40길 49,http://place.map.kakao.com/1494908564
흰물결아트센터,문화시설,"문화,예술 > 문화시설 > 공연장,연극극장",127.007327567463,37.4934501439877,서울 서초구 반포대로 150,http://place.map.kakao.com/8166980
흰물결갤러리,문화시설,"문화,예술 > 문화시설 > 미술관",127.00729929691366,37.493443838687874,서울 서초구 반포대로 150,http://place.map.kakao.com/9555144
씨어터송,문화시설,"문화,예술 > 문화시설 > 공연장,연극극장",127.008268365902,37.4932230280893,서울 서초구 법원로3길 22,http://place.map.kakao.com/18607835
더줌아트센터,문화시설,"문화,예술 > 문화시설 > 공연장,연극극장",127.00704772134657,37.53582887875918,서울 용산구 독서당로 111,http://place.map.kakao.com/20375191
뮤지컬하우스호연재,문화시설,"문화,예술 > 문화시설 > 공연장,연극극장",127.008474094105,37.5525594422156,서울 중구 다산로 91,http://place.map.kakao.com/27437901
백호한국도자기,관광명소,"여행 > 관광,명소 > 도자기,도예촌",127.007407185821,37.5667736426042,서울 중구 장충단로 247,http://place.map.kakao.com/15371516
메가박스 동대문,문화시설,"문화,예술 > 영화,영상 > 영화관 > 메가박스",127.00759281850102,37.5667763337993,서울 중구 장충단로 247,http://place.map.kakao.com/8334053
V SPACE,문화시설,"문화,예술 > 문화시설 > 공연장,연극극장",127.006990550174,37.5657609485183,서울 중구 을지로 264,http://place.map.kakao.com/1863672858
CGV 동대문,문화시설,"문화,예술 > 영화,영상 > 영화관 > CGV",127.00768809872343,37.56872428046827,서울 중구 장충단로13길 20,http://place.map.kakao.com/793127848
해림도기,관광명소,"여행 > 관광,명소 > 도자기,도예촌",127.008231606821,37.5703559466498,서울 종로구 종로 266,http://place.map.kakao.com/12016888
광무대,문화시설,"문화,예술 > 문화시설 > 공연장,연극극장",127.008082238065,37.5708172665775,서울 종로구 종로 272,http://place.map.kakao.com/1266161536
한양도성박물관,문화시설,"문화,예술 > 문화시설 > 박물관",127.008544323564,37.5729471865215,서울 종로구 율곡로 283,http://place.map.kakao.com/25460694
이화동마을박물관,문화시설,"문화,예술 > 문화시설 > 박물관",127.0079358301076,37.57786305547463,서울 종로구 낙산성곽서1길 19,http://place.map.kakao.com/2044540762
김미연칠보미술관,문화시설,"문화,예술 > 문화시설 > 미술관",127.008001534293,37.5782739043864,서울 종로구 낙산성곽서1길 28,http://place.map.kakao.com/166877695
박을복자수박물관,문화시설,"문화,예술 > 문화시설 > 박물관",127.008499189269,37.6538415659482,서울 강북구 삼양로149가길 53,http://place.map.kakao.com/12684184
국립국악원 우면당,문화시설,"문화,예술 > 문화시설 > 공연장,연극극장",127.009532959577,37.4783058394142,서울 서초구 남부순환로 2364,http://place.map.kakao.com/17574744
국립국악원 풍류사랑방,문화시설,"문화,예술 > 문화시설 > 공연장,연극극장",127.00898789637978,37.47723007676379,서울 서초구 남부순환로 2364,http://place.map.kakao.com/397795313
국악박물관,문화시설,"문화,예술 > 문화시설 > 박물관",127.009582590952,37.4774156380061,서울 서초구 남부순환로 2364,http://place.map.kakao.com/10137345
국립국악원 연희마당,문화시설,"문화,예술 > 문화시설 > 공연장,연극극장",127.008940470043,37.4777076154328,서울 서초구 남부순환로 2364,http://place.map.kakao.com/319145539
서리풀아트홀,문화시설,"문화,예술 > 문화시설 > 공연장,연극극장",127.010003917661,37.4831162879106,서울 서초구 반포대로9길 30,http://place.map.kakao.com/1526310756
터키이스탄불문화원,문화시설,"문화,예술 > 문화시설 > 문화원",127.009452917966,37.4890963250142,서울 서초구 반포대로 98,http://place.map.kakao.com/657647911
안톤홀,문화시설,"문화,예술 > 문화시설 > 공연장,연극극장",127.009950485374,37.4894386671054,서울 서초구 반포대로22길 19-11,http://place.map.kakao.com/2091589176
동대문디자인플라자 디자인전시관,문화시설,"문화,예술 > 문화시설 > 전시관",127.00953969743,37.5667951134511,서울 중구 을지로 281,http://place.map.kakao.com/25753389
동대문디자인플라자 배움터 디자인박물관,문화시설,"문화,예술 > 문화시설 > 박물관",127.009539689617,37.5667338457298,서울 중구 을지로 281,http://place.map.kakao.com/25671884
테테루 뮤지엄,문화시설,"문화,예술 > 문화시설 > 전시관",127.00972296583336,37.56602384595415,서울 중구 을지로 281,http://place.map.kakao.com/285414333
동대문역사문화공원 동대문운동장기념관,문화시설,"문화,예술 > 문화시설 > 기념관",127.01116073789268,37.56781489861205,서울 중구 을지로 281,http://place.map.kakao.com/11667032
동대문디자인플라자 이간수문전시장,문화시설,"문화,예술 > 문화시설 > 전시관",127.010875523754,37.5680203522575,서울 중구 을지로 281,http://place.map.kakao.com/25754176
동대문역사문화공원 디자인갤러리,문화시설,"문화,예술 > 문화시설 > 전시관",127.009874777061,37.5670653846654,서울 중구 을지로 281,http://place.map.kakao.com/17183489
뭐든지 소극장,문화시설,"문화,예술 > 문화시설 > 공연장,연극극장",127.010009630482,37.5766907042605,서울 종로구 창신길 119,http://place.map.kakao.com/1975820873
문익환통일의집,문화시설,"문화,예술 > 문화시설 > 박물관",127.010192755025,37.641115940027,서울 강북구 인수봉로 251-38,http://place.map.kakao.com/698507716
파라스파라 서울 피규어뮤지엄,문화시설,"문화,예술 > 문화시설 > 박물관",127.009078344357,37.6637811542519,서울 강북구 삼양로 689,http://place.map.kakao.com/737027339
유리지공예관,문화시설,"문화,예술 > 문화시설 > 전시관",127.012360524982,37.4577805467334,서울 서초구 중앙로 555,http://place.map.kakao.com/12685020
예술의전당 서울서예박물관,문화시설,"문화,예술 > 문화시설 > 박물관",127.01186193751934,37.47833986691578,서울 서초구 남부순환로 2406,http://place.map.kakao.com/7937104
예술의전당,문화시설,"문화,예술 > 문화시설 > 공연장,연극극장",127.01375358339828,37.479446101344905,서울 서초구 남부순환로 2406,http://place.map.kakao.com/17344023
예술의전당 한가람디자인미술관,문화시설,"문화,예술 > 문화시설 > 미술관",127.012703344017,37.4798913174868,서울 서초구 남부순환로 2406,http://place.map.kakao.com/20496819
예술의전당 콘서트홀,문화시설,"문화,예술 > 문화시설 > 공연장,연극극장",127.01174677144716,37.47931116650964,서울 서초구 남부순환로 2406,http://place.map.kakao.com/10631818
예술의전당 리사이틀홀,문화시설,"문화,예술 > 문화시설 > 공연장,연극극장",127.011364621935,37.4792319150666,서울 서초구 남부순환로 2406,http://place.map.kakao.com/10633488
예술의전당 음악당,문화시설,"문화,예술 > 문화시설 > 공연장,연극극장",127.0117829668398,37.47941748200017,서울 서초구 남부순환로 2406,http://place.map.kakao.com/8015148
예술의전당 음악영재아카데미,문화시설,"문화,예술 > 문화시설 > 공연장,연극극장",127.011775020362,37.479211151659,서울 서초구 남부순환로 2406,http://place.map.kakao.com/427862220
예술의전당 한가람미술관 제7전시실,문화시설,"문화,예술 > 문화시설 > 공연장,연극극장",127.01265134873664,37.47996250279157,서울 서초구 남부순환로 2406,http://place.map.kakao.com/17089637
갤러리반포대로5,문화시설,"문화,예술 > 문화시설 > 전시관",127.012541861062,37.4810392203404,서울 서초구 반포대로 5,http://place.map.kakao.com/115399483
라율아트홀,문화시설,"문화,예술 > 문화시설 > 공연장,연극극장",127.01260654229964,37.48244658937674,서울 서초구 반포대로 20,http://place.map.kakao.com/1734202756
엘림아트홀,문화시설,"문화,예술 > 문화시설 > 공연장,연극극장",127.013183100446,37.4820825188847,서울 서초구 반포대로4길 9,http://place.map.kakao.com/26324315
아트스페이스호서,문화시설,"문화,예술 > 문화시설 > 미술관",127.012305508651,37.4813942427355,서울 서초구 반포대로 9,http://place.map.kakao.com/1529229067
코스모스아트홀,문화시설,"문화,예술 > 문화시설 > 공연장,연극극장",127.01164557706,37.4829080044916,서울 서초구 반포대로 27,http://place.map.kakao.com/926424034
서초명품화랑,관광명소,"여행 > 관광,명소 > 도자기,도예촌",127.012813265097,37.4879967787568,서울 서초구 사임당로 25,http://place.map.kakao.com/20946680
주한인도문화원 서울,문화시설,"문화,예술 > 문화시설 > 문화원",127.01154060682396,37.53549785791737,서울 용산구 독서당로 102,http://place.map.kakao.com/14758053
타데우스 로팍 서울,문화시설,"문화,예술 > 문화시설 > 미술관",127.012855562366,37.5368465199743,서울 용산구 독서당로 122-1,http://place.map.kakao.com/612582743
백룸,문화시설,"문화,예술 > 문화시설 > 미술관",127.012848769787,37.5368239957014,서울 용산구 독서당로 122-1,http://place.map.kakao.com/2114899622
동대문디자인플라자(DDP) 동대문역사관1398,문화시설,"문화,예술 > 문화시설 > 전시관",127.011536427721,37.5671156897561,서울 중구 을지로 281,http://place.map.kakao.com/25754179
강북문화원,문화시설,"문화,예술 > 문화시설 > 문화원",127.013174843385,37.6408237257114,서울 강북구 삼각산로 85,http://place.map.kakao.com/11044401
강북문화예술회관 강북진달래홀,문화시설,"문화,예술 > 문화시설 > 공연장,연극극장",127.013211101859,37.6408327315026,서울 강북구 삼각산로 85,http://place.map.kakao.com/1305214635
동서미술관,문화시설,"문화,예술 > 문화시설 > 미술관",127.015371331385,37.4567710593092,서울 서초구 양재대로2길 100-48,http://place.map.kakao.com/641863902
예술의전당 CJ토월극장,문화시설,"문화,예술 > 문화시설 > 공연장,연극극장",127.01400788796188,37.479031607194734,서울 서초구 남부순환로 2406,http://place.map.kakao.com/8491060
예술의전당 오페라하우스,문화시설,"문화,예술 > 문화시설 > 공연장,연극극장",127.013806705374,37.4793614002782,서울 서초구 남부순환로 2406,http://place.map.kakao.com/17570176
예술의전당 자유소극장,문화시설,"문화,예술 > 문화시설 > 공연장,연극극장",127.01387459128874,37.47963620014841,서울 서초구 남부순환로 2406,http://place.map.kakao.com/8459225
국립발레단,문화시설,"문화,예술 > 문화시설 > 공연장,연극극장",127.013815750055,37.479361399221,서울 서초구 남부순환로 2406,http://place.map.kakao.com/10524680
예술의전당 한가람미술관,문화시설,"문화,예술 > 문화시설 > 미술관",127.014236530093,37.4804281441544,서울 서초구 남부순환로 2406,http://place.map.kakao.com/20496825
에스씨씨홀,문화시설,"문화,예술 > 문화시설 > 공연장,연극극장",127.01452621934,37.4817471860847,서울 서초구 남부순환로325길 9,http://place.map.kakao.com/26967129
도잉아트,문화시설,"문화,예술 > 문화시설 > 전시관",127.01453976235,37.4816210431703,서울 서초구 남부순환로325길 9,http://place.map.kakao.com/590921596
한원미술관,문화시설,"문화,예술 > 문화시설 > 미술관",127.015439760383,37.4817434662027,서울 서초구 남부순환로 2423,http://place.map.kakao.com/8145231
갤러리비선재,문화시설,"문화,예술 > 문화시설 > 미술관",127.014278715585,37.5357246107659,서울 용산구 유엔빌리지3길 54-14,http://place.map.kakao.com/1465902146
충무아트센터 대극장,문화시설,"문화,예술 > 문화시설 > 공연장,연극극장",127.014809696157,37.5660269214363,서울 중구 퇴계로 387,http://place.map.kakao.com/1934809750
충무아트센터 중극장 블랙,문화시설,"문화,예술 > 문화시설 > 공연장,연극극장",127.014809694016,37.5660161094843,서울 중구 퇴계로 387,http://place.map.kakao.com/17343787
SeMA 백남준기념관,문화시설,"문화,예술 > 문화시설 > 기념관",127.013769644435,37.5730367921835,서울 종로구 종로53길 12-1,http://place.map.kakao.com/27416310
공감M아트센터,문화시설,"문화,예술 > 문화시설 > 공연장,연극극장",127.01406298073094,37.59188193776197,서울 성북구 보문로40길 11,http://place.map.kakao.com/1651930712
아리랑시네센터 아리랑인디웨이브,문화시설,"문화,예술 > 영화,영상 > 영화관",127.013883367137,37.6002359515116,서울 성북구 아리랑로 82,http://place.map.kakao.com/26973759
쥬니버스,관광명소,"여행 > 관광,명소 > 동물원 > 실내동물원",127.015935436309,37.6433425374586,서울 강북구 삼양로 447,http://place.map.kakao.com/781153631
서울교육대학교 샘미술관,문화시설,"문화,예술 > 문화시설 > 미술관",127.0171860795,37.4894747774507,서울 서초구 서초중앙로 96,http://place.map.kakao.com/2001693193
갤러리라보,문화시설,"문화,예술 > 문화시설 > 전시관",127.018528644226,37.5093174341954,서울 서초구 주흥길 77,http://place.map.kakao.com/983796538
CGV 성신여대입구,문화시설,"문화,예술 > 영화,영상 > 영화관 > CGV",127.01729015005344,37.59255995612785,서울 성북구 동소문로 106,http://place.map.kakao.com/7989315
덕성여자대학교 박물관,문화시설,"문화,예술 > 문화시설 > 박물관",127.016562985273,37.6527847576933,서울 도봉구 삼양로144길 33,http://place.map.kakao.com/10302150
인도박물관,문화시설,"문화,예술 > 문화시설 > 박물관",127.019225679561,37.4840855335023,서울 서초구 서초중앙로2길 35,http://place.map.kakao.com/18764388
디월트 고객체험센터,문화시설,"문화,예술 > 문화시설 > 전시관",127.020985522982,37.4860242040963,서울 서초구 효령로 336,http://place.map.kakao.com/1780443891
정효국악문화재단 정효아트홀,문화시설,"문화,예술 > 문화시설 > 공연장,연극극장",127.019624576492,37.4875489437498,서울 서초구 사임당로18길 52-2,http://place.map.kakao.com/1758735095
리코디아 아트홀,문화시설,"문화,예술 > 문화시설 > 공연장,연극극장",127.018616925954,37.5095624935848,서울 서초구 신반포로42길 14,http://place.map.kakao.com/776799652
신사하우스,문화시설,"문화,예술 > 문화시설 > 전시관",127.020633162734,37.5204048385658,서울 강남구 강남대로162길 27,http://place.map.kakao.com/1826758447
거암아트홀,문화시설,"문화,예술 > 문화시설 > 공연장,연극극장",127.019108071308,37.5195094981008,서울 강남구 강남대로 652,http://place.map.kakao.com/1539467994
비키갤러리,문화시설,"문화,예술 > 문화시설 > 미술관",127.019638839108,37.5247388308783,서울 강남구 압구정로 113-22,http://place.map.kakao.com/379454398
열린금호교육문화관,문화시설,"문화,예술 > 문화시설 > 문화원",127.0196913920468,37.552512153439906,서울 성동구 무수막길 69,http://place.map.kakao.com/8478874
메가박스 브로드웨이신사,문화시설,"문화,예술 > 영화,영상 > 영화관 > 메가박스",127.021941915834,37.5163708109245,서울 강남구 도산대로8길 8,http://place.map.kakao.com/1269199679
픽처하우스,문화시설,"문화,예술 > 영화,영상 > 영화관",127.022019652356,37.5230066842722,서울 강남구 압구정로10길 9,http://place.map.kakao.com/485285611
성신여자대학교 돈암수정캠퍼스 중앙박물관,문화시설,"문화,예술 > 문화시설 > 박물관",127.02128692325364,37.591754717119386,서울 성북구 보문로34다길 2,http://place.map.kakao.com/8439890
미아리고개예술극장,문화시설,"문화,예술 > 문화시설 > 공연장,연극극장",127.021419977676,37.5977192575545,서울 성북구 동소문로 177,http://place.map.kakao.com/7989709
부띠크모나코미술관,문화시설,"문화,예술 > 문화시설 > 미술관",127.024797452916,37.4974626550471,서울 서초구 서초대로 397,http://place.map.kakao.com/25447891
리엠아트센터,문화시설,"문화,예술 > 문화시설 > 공연장,연극극장",127.023609966656,37.5079659216777,서울 강남구 학동로2길 56,http://place.map.kakao.com/1713865354
더쇼룸,문화시설,"문화,예술 > 문화시설 > 전시관",127.024875160117,37.5203508621629,서울 강남구 논현로153길 41,http://place.map.kakao.com/1832605755
오치균미술관,문화시설,"문화,예술 > 문화시설 > 미술관",127.025271880154,37.5227195143308,서울 강남구 논현로159길 34,http://place.map.kakao.com/1220846393
광림아트센터 BBCH홀,문화시설,"문화,예술 > 문화시설 > 공연장,연극극장",127.025498578086,37.5240421373158,서울 강남구 논현로163길 33,http://place.map.kakao.com/23520901
광림아트센터,문화시설,"문화,예술 > 문화시설 > 공연장,연극극장",127.025299440008,37.5239340598486,서울 강남구 논현로163길 33,http://place.map.kakao.com/22555870
롯데시네마 수유,문화시설,"문화,예술 > 영화,영상 > 영화관 > 롯데시네마",127.0238146009,37.6356972554135,서울 강북구 도봉로 308,http://place.map.kakao.com/466590669
서울 그라시아스아트센터,문화시설,"문화,예술 > 문화시설 > 공연장,연극극장",127.027662205848,37.4767829828296,서울 서초구 남부순환로342길 100-15,http://place.map.kakao.com/68038875
전기박물관,문화시설,"문화,예술 > 문화시설 > 박물관",127.028126925191,37.4860046996426,서울 서초구 효령로72길 60,http://place.map.kakao.com/10725431
한전아트센터 갤러리,문화시설,"문화,예술 > 문화시설 > 미술관",127.02806017837646,37.4859074066234,서울 서초구 효령로72길 60,http://place.map.kakao.com/25036539
메가박스 강남,문화시설,"문화,예술 > 영화,영상 > 영화관 > 메가박스",127.026417015264,37.4979560555237,서울 서초구 서초대로77길 3,http://place.map.kakao.com/10609442
CGV 강남,문화시설,"문화,예술 > 영화,영상 > 영화관 > CGV",127.026391177132,37.5016573944824,서울 강남구 강남대로 438,http://place.map.kakao.com/10811159
시티극장,문화시설,"문화,예술 > 영화,영상 > 영화관",127.026984456104,37.5003940501186,서울 강남구 강남대로 422,http://place.map.kakao.com/204596825
스머프매직포레스트,관광명소,"여행 > 관광,명소 > 테마파크",127.027843960692,37.5034906075971,서울 강남구 강남대로106길 29,http://place.map.kakao.com/218343539
더라라갤러리 논현점,문화시설,"문화,예술 > 문화시설 > 미술관",127.0260600969,37.512222653086,서울 강남구 학동로 138,http://place.map.kakao.com/2089351858
갤러리 X2,문화시설,"문화,예술 > 문화시설 > 미술관",127.026926617515,37.5125369091997,서울 강남구 학동로 146,http://place.map.kakao.com/215080749
강남문화원,문화시설,"문화,예술 > 문화시설 > 문화원",127.02710580276036,37.51384692815208,서울 강남구 논현로131길 40,http://place.map.kakao.com/8674873
광림아트센터 장천홀,문화시설,"문화,예술 > 문화시설 > 공연장,연극극장",127.026580135756,37.5242509314199,서울 강남구 압구정로22길 21,http://place.map.kakao.com/10730162
국제아트홀,문화시설,"문화,예술 > 문화시설 > 공연장,연극극장",127.027589946169,37.5262184887339,서울 강남구 압구정로 162,http://place.map.kakao.com/772741182
성신여자대학교 미아운정그린캠퍼스 자연사박물관,문화시설,"문화,예술 > 문화시설 > 박물관",127.02702157298148,37.63144120923671,서울 강북구 도봉로76가길 55,http://place.map.kakao.com/27135607
둘리뮤지엄,문화시설,"문화,예술 > 문화시설 > 박물관",127.027636570805,37.6524222901,서울 도봉구 시루봉로1길 6,http://place.map.kakao.com/25132367
한전아트센터,문화시설,"문화,예술 > 문화시설 > 공연장,연극극장",127.028674147842,37.4859288834084,서울 서초구 효령로72길 60,http://place.map.kakao.com/8142719
삼익아트홀,문화시설,"문화,예술 > 문화시설 > 공연장,연극극장",127.0295332097756,37.51398780378087,서울 강남구 학동로 171,http://place.map.kakao.com/23941255
엠팟,문화시설,"문화,예술 > 문화시설 > 공연장,연극극장",127.0297187188414,37.51400667834185,서울 강남구 학동로 171,http://place.map.kakao.com/27548377
CGV씨네드쉐프 압구정,문화시설,"문화,예술 > 영화,영상 > 영화관 > CGV",127.02927482937886,37.5243205724172,서울 강남구 압구정로30길 45,http://place.map.kakao.com/7973004
CGV 압구정 본관,문화시설,"문화,예술 > 영화,영상 > 영화관 > CGV",127.02867534167731,37.52453425704939,서울 강남구 논현로 848,http://place.map.kakao.com/1960427056
CGV 압구정,문화시설,"문화,예술 > 영화,영상 > 영화관 > CGV",127.029401542158,37.5243493730171,서울 강남구 압구정로30길 45,http://place.map.kakao.com/2017438478
아이러브아트홀,문화시설,"문화,예술 > 문화시설 > 공연장,연극극장",127.02975280277788,37.52578187864645,서울 강남구 압구정로32길 30,http://place.map.kakao.com/1975988494
CGV 수유,문화시설,"문화,예술 > 영화,영상 > 영화관 > CGV",127.0298445691386,37.64238839946736,서울 강북구 도봉로 399,http://place.map.kakao.com/2135428667
앨리스파크,문화시설,"문화,예술 > 문화시설 > 문화원",127.031552151955,37.4680881596899,서울 서초구 바우뫼로12길 40,http://place.map.kakao.com/7996529
쿤스트하우스,문화시설,"문화,예술 > 문화시설 > 공연장,연극극장",127.030918513471,37.4885700729679,서울 서초구 강남대로47길 13,http://place.map.kakao.com/914596498
국기원 기념관,문화시설,"문화,예술 > 문화시설 > 기념관",127.030828941013,37.5017284001702,서울 강남구 테헤란로7길 32,http://place.map.kakao.com/11031235
아트컨티뉴,문화시설,"문화,예술 > 문화시설 > 전시관",127.03290398660756,37.516740380310054,서울 강남구 언주로135길 28,http://place.map.kakao.com/1854875475
국제예술대학교 국제콘서트홀,문화시설,"문화,예술 > 문화시설 > 공연장,연극극장",127.030636043206,37.5167644164249,서울 강남구 논현로138길 11,http://place.map.kakao.com/20943814
스페이스씨,문화시설,"문화,예술 > 문화시설 > 미술관",127.032756774322,37.524130447526,서울 강남구 언주로 827,http://place.map.kakao.com/8556673
J-BOX,문화시설,"문화,예술 > 문화시설 > 전시관",127.030814912743,37.5253761553241,서울 강남구 논현로172길 28,http://place.map.kakao.com/1098049420
세실아트홀,문화시설,"문화,예술 > 문화시설 > 공연장,연극극장",127.031853473236,37.5281455599253,서울 강남구 언주로173길 20,http://place.map.kakao.com/7949003
선농단역사문화관,문화시설,"문화,예술 > 문화시설 > 전시관",127.031894176976,37.5811998991222,서울 동대문구 무학로44길 38,http://place.map.kakao.com/26628467
문화공간이육사,문화시설,"문화,예술 > 문화시설 > 전시관",127.032621597764,37.5981347529575,서울 성북구 종암로21가길 36-1,http://place.map.kakao.com/1672245274
CGV 미아,문화시설,"문화,예술 > 영화,영상 > 영화관 > CGV",127.030715864901,37.6120573620072,서울 강북구 도봉로 34,http://place.map.kakao.com/10811991
마을극장 흰고무신,문화시설,"문화,예술 > 문화시설 > 공연장,연극극장",127.031541435035,37.6681272213269,서울 도봉구 시루봉로15마길 13,http://place.map.kakao.com/1176460796
준 갤러리,문화시설,"문화,예술 > 문화시설 > 미술관",127.034806778361,37.465996900046,서울 서초구 매헌로14길 34,http://place.map.kakao.com/1385441747
주한네팔문화원,문화시설,"문화,예술 > 문화시설 > 문화원",127.0347335184759,37.50309684533797,서울 강남구 테헤란로25길 39,http://place.map.kakao.com/55248414
국립관세박물관,문화시설,"문화,예술 > 문화시설 > 박물관",127.03453476229416,37.51845542521429,서울 강남구 언주로 721,http://place.map.kakao.com/12663808
SJ쿤스트할레,문화시설,"문화,예술 > 문화시설 > 공연장,연극극장",127.034854678006,37.5204429440981,서울 강남구 언주로148길 5,http://place.map.kakao.com/27027521
현대모터스튜디오 서울,문화시설,"문화,예술 > 문화시설 > 전시관",127.034366372898,37.5212611978171,서울 강남구 언주로 738,http://place.map.kakao.com/24227699
아뜰리에에르메스,문화시설,"문화,예술 > 문화시설 > 전시관",127.035362554697,37.5227673802957,서울 강남구 도산대로45길 7,http://place.map.kakao.com/18887741
오페라갤러리,문화시설,"문화,예술 > 문화시설 > 미술관",127.034824349337,37.523336973829,서울 강남구 언주로154길 18,http://place.map.kakao.com/16646603
디아드 아스턴 갤러리,문화시설,"문화,예술 > 문화시설 > 미술관",127.034238268498,37.5231308156031,서울 강남구 언주로154길 10,http://place.map.kakao.com/299078762
윤당아트홀,문화시설,"문화,예술 > 문화시설 > 공연장,연극극장",127.0337235770035,37.52569972138983,서울 강남구 언주로 844,http://place.map.kakao.com/22045591
윤당아트홀 1관,문화시설,"문화,예술 > 문화시설 > 공연장,연극극장",127.033730344423,37.5256546693493,서울 강남구 언주로 844,http://place.map.kakao.com/18892319
갤러리언플러그드,문화시설,"문화,예술 > 문화시설 > 미술관",127.03527456649503,37.52810043858087,서울 강남구 압구정로42길 12,http://place.map.kakao.com/2010059408
청계천박물관,문화시설,"문화,예술 > 문화시설 > 박물관",127.0351070226222,37.57129886065509,서울 성동구 청계천로 530,http://place.map.kakao.com/8109515
고려대학교 서울캠퍼스 박물관,문화시설,"문화,예술 > 문화시설 > 박물관",127.03435018790692,37.58953970242364,서울 성북구 안암로 145,http://place.map.kakao.com/8765059
함석헌기념관,문화시설,"문화,예술 > 문화시설 > 기념관",127.034812274366,37.6529753961546,서울 도봉구 도봉로123길 33-6,http://place.map.kakao.com/26617442
산악박물관,문화시설,"문화,예술 > 문화시설 > 박물관",127.034515561137,37.6876451945785,서울 도봉구 도봉산길 86,http://place.map.kakao.com/15299008
매헌윤봉길의사기념관,문화시설,"문화,예술 > 문화시설 > 기념관",127.0365696768382,37.46961122376931,서울 서초구 매헌로 99,http://place.map.kakao.com/8301233
서초문화원,문화시설,"문화,예술 > 문화시설 > 문화원",127.035994504571,37.4818579254261,서울 서초구 강남대로 201,http://place.map.kakao.com/18855651
캐논갤러리,문화시설,"문화,예술 > 문화시설 > 전시관",127.03576280148236,37.508100721227834,서울 강남구 봉은사로 217,http://place.map.kakao.com/1937205899
갤러리엘르,문화시설,"문화,예술 > 문화시설 > 미술관",127.03692537011574,37.507860696239725,서울 강남구 봉은사로 224,http://place.map.kakao.com/17809749
루디갤러리,문화시설,"문화,예술 > 문화시설 > 전시관",127.035993628963,37.5177296819824,서울 강남구 언주로138길 6,http://place.map.kakao.com/970567544
아트플러스갤러리,문화시설,"문화,예술 > 문화시설 > 미술관",127.037174933288,37.5184744458229,서울 강남구 언주로140길 22,http://place.map.kakao.com/817939237
청호불교문화원,문화시설,"문화,예술 > 문화시설 > 문화원",127.03621560798337,37.520630844258,서울 강남구 언주로148길 14,http://place.map.kakao.com/9360559
CGV 청담씨네시티,문화시설,"문화,예술 > 영화,영상 > 영화관 > CGV",127.037032355109,37.5229506730658,서울 강남구 도산대로 323,http://place.map.kakao.com/14718298
호림아트센터,문화시설,"문화,예술 > 문화시설 > 박물관",127.036045771369,37.5226590534459,서울 강남구 도산대로 317,http://place.map.kakao.com/26436646
화이트큐브 서울,문화시설,"문화,예술 > 문화시설 > 미술관",127.036109117218,37.5226518260753,서울 강남구 도산대로 317,http://place.map.kakao.com/521048277
호림박물관 신사분관,문화시설,"문화,예술 > 문화시설 > 박물관",127.036041194408,37.5225509345279,서울 강남구 도산대로 317,http://place.map.kakao.com/10987404
페로탕,문화시설,"문화,예술 > 문화시설 > 미술관",127.035792551411,37.523030343521,서울 강남구 도산대로45길 10,http://place.map.kakao.com/1822604974
도산공원 도산안창호기념관,문화시설,"문화,예술 > 문화시설 > 기념관",127.035507899928,37.5239206199026,서울 강남구 도산대로45길 20,http://place.map.kakao.com/12728828
소월아트홀,문화시설,"문화,예술 > 문화시설 > 공연장,연극극장",127.036122300081,37.5593657621977,서울 성동구 왕십리로 281,http://place.map.kakao.com/12439870
성동문화원,문화시설,"문화,예술 > 문화시설 > 문화원",127.035986436433,37.5592648920214,서울 성동구 왕십리로 281,http://place.map.kakao.com/7950906
거창박물관,문화시설,"문화,예술 > 문화시설 > 박물관",127.036584545244,37.5788487467328,서울 동대문구 약령중앙로 5,http://place.map.kakao.com/26407630
동대문문화원,문화시설,"문화,예술 > 문화시설 > 문화원",127.03763007713692,37.57782128481103,서울 동대문구 왕산로 128,http://place.map.kakao.com/26635070
서울약령시한의약박물관,문화시설,"문화,예술 > 문화시설 > 박물관",127.0376292335738,37.58064409914353,서울 동대문구 약령중앙로 26,http://place.map.kakao.com/8366390
한국도자기,관광명소,"여행 > 관광,명소 > 도자기,도예촌",127.03757917929,37.5846688527497,서울 동대문구 약령중앙로 72-2,http://place.map.kakao.com/23287927
서우갤러리,문화시설,"문화,예술 > 문화시설 > 미술관",127.035520595941,37.5888284729803,서울 동대문구 안암로 160-1,http://place.map.kakao.com/1875944863
aT센터,문화시설,"문화,예술 > 문화시설 > 전시관",127.03924802821535,37.46810567643863,서울 서초구 강남대로 27,http://place.map.kakao.com/17023403
영산양재홀,문화시설,"문화,예술 > 문화시설 > 공연장,연극극장",127.03840428523615,37.4804768210113,서울 서초구 바우뫼로37길 45,http://place.map.kakao.com/10643801
세일아트홀,문화시설,"문화,예술 > 문화시설 > 공연장,연극극장",127.039014474603,37.4972245536404,서울 강남구 논현로 414,http://place.map.kakao.com/12207609
히든엠갤러리,문화시설,"문화,예술 > 문화시설 > 전시관",127.0389253307441,37.499776232890405,서울 강남구 논현로86길 16,http://place.map.kakao.com/159418263
K현대미술관,문화시설,"문화,예술 > 문화시설 > 미술관",127.03913323759338,37.524349883168405,서울 강남구 선릉로 807,http://place.map.kakao.com/154429973
광야아트센터,문화시설,"문화,예술 > 문화시설 > 공연장,연극극장",127.039643760012,37.5238904719953,서울 강남구 선릉로 806,http://place.map.kakao.com/231669168
CGV 왕십리,문화시설,"문화,예술 > 영화,영상 > 영화관 > CGV",127.0379502399087,37.561783464237266,서울 성동구 왕십리광장로 17,http://place.map.kakao.com/7992952
꿈의숲아트센터,문화시설,"문화,예술 > 문화시설 > 공연장,연극극장",127.038586574221,37.62147398170501,서울 강북구 월계로 173,http://place.map.kakao.com/11696074
꿈의숲아트센터 콘서트홀,문화시설,"문화,예술 > 문화시설 > 공연장,연극극장",127.038544673316,37.6214938171239,서울 강북구 월계로 173,http://place.map.kakao.com/17565318
꿈의숲아트센터 퍼포먼스홀,문화시설,"문화,예술 > 문화시설 > 공연장,연극극장",127.038472269356,37.6216704342967,서울 강북구 월계로 173,http://place.map.kakao.com/18562297
국립현대미술관 창동레지던시,문화시설,"문화,예술 > 문화시설 > 미술관",127.03942928538032,37.64069173483465,서울 도봉구 덕릉로 257,http://place.map.kakao.com/9429004
메가박스 창동,문화시설,"문화,예술 > 영화,영상 > 영화관 > 메가박스",127.0387192877969,37.6545770264401,서울 도봉구 도봉로 558,http://place.map.kakao.com/1479579006
도봉문화원,문화시설,"문화,예술 > 문화시설 > 문화원",127.038416422705,37.6540122094538,서울 도봉구 도봉로 552,http://place.map.kakao.com/10310041
도봉구민회관 하모니홀,문화시설,"문화,예술 > 문화시설 > 공연장,연극극장",127.038484507498,37.6541887798308,서울 도봉구 도봉로 552,http://place.map.kakao.com/186294146
편지문학관,문화시설,"문화,예술 > 문화시설 > 전시관",127.038494696803,37.6541698558742,서울 도봉구 도봉로 552,http://place.map.kakao.com/93090387
도봉구민회관 소공연장,문화시설,"문화,예술 > 문화시설 > 공연장,연극극장",127.038448225548,37.6541527523623,서울 도봉구 도봉로 552,http://place.map.kakao.com/129848038
살롱인양재천,문화시설,"문화,예술 > 문화시설 > 전시관",127.04135638386056,37.47860172547435,서울 서초구 양재천로 125-10,http://place.map.kakao.com/206341945
피규어뮤지엄W,문화시설,"문화,예술 > 문화시설 > 전시관",127.040386886164,37.5257859289937,서울 강남구 선릉로158길 3,http://place.map.kakao.com/26524097
포브갤러리,문화시설,"문화,예술 > 문화시설 > 전시관",127.040997845184,37.5259046507698,서울 강남구 도산대로55길 36,http://place.map.kakao.com/356204952
후지필름 파티클,문화시설,"문화,예술 > 문화시설 > 전시관",127.040591021285,37.5267156931297,서울 강남구 선릉로 838,http://place.map.kakao.com/874684706
본다빈치뮤지엄 서울숲,문화시설,"문화,예술 > 문화시설 > 미술관",127.042425493263,37.5458126553217,서울 성동구 서울숲2길 32-14,http://place.map.kakao.com/725771528
MMM,문화시설,"문화,예술 > 문화시설 > 전시관",127.042434545963,37.5458126520689,서울 성동구 서울숲2길 32-14,http://place.map.kakao.com/339525352
동덕여자대학교 박물관,문화시설,"문화,예술 > 문화시설 > 박물관",127.04181241444869,37.6069831842796,서울 성북구 화랑로13길 60,http://place.map.kakao.com/14617579
상상톡톡미술관,문화시설,"문화,예술 > 문화시설 > 미술관",127.041390667983,37.6225163748567,서울 강북구 월계로 173,http://place.map.kakao.com/26449227
SCC선아트홀,문화시설,"문화,예술 > 문화시설 > 공연장,연극극장",127.043843786101,37.4711008222435,서울 서초구 동산로 44,http://place.map.kakao.com/780645425
신한아트홀,문화시설,"문화,예술 > 문화시설 > 공연장,연극극장",127.044027236475,37.4986139456617,서울 강남구 역삼로 251,http://place.map.kakao.com/9173875
민속극장풍류,문화시설,"문화,예술 > 문화시설 > 공연장,연극극장",127.04461985956654,37.510090729955984,서울 강남구 봉은사로 406,http://place.map.kakao.com/11293855
GB성암아트홀,문화시설,"문화,예술 > 문화시설 > 공연장,연극극장",127.043023426255,37.5111482004149,서울 강남구 선릉로111길 6,http://place.map.kakao.com/2140919964
송은,문화시설,"문화,예술 > 문화시설 > 미술관",127.04411916743958,37.5241555816904,서울 강남구 도산대로 441,http://place.map.kakao.com/12964941
조은숙아트앤라이프스타일,문화시설,"문화,예술 > 문화시설 > 미술관",127.043558196382,37.5243864465119,서울 강남구 압구정로80길 37,http://place.map.kakao.com/13082852
성임헤드스파,관광명소,"여행 > 관광,명소 > 온천",127.04419457419004,37.52541605566741,서울 강남구 도산대로67길 19,http://place.map.kakao.com/1102645396
메가박스 성수,문화시설,"문화,예술 > 영화,영상 > 영화관 > 메가박스",127.04489905308826,37.541886987541496,서울 성동구 왕십리로 50,http://place.map.kakao.com/592835736
메타그라운드 성수점,문화시설,"문화,예술 > 문화시설 > 전시관",127.044910368371,37.5418869832387,서울 성동구 왕십리로 50,http://place.map.kakao.com/98681541
디뮤지엄 (휴업중),문화시설,"문화,예술 > 문화시설 > 미술관",127.0442167003155,37.54373339300729,서울 성동구 왕십리로 83-21,http://place.map.kakao.com/27117824
언더스탠드에비뉴 아트스탠드,문화시설,"문화,예술 > 문화시설 > 전시관",127.043279708789,37.5436247192191,서울 성동구 왕십리로 63,http://place.map.kakao.com/132321561
더서울라이티움,문화시설,"문화,예술 > 문화시설 > 전시관",127.042991156674,37.5455853989664,서울 성동구 서울숲2길 32-14,http://place.map.kakao.com/66485696
서울숲씨어터,문화시설,"문화,예술 > 문화시설 > 공연장,연극극장",127.042914261633,37.5456773288432,서울 성동구 서울숲2길 32-14,http://place.map.kakao.com/1772440780
더페이지갤러리,문화시설,"문화,예술 > 문화시설 > 미술관",127.04291426060006,37.5456755268454,서울 성동구 서울숲2길 32-14,http://place.map.kakao.com/24987698
한양대학교 박물관,문화시설,"문화,예술 > 문화시설 > 박물관",127.04472141627,37.5551677747939,서울 성동구 왕십리로 222,http://place.map.kakao.com/10932577
한양대학교 역사관,문화시설,"문화,예술 > 문화시설 > 박물관",127.044762662952,37.5560110928729,서울 성동구 왕십리로 222,http://place.map.kakao.com/27259806
세종대왕기념관,문화시설,"문화,예술 > 문화시설 > 기념관",127.043587838139,37.5908403884541,서울 동대문구 회기로 56,http://place.map.kakao.com/8448294
김희수아트센터,문화시설,"문화,예술 > 문화시설 > 공연장,연극극장",127.042822345838,37.590703717843,서울 동대문구 홍릉로 118,http://place.map.kakao.com/1363434562
KOCCA 콘텐츠문화광장,문화시설,"문화,예술 > 문화시설 > 공연장,연극극장",127.04500127436376,37.591445324735055,서울 동대문구 회기로 66,http://place.map.kakao.com/1473705355
홍릉시험림,관광명소,"여행 > 관광,명소 > 숲",127.0448510609214,37.59396455518687,서울 동대문구 회기로 57,http://place.map.kakao.com/443387508
한국경제발전전시관,문화시설,"문화,예술 > 문화시설 > 전시관",127.04291525534792,37.594758147537725,서울 동대문구 회기로 47,http://place.map.kakao.com/1536311263
CGV 방학,문화시설,"문화,예술 > 영화,영상 > 영화관 > CGV",127.043635927027,37.6653861881832,서울 도봉구 도봉로 684,http://place.map.kakao.com/1653886254
더재즈컴퍼니 서울,문화시설,"문화,예술 > 문화시설 > 공연장,연극극장",127.045852964211,37.4735237773376,서울 서초구 언남12길 29-12,http://place.map.kakao.com/1310006310
프롬프트 프로젝트,문화시설,"문화,예술 > 문화시설 > 미술관",127.046835168302,37.4804530566745,서울 강남구 개포로17길 28,http://place.map.kakao.com/854611366
윤스스페이스,문화시설,"문화,예술 > 문화시설 > 공연장,연극극장",127.045329147514,37.4822259285648,서울 강남구 논현로24길 30,http://place.map.kakao.com/1040030262
2448아트스페이스 2관,문화시설,"문화,예술 > 문화시설 > 미술관",127.045796121039,37.482265392873,서울 강남구 양재천로 181,http://place.map.kakao.com/2026196612
도곡2문화센터 오유아트홀,문화시설,"문화,예술 > 문화시설 > 공연장,연극극장",127.046374781024,37.4837356132787,서울 강남구 남부순환로378길 34-9,http://place.map.kakao.com/24925850
2448아트스페이스,문화시설,"문화,예술 > 문화시설 > 미술관",127.046628713229,37.4829885772136,서울 강남구 논현로24길 48,http://place.map.kakao.com/1188191076
롯데시네마 도곡,문화시설,"문화,예술 > 영화,영상 > 영화관 > 롯데시네마",127.047105267661,37.4874745085255,서울 강남구 남부순환로 2753,http://place.map.kakao.com/1913617889
서울전람,문화시설,"문화,예술 > 문화시설 > 전시관",127.0451342553786,37.496555629234194,서울 강남구 언주로 321,http://place.map.kakao.com/16036411
생각하는박물관 청담동교육실,문화시설,"문화,예술 > 문화시설 > 박물관",127.04657757787534,37.5208074130572,서울 강남구 삼성로147길 34,http://place.map.kakao.com/2141007997
아줄레주갤러리,문화시설,"문화,예술 > 문화시설 > 미술관",127.04670933238836,37.52347883391695,서울 강남구 삼성로149길 10,http://place.map.kakao.com/1166847426
에스파스루이비통 서울,문화시설,"문화,예술 > 문화시설 > 미술관",127.046224212305,37.5256144002178,서울 강남구 압구정로 454,http://place.map.kakao.com/397173731
유아트스페이스,문화시설,"문화,예술 > 문화시설 > 전시관",127.045831617441,37.5273985371745,서울 강남구 압구정로71길 10,http://place.map.kakao.com/8036293
갤러리엠,문화시설,"문화,예술 > 문화시설 > 미술관",127.045899568873,37.5275174430298,서울 강남구 압구정로71길 14,http://place.map.kakao.com/27553099
코사이어티 서울숲점,문화시설,"문화,예술 > 문화시설 > 전시관",127.04562274422368,37.5448014432946,서울 성동구 왕십리로 82-20,http://place.map.kakao.com/1292703398
성수아트홀,문화시설,"문화,예술 > 문화시설 > 공연장,연극극장",127.0468464288292,37.54552807047959,서울 성동구 뚝섬로1길 43,http://place.map.kakao.com/18245172
동원극장,문화시설,"문화,예술 > 문화시설 > 공연장,연극극장",127.047341072878,37.5815262805502,서울 동대문구 왕산로 222-1,http://place.map.kakao.com/7854664
하랑도예공방,관광명소,"여행 > 관광,명소 > 도자기,도예촌",127.046363896439,37.6633615443612,서울 도봉구 마들로 597,http://place.map.kakao.com/24310709
헬로애니멀,관광명소,"여행 > 관광,명소 > 동물원 > 실내동물원",127.04696983534636,37.66810046305134,서울 도봉구 마들로 650,http://place.map.kakao.com/27048279
선릉아트홀,문화시설,"문화,예술 > 문화시설 > 공연장,연극극장",127.048457476412,37.5047949131635,서울 강남구 테헤란로 337,http://place.map.kakao.com/148633927
슈피겐홀,문화시설,"문화,예술 > 문화시설 > 공연장,연극극장",127.04851373752,37.511341591004054,서울 강남구 봉은사로 446,http://place.map.kakao.com/1488142904
G갤러리,문화시설,"문화,예술 > 문화시설 > 미술관",127.048905230896,37.5219624587482,서울 강남구 삼성로 748,http://place.map.kakao.com/2002497159
플래티넘갤러리,문화시설,"문화,예술 > 문화시설 > 미술관",127.048438874626,37.5215130505751,서울 강남구 삼성로 741,http://place.map.kakao.com/1807118157
지웅파인아트갤러리,문화시설,"문화,예술 > 문화시설 > 미술관",127.047970803825,37.525444315315,서울 강남구 도산대로81길 16-4,http://place.map.kakao.com/1741103719
이유진갤러리,문화시설,"문화,예술 > 문화시설 > 미술관",127.047681735248,37.5262913743357,서울 강남구 압구정로77길 17,http://place.map.kakao.com/15292358
뚝섬미술관,문화시설,"문화,예술 > 문화시설 > 미술관",127.04834345244046,37.54718530515838,서울 성동구 아차산로 33,http://place.map.kakao.com/702509231
롯데시네마 청량리,문화시설,"문화,예술 > 영화,영상 > 영화관 > 롯데시네마",127.04760869583596,37.58044047556045,서울 동대문구 왕산로 214,http://place.map.kakao.com/12553387
스페이스 잉크,문화시설,"문화,예술 > 문화시설 > 미술관",127.047895759692,37.5849732571968,서울 동대문구 왕산로47길 54,http://place.map.kakao.com/729543660
명작극장,문화시설,"문화,예술 > 영화,영상 > 영화관",127.050760459628,37.4618320546766,서울 서초구 염곡말길 9,http://place.map.kakao.com/1867709864
서초주니어센터,문화시설,"문화,예술 > 문화시설 > 공연장,연극극장",127.050751426806,37.4618464747461,서울 서초구 염곡말길 9,http://place.map.kakao.com/8372503
나음아트홀,문화시설,"문화,예술 > 문화시설 > 공연장,연극극장",127.050823539455,37.4748678528548,서울 강남구 논현로10길 28,http://place.map.kakao.com/15204121
갤러리차만,문화시설,"문화,예술 > 문화시설 > 미술관",127.050519154418,37.5197831545718,서울 강남구 학동로81길 9,http://place.map.kakao.com/1479685218
에이피어게인,문화시설,"문화,예술 > 문화시설 > 전시관",127.050127142775,37.54252639569,서울 성동구 성수일로4길 12,http://place.map.kakao.com/1895954352
무비랜드,문화시설,"문화,예술 > 영화,영상 > 영화관",127.050299106053,37.5441652404873,서울 성동구 연무장길 5-5,http://place.map.kakao.com/734967892
플리,문화시설,"문화,예술 > 문화시설 > 전시관",127.050729541622,37.546486931041,서울 성동구 아차산로 53,http://place.map.kakao.com/1834814196
헤르만아트홀,문화시설,"문화,예술 > 문화시설 > 공연장,연극극장",127.05005490319,37.5478711531354,서울 성동구 상원6나길 24,http://place.map.kakao.com/31964225
성북어린이미술관 꿈자람,문화시설,"문화,예술 > 문화시설 > 미술관",127.050585770119,37.6049723445232,서울 성북구 화랑로18자길 13,http://place.map.kakao.com/562979863
M극장,문화시설,"문화,예술 > 문화시설 > 공연장,연극극장",127.052948079929,37.4736883989151,서울 강남구 논현로4길 36,http://place.map.kakao.com/11309318
호텔리베라 베르사이유홀,문화시설,"문화,예술 > 문화시설 > 공연장,연극극장",127.05419842932704,37.523781975489065,서울 강남구 영동대로 737,http://place.map.kakao.com/8164487
피카프로젝트 청담본점,문화시설,"문화,예술 > 문화시설 > 전시관",127.052962598583,37.5262747082174,서울 강남구 도산대로101길 22,http://place.map.kakao.com/179617670
우란문화재단,문화시설,"문화,예술 > 문화시설 > 공연장,연극극장",127.05428078521324,37.54376433464276,서울 성동구 연무장7길 11,http://place.map.kakao.com/681937713
헬로우뮤지움,문화시설,"문화,예술 > 문화시설 > 미술관",127.05328584607926,37.54811120697004,서울 성동구 성수일로12길 20,http://place.map.kakao.com/26886522
경희대학교 한의학역사박물관,문화시설,"문화,예술 > 문화시설 > 박물관",127.0542212231,37.595859912732,서울 동대문구 경희대로 26,http://place.map.kakao.com/27260947
경희대학교 서울캠퍼스 평화의전당,문화시설,"문화,예술 > 문화시설 > 공연장,연극극장",127.052773814646,37.5986824730534,서울 동대문구 경희대로 26,http://place.map.kakao.com/17561258
한생연 실험누리과학관,문화시설,"문화,예술 > 문화시설 > 과학관",127.055072034001,37.4964468977411,서울 강남구 도곡로 408,http://place.map.kakao.com/13137976
포스코미술관,문화시설,"문화,예술 > 문화시설 > 미술관",127.05570225254664,37.506037809272286,서울 강남구 테헤란로 440,http://place.map.kakao.com/8131882
SAC아트홀,문화시설,"문화,예술 > 문화시설 > 공연장,연극극장",127.055543215048,37.5096734385837,서울 강남구 삼성로 534,http://place.map.kakao.com/1479195382
언커먼갤러리(UNCOMMON GALLERY),문화시설,"문화,예술 > 문화시설 > 전시관",127.055996031679,37.5132366966488,서울 강남구 봉은사로 516,http://place.map.kakao.com/2070314079
레스파스에트나 청담,문화시설,"문화,예술 > 문화시설 > 전시관",127.055650319302,37.5183491544596,서울 강남구 영동대로129길 22,http://place.map.kakao.com/1851724565
컨티뉴옥션,문화시설,"문화,예술 > 문화시설 > 전시관",127.055712953803,37.5189140539099,서울 강남구 삼성로122길 42,http://place.map.kakao.com/278914532
성수미술관,문화시설,"문화,예술 > 문화시설 > 미술관",127.054795978487,37.5457679188565,서울 성동구 성수일로8길 39,http://place.map.kakao.com/867733798
르네아트홀,문화시설,"문화,예술 > 문화시설 > 공연장,연극극장",127.054883918559,37.5916069257052,서울 동대문구 경희대로4길 48,http://place.map.kakao.com/309943977
경희대학교 서울캠퍼스 자연사박물관,문화시설,"문화,예술 > 문화시설 > 박물관",127.055201028009,37.5978344312692,서울 동대문구 경희대로 26,http://place.map.kakao.com/17807368
롯데시네마 수락산,문화시설,"문화,예술 > 영화,영상 > 영화관 > 롯데시네마",127.055631125045,37.6765767164281,서울 노원구 동일로 1660,http://place.map.kakao.com/27264207
오디움,문화시설,"문화,예술 > 문화시설 > 전시관",127.058966105869,37.456897005304,서울 서초구 헌릉로8길 6,http://place.map.kakao.com/721979898
코엑스 D홀,문화시설,"문화,예술 > 문화시설 > 공연장,연극극장",127.058816424151,37.5125226317312,서울 강남구 영동대로 513,http://place.map.kakao.com/8106109
코엑스 오디토리움,문화시설,"문화,예술 > 문화시설 > 공연장,연극극장",127.059358845237,37.5118916574986,서울 강남구 영동대로 513,http://place.map.kakao.com/15229863
메가박스 코엑스,문화시설,"문화,예술 > 영화,영상 > 영화관 > 메가박스",127.05884713674824,37.512743362431245,서울 강남구 영동대로 513,http://place.map.kakao.com/7877178
코엑스,문화시설,"문화,예술 > 문화시설 > 전시관",127.05882784390124,37.51266138067201,서울 강남구 영동대로 513,http://place.map.kakao.com/17573702
코엑스 아쿠아리움,문화시설,"문화,예술 > 문화시설 > 아쿠아리움",127.05848344600408,37.513409385014874,서울 강남구 영동대로 513,http://place.map.kakao.com/12860036
코엑스 C홀,문화시설,"문화,예술 > 문화시설 > 전시관",127.058843660722,37.5126379466878,서울 강남구 영동대로 513,http://place.map.kakao.com/8103826
코엑스 A홀,문화시설,"문화,예술 > 문화시설 > 전시관",127.058789379889,37.5126523897817,서울 강남구 영동대로 513,http://place.map.kakao.com/12795967
코엑스 B홀,문화시설,"문화,예술 > 문화시설 > 전시관",127.058852717902,37.5126487542242,서울 강남구 영동대로 513,http://place.map.kakao.com/15188787
코엑스 그랜드볼룸,문화시설,"문화,예술 > 문화시설 > 전시관",127.0586358129279,37.51298583760985,서울 강남구 영동대로 513,http://place.map.kakao.com/8106108
성수소극장,문화시설,"문화,예술 > 문화시설 > 공연장,연극극장",127.058409956355,37.5366660895235,서울 성동구 성덕정길 135-1,http://place.map.kakao.com/2134699964
갤러리구조,문화시설,"문화,예술 > 문화시설 > 미술관",127.057273016109,37.5383632299041,서울 성동구 뚝섬로 419,http://place.map.kakao.com/1115846968
서울하수도과학관,문화시설,"문화,예술 > 문화시설 > 과학관",127.05793744610224,37.5576983370413,서울 성동구 자동차시장3길 64,http://place.map.kakao.com/324009424
광운대학교 동해문화예술관 대극장,문화시설,"문화,예술 > 문화시설 > 공연장,연극극장",127.05759144243,37.6198282413004,서울 노원구 광운로 21,http://place.map.kakao.com/1817730210
국가유산진흥원 한국문화의집,문화시설,"문화,예술 > 문화시설 > 공연장,연극극장",127.06056505070715,37.50688506385562,서울 강남구 테헤란로92길 12-9,http://place.map.kakao.com/10951541
마이아트뮤지엄,문화시설,"문화,예술 > 문화시설 > 미술관",127.06057692858644,37.507587841577454,서울 강남구 테헤란로 518,http://place.map.kakao.com/1330284658
CMG섬유센터 이벤트홀,문화시설,"문화,예술 > 문화시설 > 공연장,연극극장",127.060640235995,37.5075517689015,서울 강남구 테헤란로 518,http://place.map.kakao.com/7986649
슈페리어갤러리,문화시설,"문화,예술 > 문화시설 > 미술관",127.061911972833,37.5081349603021,서울 강남구 테헤란로 528,http://place.map.kakao.com/24917952
코엑스신한카드아티움,문화시설,"문화,예술 > 문화시설 > 공연장,연극극장",127.06154587656545,37.50994346786382,서울 강남구 영동대로 513,http://place.map.kakao.com/1660169364
코엑스 그랜드컨퍼런스룸,문화시설,"문화,예술 > 문화시설 > 공연장,연극극장",127.060136096659,37.5107343748705,서울 강남구 영동대로 513,http://place.map.kakao.com/8558183
코엑스 아트홀,문화시설,"문화,예술 > 문화시설 > 공연장,연극극장",127.060652383813,37.5113828339957,서울 강남구 영동대로 513,http://place.map.kakao.com/18481255
포니정홀,문화시설,"문화,예술 > 문화시설 > 공연장,연극극장",127.061197146993,37.5136494792744,서울 강남구 영동대로 520,http://place.map.kakao.com/12736074
아파트먼트풀,문화시설,"문화,예술 > 문화시설 > 전시관",127.060671634178,37.5407446775566,서울 성동구 연무장길 106,http://place.map.kakao.com/1083058366
레이블갤러리,문화시설,"문화,예술 > 문화시설 > 전시관",127.060947166105,37.5456207443653,서울 성동구 성수이로26길 31,http://place.map.kakao.com/2106273179
어쿠스틱블루,문화시설,"문화,예술 > 문화시설 > 공연장,연극극장",127.060727664769,37.5484427856997,서울 성동구 광나루로 279,http://place.map.kakao.com/306289370
롯데시네마 노원,문화시설,"문화,예술 > 영화,영상 > 영화관 > 롯데시네마",127.06112486570564,37.655019837734514,서울 노원구 동일로 1414,http://place.map.kakao.com/22105322
더숲아트시네마,문화시설,"문화,예술 > 영화,영상 > 영화관",127.061439199647,37.6541610382725,서울 노원구 노해로 480,http://place.map.kakao.com/1480852440
답십리영화미디어아트센터,문화시설,"문화,예술 > 문화시설 > 전시관",127.06375881854105,37.57179142060842,서울 동대문구 답십리로 210-9,http://place.map.kakao.com/25738534
노원어린이극장,문화시설,"문화,예술 > 문화시설 > 공연장,연극극장",127.063720574449,37.6543751628167,서울 노원구 노해로 502,http://place.map.kakao.com/289394948
마리아칼라스홀,문화시설,"문화,예술 > 문화시설 > 공연장,연극극장",127.066064603127,37.5024671903626,서울 강남구 영동대로 315,http://place.map.kakao.com/11953136
에스투에이,문화시설,"문화,예술 > 문화시설 > 미술관",127.065495330842,37.5032892244032,서울 강남구 영동대로 325,http://place.map.kakao.com/394772479
KT&G 상상마당 대치아트홀,문화시설,"문화,예술 > 문화시설 > 공연장,연극극장",127.065150015652,37.5067600874053,서울 강남구 영동대로 416,http://place.map.kakao.com/8476401
백암아트홀,문화시설,"문화,예술 > 문화시설 > 공연장,연극극장",127.065994694946,37.5104140934045,서울 강남구 테헤란로113길 7,http://place.map.kakao.com/17165962
베어홀,문화시설,"문화,예술 > 문화시설 > 공연장,연극극장",127.06575889895,37.514958889241,서울 강남구 봉은사로 644,http://place.map.kakao.com/14723317
본다빈치,문화시설,"문화,예술 > 문화시설 > 전시관",127.065742242659,37.5166023290025,서울 강남구 봉은사로111길 18-7,http://place.map.kakao.com/26477323
코쿤디아트,문화시설,"문화,예술 > 문화시설 > 전시관",127.064537497872,37.51783015997,서울 강남구 봉은사로111길 40,http://place.map.kakao.com/1419554506
그라운드시소 성수,문화시설,"문화,예술 > 문화시설 > 전시관",127.06527987338404,37.54676810321139,서울 성동구 아차산로17길 49,http://place.map.kakao.com/290027091
CGV 하계,문화시설,"문화,예술 > 영화,영상 > 영화관 > CGV",127.06458080994,37.6387993923945,서울 노원구 섬밭로 258,http://place.map.kakao.com/20912534
서울시민천문대,관광명소,"여행 > 관광,명소 > 천문대",127.064999447952,37.6407452892164,서울 노원구 동일로205길 13,http://place.map.kakao.com/17781644
노원천문우주과학관,문화시설,"문화,예술 > 문화시설 > 과학관",127.065443679321,37.6408423499572,서울 노원구 동일로205길 13,http://place.map.kakao.com/629541480
CGV 건대입구,문화시설,"문화,예술 > 영화,영상 > 영화관 > CGV",127.06701734324294,37.53969788896453,서울 광진구 아차산로30길 26,http://place.map.kakao.com/1057410264
CGV 중계,문화시설,"문화,예술 > 영화,영상 > 영화관 > CGV",127.068773695534,37.6396655720199,서울 노원구 동일로204가길 12,http://place.map.kakao.com/19537620
서울시립 북서울미술관,문화시설,"문화,예술 > 문화시설 > 미술관",127.06685980156716,37.64066135905104,서울 노원구 동일로 1238,http://place.map.kakao.com/21748070
성민아트홀,문화시설,"문화,예술 > 문화시설 > 공연장,연극극장",127.067881892539,37.6557144041991,서울 노원구 노원로 440,http://place.map.kakao.com/26327056
나루아트센터,문화시설,"문화,예술 > 문화시설 > 공연장,연극극장",127.070431534099,37.5377911879621,서울 광진구 능동로 76,http://place.map.kakao.com/17064649
나루아트센터 대공연장,문화시설,"문화,예술 > 문화시설 > 공연장,연극극장",127.070580693965,37.5375856708648,서울 광진구 능동로 76,http://place.map.kakao.com/11475641
나루아트센터 소공연장,문화시설,"문화,예술 > 문화시설 > 공연장,연극극장",127.070635150355,37.5377406103373,서울 광진구 능동로 76,http://place.map.kakao.com/11475640
지오피,문화시설,"문화,예술 > 문화시설 > 전시관",127.0708382790561,37.55511264741342,서울 성동구 동일로 263-17,http://place.map.kakao.com/35342433
노원문화원,문화시설,"문화,예술 > 문화시설 > 문화원",127.069814964677,37.6288026802774,서울 노원구 동일로197길 24,http://place.map.kakao.com/9751124
SETEC,문화시설,"문화,예술 > 문화시설 > 전시관",127.072196986216,37.4959006734666,서울 강남구 남부순환로 3104,http://place.map.kakao.com/8360965
세텍,문화시설,"문화,예술 > 문화시설 > 전시관",127.07192988655852,37.49566837669793,서울 강남구 남부순환로 3104,http://place.map.kakao.com/1522398222
SETEC 제1전시실,문화시설,"문화,예술 > 문화시설 > 전시관",127.072034495821,37.4962647792989,서울 강남구 남부순환로 3104,http://place.map.kakao.com/17581441
롯데시네마 건대입구,문화시설,"문화,예술 > 영화,영상 > 영화관 > 롯데시네마",127.07292268612836,37.53860688301305,서울 광진구 아차산로 272,http://place.map.kakao.com/21304567
브이스퀘어,문화시설,"문화,예술 > 문화시설 > 전시관",127.072929435508,37.5385663338369,서울 광진구 아차산로 272,http://place.map.kakao.com/866035092
KU시네마테크,문화시설,"문화,예술 > 영화,영상 > 영화관",127.07321974685,37.5427053469115,서울 광진구 능동로 120,http://place.map.kakao.com/12817416
설렘아트홀,문화시설,"문화,예술 > 문화시설 > 공연장,연극극장",127.07238208063842,37.54704957988013,서울 광진구 능동로19길 23,http://place.map.kakao.com/953378283
동대문구민회관 대강당,문화시설,"문화,예술 > 문화시설 > 공연장,연극극장",127.073379702578,37.5673601436745,서울 동대문구 장한로18길 82-9,http://place.map.kakao.com/26198089
노원수학문화관,문화시설,"문화,예술 > 문화시설 > 박물관",127.07235237785358,37.65784437126525,서울 노원구 한글비석로19길 28,http://place.map.kakao.com/63787935
송파문화원,문화시설,"문화,예술 > 문화시설 > 문화원",127.07609076372572,37.50958450322949,서울 송파구 올림픽로 44,http://place.map.kakao.com/10543869
건국대학교 박물관,문화시설,"문화,예술 > 문화시설 > 박물관",127.075595675151,37.5424011140047,서울 광진구 능동로 120,http://place.map.kakao.com/8174014
본다빈치뮤지엄 능동점,문화시설,"문화,예술 > 문화시설 > 전시관",127.076176219401,37.54802657871,서울 광진구 광나루로 441,http://place.map.kakao.com/1225864909
세종뮤지엄갤러리,문화시설,"문화,예술 > 문화시설 > 전시관",127.075479813493,37.5509381516066,서울 광진구 능동로 209,http://place.map.kakao.com/360079374
세종대학교 박물관,문화시설,"문화,예술 > 문화시설 > 박물관",127.0752642128225,37.55148249207771,서울 광진구 능동로 209,http://place.map.kakao.com/7956139
우인아트홀,문화시설,"문화,예술 > 문화시설 > 공연장,연극극장",127.076010210871,37.562846291601,서울 광진구 동일로 360,http://place.map.kakao.com/11796983
메가박스 상봉,문화시설,"문화,예술 > 영화,영상 > 영화관 > 메가박스",127.07477725968386,37.593039388039465,서울 중랑구 망우로30길 3,http://place.map.kakao.com/24345793
롯데시네마 중랑,문화시설,"문화,예술 > 영화,영상 > 영화관 > 롯데시네마",127.075977300625,37.6151128766676,서울 중랑구 동일로 951,http://place.map.kakao.com/1682657564
피우다아트스페이스,문화시설,"문화,예술 > 문화시설 > 전시관",127.074930371515,37.6158703762058,서울 중랑구 중랑천로 358-6,http://place.map.kakao.com/1890334127
그림도자기애리,관광명소,"여행 > 관광,명소 > 도자기,도예촌",127.075835373904,37.6181168622233,서울 노원구 동일로 986,http://place.map.kakao.com/128303718
준도예아트,관광명소,"여행 > 관광,명소 > 도자기,도예촌",127.074550615697,37.6200890419782,서울 노원구 동일로 1007,http://place.map.kakao.com/24374043
건국대학교 새천년관대공연장,문화시설,"문화,예술 > 문화시설 > 공연장,연극극장",127.07740921638926,37.54319462054277,서울 광진구 능동로 120,http://place.map.kakao.com/8170723
위니아트,문화시설,"문화,예술 > 문화시설 > 공연장,연극극장",127.077470702194,37.5435639899244,서울 광진구 능동로 120,http://place.map.kakao.com/27153862
어린이회관 무지개극장,문화시설,"문화,예술 > 문화시설 > 공연장,연극극장",127.076578025495,37.5469991803517,서울 광진구 광나루로 441,http://place.map.kakao.com/25977618
와이파크전시관,문화시설,"문화,예술 > 문화시설 > 전시관",127.07820289329,37.5468863915741,서울 광진구 광나루로 441,http://place.map.kakao.com/11720803
서울상상나라,문화시설,"문화,예술 > 문화시설 > 박물관",127.077592558039,37.5508665042994,서울 광진구 능동로 216,http://place.map.kakao.com/1612238355
서울상상나라 극장,문화시설,"문화,예술 > 문화시설 > 공연장,연극극장",127.077550584743,37.5507683230768,서울 광진구 능동로 216,http://place.map.kakao.com/802537545
버금아트센터,문화시설,"문화,예술 > 문화시설 > 공연장,연극극장",127.077086990375,37.5533418767971,서울 광진구 능동로 259,http://place.map.kakao.com/151764464
메가박스 군자,문화시설,"문화,예술 > 영화,영상 > 영화관 > 메가박스",127.07833429050628,37.55566202563303,서울 광진구 능동로 289,http://place.map.kakao.com/1862063337
서울생활사박물관,문화시설,"문화,예술 > 문화시설 > 박물관",127.07701499863,37.6197018366411,서울 노원구 동일로174길 27,http://place.map.kakao.com/1515024845
서울시립과학관,문화시설,"문화,예술 > 문화시설 > 과학관",127.0775057868646,37.64183333311373,서울 노원구 한글비석로 160,http://place.map.kakao.com/30041527
하늘아트홀,문화시설,"문화,예술 > 문화시설 > 공연장,연극극장",127.080483397126,37.5040115799449,서울 송파구 백제고분로12길 25,http://place.map.kakao.com/2068300368
블라인드아트홀소극장,문화시설,"문화,예술 > 문화시설 > 공연장,연극극장",127.0798927269984,37.53766983815087,서울 광진구 아차산로 331-1,http://place.map.kakao.com/2097635913
서울레저파크 어린이회관 눈썰매장,관광명소,"스포츠,레저 > 스포츠시설 > 눈썰매장",127.08121387849964,37.54564728770453,서울 광진구 광나루로 441,http://place.map.kakao.com/2029691921
서울어린이대공원 식물원,관광명소,"여행 > 관광,명소 > 수목원,식물원",127.081060959963,37.5486396093988,서울 광진구 광나루로 441,http://place.map.kakao.com/7993544
서울어린이대공원,관광명소,"여행 > 관광,명소 > 테마파크",127.080235171998,37.5499772549675,서울 광진구 능동로 216,http://place.map.kakao.com/1512054004
갤러리사진적,문화시설,"문화,예술 > 문화시설 > 전시관",127.080397035517,37.5542262510918,서울 광진구 천호대로112길 48-4,http://place.map.kakao.com/114787780
더페이퍼랩,문화시설,"문화,예술 > 문화시설 > 전시관",127.079223719432,37.5576904779674,서울 광진구 천호대로 549,http://place.map.kakao.com/794905261
디세,관광명소,"여행 > 관광,명소 > 도자기,도예촌",127.080337824419,37.6255199981304,서울 노원구 공릉로34길 121,http://place.map.kakao.com/978626192
스타비스코리아,문화시설,"문화,예술 > 문화시설 > 전시관",127.08052201426293,37.634547752321595,서울 노원구 공릉로 232,http://place.map.kakao.com/26340986
노원문화예술회관,문화시설,"문화,예술 > 문화시설 > 공연장,연극극장",127.080305462078,37.650185380219,서울 노원구 중계로 181,http://place.map.kakao.com/8858338
노원문화예술회관 대공연장,문화시설,"문화,예술 > 문화시설 > 공연장,연극극장",127.080282814225,37.6501998113605,서울 노원구 중계로 181,http://place.map.kakao.com/8224283
노원문화예술회관 소공연장,문화시설,"문화,예술 > 문화시설 > 공연장,연극극장",127.080291914495,37.650232240552,서울 노원구 중계로 181,http://place.map.kakao.com/10277896
불암산 산림치유센터,관광명소,"여행 > 관광,명소 > 자연휴양림",127.081080208244,37.6540401549137,서울 노원구 한글비석로12길 51-80,http://place.map.kakao.com/1458715953
야생화농장,관광명소,"여행 > 관광,명소 > 수목원,식물원",127.081653717971,37.4612128709183,서울 서초구 헌인릉길 7,http://place.map.kakao.com/12018244
세라믹팔레스홀,문화시설,"문화,예술 > 문화시설 > 공연장,연극극장",127.08197418875136,37.485563344029785,서울 강남구 일원로 90,http://place.map.kakao.com/7947233
밀알미술관,문화시설,"문화,예술 > 문화시설 > 미술관",127.082697971255,37.4856979908472,서울 강남구 일원로 90,http://place.map.kakao.com/9011937
서울특별시교육청융합과학교육원 동부분원,문화시설,"문화,예술 > 문화시설 > 전시관",127.083379246274,37.5736496587243,서울 중랑구 면목로23길 20,http://place.map.kakao.com/10295145
조도연미술관,문화시설,"문화,예술 > 문화시설 > 미술관",127.083023431646,37.648714896406,서울 노원구 중계로14나길 25,http://place.map.kakao.com/968115299
우리유황온천,관광명소,"여행 > 관광,명소 > 온천",127.0839016807752,37.53075638299484,서울 광진구 자양로5길 33,http://place.map.kakao.com/11789318
서울어린이대공원 놀이동산,관광명소,"여행 > 관광,명소 > 테마파크",127.08378909469192,37.55147044344215,서울 광진구 능동로 216,http://place.map.kakao.com/7996800
중랑구민회관 대극장,문화시설,"문화,예술 > 문화시설 > 공연장,연극극장",127.084914322445,37.5737134361492,서울 중랑구 면목로 238,http://place.map.kakao.com/8089004
중랑문화원,문화시설,"문화,예술 > 문화시설 > 문화원",127.08518662442,37.5742574406795,서울 중랑구 면목로 238,http://place.map.kakao.com/8071311
삼일도자기,관광명소,"여행 > 관광,명소 > 도자기,도예촌",127.087061040204,37.4650365078029,서울 서초구 헌인릉1길 66,http://place.map.kakao.com/20950142
한생연 인간과로봇과학관,문화시설,"문화,예술 > 문화시설 > 과학관",127.086993400935,37.5119970742239,서울 송파구 올림픽로 145,http://place.map.kakao.com/14874418
유니버설아트센터,문화시설,"문화,예술 > 문화시설 > 공연장,연극극장",127.08797562505988,37.55090877962336,서울 광진구 천호대로 664,http://place.map.kakao.com/10684497
유니버설발레단,문화시설,"문화,예술 > 문화시설 > 공연장,연극극장",127.087975637768,37.5509195915907,서울 광진구 천호대로 664,http://place.map.kakao.com/12435639
서울여자대학교 바롬기념관,문화시설,"문화,예술 > 문화시설 > 기념관",127.089215254612,37.6300221554497,서울 노원구 화랑로 621,http://place.map.kakao.com/17561108
송파구립 예송미술관,문화시설,"문화,예술 > 문화시설 > 미술관",127.09325635563846,37.50214251186532,서울 송파구 백제고분로 242,http://place.map.kakao.com/9849042
동서울아트홀,문화시설,"문화,예술 > 문화시설 > 공연장,연극극장",127.091888743924,37.534168835895,서울 광진구 구의강변로 38,http://place.map.kakao.com/17201755
CGV 상봉,문화시설,"문화,예술 > 영화,영상 > 영화관 > CGV",127.09216357979344,37.59748249443501,서울 중랑구 상봉로 131,http://place.map.kakao.com/27486710
중랑아트센터 실감미디어 전시실,문화시설,"문화,예술 > 문화시설 > 전시관",127.091469140464,37.5981650847421,서울 중랑구 망우로 353,http://place.map.kakao.com/1781252570
중랑아트센터,문화시설,"문화,예술 > 문화시설 > 미술관",127.09151902362149,37.5982127985855,서울 중랑구 망우로 353,http://place.map.kakao.com/23954297
경춘선숲길갤러리,문화시설,"문화,예술 > 문화시설 > 미술관",127.09361931026154,37.6250948531682,서울 노원구 화랑로 620,http://place.map.kakao.com/1574873219
롯데월드 어드벤처,관광명소,"여행 > 관광,명소 > 테마파크",127.09811980036908,37.51113059993883,서울 송파구 올림픽로 240,http://place.map.kakao.com/27560699
롯데월드 민속박물관,문화시설,"문화,예술 > 문화시설 > 박물관",127.09763327920184,37.51100486250505,서울 송파구 올림픽로 240,http://place.map.kakao.com/10360616
롯데월드 가든스테이지,문화시설,"문화,예술 > 문화시설 > 공연장,연극극장",127.098072248591,37.5110945992661,서울 송파구 올림픽로 240,http://place.map.kakao.com/12735666
광진문화원,문화시설,"문화,예술 > 문화시설 > 문화원",127.09649436766,37.5365293875214,서울 광진구 광나루로56길 67,http://place.map.kakao.com/8195864
석촌호수 아뜰리에,문화시설,"문화,예술 > 문화시설 > 공연장,연극극장",127.09837424534314,37.50678754705216,서울 송파구 석촌호수로 191,http://place.map.kakao.com/1769344424
매직아일랜드,관광명소,"여행 > 관광,명소 > 테마파크",127.100077838695,37.5087142658269,서울 송파구 삼학사로 136,http://place.map.kakao.com/17384522
롯데월드 샤롯데씨어터,문화시설,"문화,예술 > 문화시설 > 공연장,연극극장",127.09971395114384,37.51064272274346,서울 송파구 올림픽로 240,http://place.map.kakao.com/14091493
한국광고박물관,문화시설,"문화,예술 > 문화시설 > 박물관",127.09964400591,37.5158830195319,서울 송파구 올림픽로35길 137,http://place.map.kakao.com/8636391
휴도예유리공방,관광명소,"여행 > 관광,명소 > 도자기,도예촌",127.102534680825,37.4989740949783,서울 송파구 송파대로37길 90,http://place.map.kakao.com/738589487
서울스카이,관광명소,"여행 > 관광,명소 > 전망대",127.10254645284908,37.5125423170714,서울 송파구 올림픽로 300,http://place.map.kakao.com/680691609
리트릿 스파 시그니엘 서울,관광명소,"여행 > 관광,명소 > 온천",127.102598314961,37.512419735513,서울 송파구 올림픽로 300,http://place.map.kakao.com/1191796037
롯데뮤지엄,문화시설,"문화,예술 > 문화시설 > 미술관",127.102562422407,37.5126405126229,서울 송파구 올림픽로 300,http://place.map.kakao.com/1398479164
cerazone,관광명소,"여행 > 관광,명소 > 도자기,도예촌",127.102469212483,37.5470381158421,서울 광진구 광장로 47,http://place.map.kakao.com/1649881738
한국체육박물관,문화시설,"문화,예술 > 문화시설 > 박물관",127.102930355349,37.6387145051758,서울 노원구 화랑로 727,http://place.map.kakao.com/17819527
탄허기념불교박물관,문화시설,"문화,예술 > 문화시설 > 박물관",127.10298451989004,37.47902359723798,서울 강남구 밤고개로14길 13-51,http://place.map.kakao.com/12764695
송파책박물관,문화시설,"문화,예술 > 문화시설 > 박물관",127.10438467827208,37.49888597821397,서울 송파구 송파대로37길 77,http://place.map.kakao.com/1120827020
29스트리트,관광명소,"여행 > 관광,명소 > 테마거리 > 카페거리",127.104070438896,37.513655525793,서울 송파구 올림픽로 300,http://place.map.kakao.com/26239289
롯데월드아쿠아리움,문화시설,"문화,예술 > 문화시설 > 아쿠아리움",127.1047985815314,37.51345035417074,서울 송파구 올림픽로 300,http://place.map.kakao.com/25974806
롯데시네마 월드타워,문화시설,"문화,예술 > 영화,영상 > 영화관 > 롯데시네마",127.10506857715367,37.51401684559573,서울 송파구 올림픽로 300,http://place.map.kakao.com/25975699
롯데콘서트홀,문화시설,"문화,예술 > 문화시설 > 공연장,연극극장",127.10500067293846,37.513989875871125,서울 송파구 올림픽로 300,http://place.map.kakao.com/27405165
커넥트투,문화시설,"문화,예술 > 문화시설 > 전시관",127.104844983731,37.5142783353113,서울 송파구 올림픽로 300,http://place.map.kakao.com/26239301
뮤지엄209,문화시설,"문화,예술 > 문화시설 > 전시관",127.10618804632004,37.51378608857594,서울 송파구 잠실로 209,http://place.map.kakao.com/891061224
시립서울천문대,관광명소,"여행 > 관광,명소 > 천문대",127.1060417832573,37.54630335071983,서울 광진구 구천면로 2,http://place.map.kakao.com/25977542
삼육대학교 박물관,문화시설,"문화,예술 > 문화시설 > 박물관",127.107653142858,37.6421772777175,서울 노원구 화랑로 815,http://place.map.kakao.com/11470516
예스24라이브홀,문화시설,"문화,예술 > 문화시설 > 공연장,연극극장",127.107971464114,37.5457348738776,서울 광진구 구천면로 20,http://place.map.kakao.com/10341924
빛의 시어터,문화시설,"문화,예술 > 문화시설 > 전시관",127.110948931759,37.5550745618675,서울 광진구 워커힐로 177,http://place.map.kakao.com/2075378321
광진교8번가,관광명소,"여행 > 관광,명소 > 전망대",127.11418651384618,37.54449916415587,서울 강동구 구천면로 77,http://place.map.kakao.com/11970493
국립스포츠박물관 (2026년 예정),문화시설,"문화,예술 > 문화시설 > 박물관",127.115174215937,37.52011802668889,서울 송파구 올림픽로 424,http://place.map.kakao.com/499024073
소마미술관,문화시설,"문화,예술 > 문화시설 > 미술관",127.11801299890048,37.51691035742306,서울 송파구 위례성대로 51,http://place.map.kakao.com/12443890
토성산성어울길,관광명소,"여행 > 관광,명소 > 도보여행 > 둘레길",127.118797074733,37.5227372561641,서울 송파구 올림픽로 424,http://place.map.kakao.com/1921537852
공간유보,문화시설,"문화,예술 > 문화시설 > 전시관",127.11744645238,37.5379384937,서울 송파구 바람드리길 14,http://place.map.kakao.com/1599566928
래미안갤러리,문화시설,"문화,예술 > 문화시설 > 전시관",127.120140325023,37.4792686912907,서울 송파구 충민로 17,http://place.map.kakao.com/27061364
한성백제박물관,문화시설,"문화,예술 > 문화시설 > 박물관",127.120895017165,37.5154126785182,서울 송파구 위례성대로 71,http://place.map.kakao.com/20560529
메가박스 송파파크하비오,문화시설,"문화,예술 > 영화,영상 > 영화관 > 메가박스",127.123830694097,37.4820976521034,서울 송파구 송파대로 111,http://place.map.kakao.com/427770120
문정동로데오거리,관광명소,"여행 > 관광,명소 > 테마거리",127.123364097715,37.4898756388539,서울 송파구 동남로4길 10,http://place.map.kakao.com/17112650
올림픽공원 백제집자리전시관,문화시설,"문화,예술 > 문화시설 > 전시관",127.12448671795023,37.52040140439555,서울 송파구 올림픽로 424,http://place.map.kakao.com/11298403
서울백제어린이박물관,문화시설,"문화,예술 > 문화시설 > 박물관",127.1242797728802,37.52385065871324,서울 송파구 올림픽로 424,http://place.map.kakao.com/7884423
CGV 송파,문화시설,"문화,예술 > 영화,영상 > 영화관 > CGV",127.12584156557077,37.477073305107325,서울 송파구 충민로 66,http://place.map.kakao.com/8000192
워터킹덤,관광명소,"여행 > 관광,명소 > 테마파크 > 워터테마파크",127.12478406415195,37.480209937378454,서울 송파구 송파대로 111,http://place.map.kakao.com/2141690292
올림픽공원 코카뮤직스튜디오,문화시설,"문화,예술 > 문화시설 > 공연장,연극극장",127.126710245314,37.5134640201013,서울 송파구 올림픽로 424,http://place.map.kakao.com/27139003
열정갤러리,문화시설,"문화,예술 > 문화시설 > 전시관",127.12482451784888,37.51267314480983,서울 송파구 위례성대로16길 4-8,http://place.map.kakao.com/737541331
올림픽공원 우리금융아트홀,문화시설,"문화,예술 > 문화시설 > 공연장,연극극장",127.125014546617,37.516745478832,서울 송파구 올림픽로 424,http://place.map.kakao.com/11334700
메가박스 강동,문화시설,"문화,예술 > 영화,영상 > 영화관 > 메가박스",127.1252490732628,37.528476277802625,서울 강동구 성내로 48,http://place.map.kakao.com/148763108
송월요,관광명소,"여행 > 관광,명소 > 도자기,도예촌",127.124692342461,37.5406367667682,서울 강동구 올림픽로 664,http://place.map.kakao.com/10554463
송파어린이문화회관 아이소리홀,문화시설,"문화,예술 > 문화시설 > 공연장,연극극장",127.128384032746,37.5027582816748,서울 송파구 중대로 235,http://place.map.kakao.com/1392203769
호원아트홀,문화시설,"문화,예술 > 문화시설 > 공연장,연극극장",127.130302589515,37.5264597753868,서울 강동구 성안로 30,http://place.map.kakao.com/14097689
스페이스 파운틴,문화시설,"문화,예술 > 문화시설 > 미술관",127.132932093383,37.5228456301024,서울 강동구 강동대로55길 10,http://place.map.kakao.com/777719643
암사어린이극장,문화시설,"문화,예술 > 문화시설 > 공연장,연극극장",127.133373187768,37.5634477469005,서울 강동구 올림픽로 930,http://place.map.kakao.com/7986821
소극장소리,문화시설,"문화,예술 > 문화시설 > 공연장,연극극장",127.137509470629,37.4996242263625,서울 송파구 동남로24길 11,http://place.map.kakao.com/51502860
강동문화원,문화시설,"문화,예술 > 문화시설 > 문화원",127.141222037822,37.5457610569772,서울 강동구 상암로 168,http://place.map.kakao.com/10520118
다온이즈,관광명소,"여행 > 관광,명소 > 도자기,도예촌",127.142242423749,37.5348793654406,서울 강동구 진황도로49길 41,http://place.map.kakao.com/1516922589
CGV 천호,문화시설,"문화,예술 > 영화,영상 > 영화관 > CGV",127.142304133234,37.5459183335957,서울 강동구 양재대로 1571,http://place.map.kakao.com/26870251
친환경아트홀토화,관광명소,"여행 > 관광,명소 > 도자기,도예촌",127.147553648854,37.5430863591613,서울 강동구 명일로 273,http://place.map.kakao.com/26021404
라이트룸서울,문화시설,"문화,예술 > 문화시설 > 전시관",127.147729977124,37.5653479739561,서울 강동구 아리수로61길 103,http://place.map.kakao.com/92891414
강동아트센터,문화시설,"문화,예술 > 문화시설 > 공연장,연극극장",127.15756247589408,37.55129593645218,서울 강동구 동남로 870,http://place.map.kakao.com/13115285
강동아트센터 대극장한강,문화시설,"문화,예술 > 문화시설 > 공연장,연극극장",127.157225258193,37.5513053959305,서울 강동구 동남로 870,http://place.map.kakao.com/20244806
강동아트센터 소극장드림,문화시설,"문화,예술 > 문화시설 > 공연장,연극극장",127.157229815143,37.5513198058209,서울 강동구 동남로 870,http://place.map.kakao.com/20244808
