place_name,category_group_name,category_name,x,y,road_address_name,place_url
리버사이드,숙박,여행 > 숙박 > 게스트하우스,126.801272949042,37.5790295188898,서울 강서구 개화동로11길 19-8,http://place.map.kakao.com/746541887
롯데시티호텔 김포공항,숙박,여행 > 숙박 > 호텔 > 특급호텔,126.802626476664,37.5637581425,서울 강서구 하늘길 38,http://place.map.kakao.com/15201971
한성여관,숙박,"여행 > 숙박 > 여관,모텔",126.807877735181,37.5622134888912,서울 강서구 방화동로1길 5,http://place.map.kakao.com/20740646
로얄스퀘어호텔,숙박,여행 > 숙박 > 호텔,126.81028560010049,37.56069560125753,서울 강서구 공항대로 30,http://place.map.kakao.com/1715589119
서울모텔,숙박,"여행 > 숙박 > 여관,모텔",126.809325972668,37.5606372926656,서울 강서구 송정로 65-7,http://place.map.kakao.com/9113769
평화장모텔,숙박,"여행 > 숙박 > 여관,모텔",126.808901323375,37.5620529709418,서울 강서구 방화동로 10-1,http://place.map.kakao.com/9509743
코텔 김포공항점,숙박,"여행 > 숙박 > 여관,모텔",126.809979194521,37.5636909179796,서울 강서구 개화동로29길 57,http://place.map.kakao.com/1782732853
모텔프라자,숙박,"여행 > 숙박 > 여관,모텔",126.809979176213,37.5636981259109,서울 강서구 개화동로29길 57,http://place.map.kakao.com/16045203
대우장모텔,숙박,"여행 > 숙박 > 여관,모텔",126.809896964959,37.5728881363902,서울 강서구 양천로 54,http://place.map.kakao.com/20743070
국제청소년센터 유스호스텔,숙박,여행 > 숙박 > 유스호스텔,126.809554366724,37.5793999629798,서울 강서구 금낭화로 234,http://place.map.kakao.com/8199856
메이필드호텔 스위트,숙박,여행 > 숙박 > 호텔,126.817290183978,37.547333155118,서울 강서구 방화대로 94,http://place.map.kakao.com/19175084
메이필드호텔 서울,숙박,여행 > 숙박 > 호텔,126.81909670492055,37.54713771707638,서울 강서구 방화대로 94,http://place.map.kakao.com/7870546
퍼시픽호텔,숙박,여행 > 숙박 > 호텔,126.81959552531129,37.54863683930559,서울 강서구 남부순환로 188,http://place.map.kakao.com/1190426619
호텔디아망,숙박,여행 > 숙박 > 호텔,126.819437799813,37.5483455760161,서울 강서구 남부순환로 190,http://place.map.kakao.com/11806633
코트야드 바이메리어트 서울보타닉파크,숙박,여행 > 숙박 > 호텔 > 특급호텔 > 메리어트호텔,126.82939330221224,37.56694613090683,서울 강서구 마곡중앙12로 10,http://place.map.kakao.com/2108390728
천왕산가족캠핑장,숙박,"여행 > 숙박 > 야영,캠핑장",126.83139447182263,37.47899323006236,서울 구로구 연동로12길 149,http://place.map.kakao.com/1390694962
캠프관광호텔,숙박,여행 > 숙박 > 호텔,126.834581279779,37.5370440110294,서울 양천구 가로공원로 167,http://place.map.kakao.com/22045532
이브모텔,숙박,"여행 > 숙박 > 여관,모텔",126.833334390033,37.5380730011561,서울 양천구 가로공원로69길 24,http://place.map.kakao.com/16592818
엠펠리체호텔,숙박,여행 > 숙박 > 호텔,126.83527798962392,37.55979157417161,서울 강서구 마곡동로4길 15,http://place.map.kakao.com/992759065
리츠모텔,숙박,"여행 > 숙박 > 여관,모텔",126.837070255591,37.5558639150345,서울 강서구 강서로 337,http://place.map.kakao.com/1790738728
인터시티서울호텔,숙박,여행 > 숙박 > 호텔,126.83579413712916,37.559718321373424,서울 강서구 마곡중앙6로 76-3,http://place.map.kakao.com/27305736
더퍼스트스테이 호텔,숙박,여행 > 숙박 > 호텔,126.83618360287,37.559711744523,서울 강서구 마곡동로4길 23,http://place.map.kakao.com/1521154865
골든호텔,숙박,"여행 > 숙박 > 여관,모텔",126.83729287935006,37.56017909335012,서울 강서구 마곡중앙6로 89,http://place.map.kakao.com/1960436156
모텔노블레스,숙박,"여행 > 숙박 > 여관,모텔",126.83887832109,37.5297842872647,서울 강서구 월정로20길 5,http://place.map.kakao.com/23896504
SR 호텔 마곡,숙박,여행 > 숙박 > 호텔,126.839462780795,37.5611254064705,서울 강서구 강서로 400,http://place.map.kakao.com/26624442
본모텔,숙박,"여행 > 숙박 > 여관,모텔",126.841370090814,37.4942520869017,서울 구로구 경인로20나길 50,http://place.map.kakao.com/16045072
리베라모텔,숙박,"여행 > 숙박 > 여관,모텔",126.84124592156331,37.49414830440682,서울 구로구 경인로20나길 54,http://place.map.kakao.com/8965289
CL호텔,숙박,"여행 > 숙박 > 여관,모텔",126.84060089720867,37.52840629160393,서울 강서구 강서로5나길 136,http://place.map.kakao.com/16046050
해담채스테이,숙박,여행 > 숙박 > 호텔,126.840602002087,37.5300136784341,서울 강서구 곰달래로 70-1,http://place.map.kakao.com/26813750
리치모텔,숙박,"여행 > 숙박 > 여관,모텔",126.84127242456528,37.52970013216288,서울 강서구 곰달래로18길 10,http://place.map.kakao.com/16536563
앨리스넥스트도어,숙박,"여행 > 숙박 > 여관,모텔",126.840739845791,37.5290344766344,서울 강서구 강서로7길 124,http://place.map.kakao.com/458182606
스테이25모텔,숙박,"여행 > 숙박 > 여관,모텔",126.844904284191,37.5197443861577,서울 양천구 신월로20길 3,http://place.map.kakao.com/1355303739
스위스모텔,숙박,"여행 > 숙박 > 여관,모텔",126.84489973081686,37.52249063438302,서울 양천구 오목로 66,http://place.map.kakao.com/21582408
호텔에스,숙박,"여행 > 숙박 > 여관,모텔",126.84465862019852,37.530204690071294,서울 강서구 곰달래로 108,http://place.map.kakao.com/752766228
호텔 베르누이 서울,숙박,여행 > 숙박 > 호텔,126.845971598052,37.4974351227601,서울 구로구 경인로 229,http://place.map.kakao.com/1293765275
쎄비앙호텔,숙박,"여행 > 숙박 > 여관,모텔",126.845785061523,37.4963086222128,서울 구로구 경인로22길 37,http://place.map.kakao.com/8480843
비모텔,숙박,"여행 > 숙박 > 여관,모텔",126.846101806666,37.4962549749153,서울 구로구 경인로22길 43,http://place.map.kakao.com/16619678
호텔볼,숙박,"여행 > 숙박 > 여관,모텔",126.846623303617,37.5287782707311,서울 강서구 강서로5나길 30,http://place.map.kakao.com/1482428518
호텔초콜렛,숙박,"여행 > 숙박 > 여관,모텔",126.846748987291,37.5292793903592,서울 강서구 강서로5가길 24,http://place.map.kakao.com/25038706
호텔드어반,숙박,여행 > 숙박 > 호텔,126.847315139173,37.5290422594383,서울 강서구 곰달래로24길 35,http://place.map.kakao.com/18824393
거기모텔,숙박,"여행 > 숙박 > 여관,모텔",126.846278463273,37.5292247188069,서울 강서구 강서로5가길 30,http://place.map.kakao.com/16737718
호텔N,숙박,여행 > 숙박 > 호텔,126.847098041424,37.5289843145128,서울 강서구 곰달래로24길 36,http://place.map.kakao.com/1454862903
메인스트리트,숙박,"여행 > 숙박 > 여관,모텔",126.846952627421,37.5292796544333,서울 강서구 곰달래로24길 30,http://place.map.kakao.com/707638538
설레임모텔,숙박,"여행 > 숙박 > 여관,모텔",126.846582595352,37.5464414127117,서울 강서구 화곡로42길 17,http://place.map.kakao.com/26609732
모텔플라워,숙박,"여행 > 숙박 > 여관,모텔",126.84604044725612,37.54649656897091,서울 강서구 화곡로42길 10,http://place.map.kakao.com/23906697
구름성모텔,숙박,"여행 > 숙박 > 여관,모텔",126.845664023922,37.5463032639659,서울 강서구 화곡로42가길 10,http://place.map.kakao.com/16558692
커플모텔,숙박,"여행 > 숙박 > 여관,모텔",126.846324851012,37.5463149378108,서울 강서구 화곡로42길 16,http://place.map.kakao.com/16790292
쟈스민모텔,숙박,"여행 > 숙박 > 여관,모텔",126.847284528801,37.5462729349463,서울 강서구 초록마을로3길 49,http://place.map.kakao.com/8497831
호텔야자 강서구청점,숙박,"여행 > 숙박 > 여관,모텔",126.846395475869,37.5471907998889,서울 강서구 화곡로 248-8,http://place.map.kakao.com/27360973
랑호텔,숙박,"여행 > 숙박 > 여관,모텔",126.84608941491312,37.54689667598035,서울 강서구 화곡로42길 3-6,http://place.map.kakao.com/522913343
소설스미스,숙박,"여행 > 숙박 > 여관,모텔",126.8468480735048,37.54721301173145,서울 강서구 까치산로15길 25,http://place.map.kakao.com/1577370973
팰리스모텔,숙박,"여행 > 숙박 > 여관,모텔",126.84686032564636,37.54786174619563,서울 강서구 화곡로42나길 31,http://place.map.kakao.com/25674193
다우스모텔,숙박,"여행 > 숙박 > 여관,모텔",126.84691973864716,37.547030202048894,서울 강서구 까치산로15길 23,http://place.map.kakao.com/1044756029
랑뷰티크호텔,숙박,"여행 > 숙박 > 여관,모텔",126.846081556699,37.5468660318017,서울 강서구 화곡로42길 3-6,http://place.map.kakao.com/520785072
W모텔,숙박,"여행 > 숙박 > 여관,모텔",126.84666627848,37.547573175018,서울 강서구 화곡로 248-18,http://place.map.kakao.com/20749698
발렌타인모텔,숙박,"여행 > 숙박 > 여관,모텔",126.847329879305,37.5484498048807,서울 강서구 화곡로44가길 9,http://place.map.kakao.com/8314765
러쉬호텔,숙박,"여행 > 숙박 > 여관,모텔",126.84742081906428,37.52881354179674,서울 강서구 강서로5나길 10-3,http://place.map.kakao.com/26237982
A호텔,숙박,"여행 > 숙박 > 여관,모텔",126.847919273992,37.5457547791553,서울 강서구 까치산로14길 5,http://place.map.kakao.com/688593929
르아브르,숙박,"여행 > 숙박 > 여관,모텔",126.847588169365,37.5460895236139,서울 강서구 까치산로 83,http://place.map.kakao.com/17834814
브라운도트 강서구청점,숙박,"여행 > 숙박 > 여관,모텔",126.848298511756,37.5495863105297,서울 강서구 화곡로44가길 39,http://place.map.kakao.com/1116778559
샤르망모텔,숙박,"여행 > 숙박 > 여관,모텔",126.848368315755,37.5497629957406,서울 강서구 화곡로50길 5,http://place.map.kakao.com/16045294
드림호텔,숙박,"여행 > 숙박 > 여관,모텔",126.851362664512,37.5531761774111,서울 강서구 공항대로46길 66,http://place.map.kakao.com/17589028
EG호텔,숙박,여행 > 숙박 > 호텔,126.850506886828,37.5532832166842,서울 강서구 화곡로 327,http://place.map.kakao.com/18294727
러브레터모텔,숙박,"여행 > 숙박 > 여관,모텔",126.85152500662024,37.553489928682225,서울 강서구 공항대로46길 60,http://place.map.kakao.com/16535526
머스트스테이모텔,숙박,"여행 > 숙박 > 여관,모텔",126.85341154798029,37.5182343588271,서울 양천구 중앙로 245,http://place.map.kakao.com/2108259728
아도호텔,숙박,"여행 > 숙박 > 여관,모텔",126.854500120607,37.525025656355,서울 양천구 오목로 153,http://place.map.kakao.com/832656161
모텔샬,숙박,"여행 > 숙박 > 여관,모텔",126.8565901159544,37.49459590530212,서울 구로구 남부순환로95길 38-12,http://place.map.kakao.com/13129414
토마토모텔,숙박,"여행 > 숙박 > 여관,모텔",126.85724719497964,37.521363172539345,서울 양천구 신월로 326,http://place.map.kakao.com/24768739
메종모텔,숙박,"여행 > 숙박 > 여관,모텔",126.857821489249,37.525051325453,서울 양천구 오목로 184,http://place.map.kakao.com/609690604
오슬로모텔,숙박,"여행 > 숙박 > 여관,모텔",126.85975455825547,37.493158995118314,서울 구로구 개봉로20길 93,http://place.map.kakao.com/16883515
JK블라썸호텔,숙박,여행 > 숙박 > 호텔,126.867878866131,37.5569115255206,서울 강서구 양천로65길 41-22,http://place.map.kakao.com/472996223
난지캠핑장,숙박,"여행 > 숙박 > 야영,캠핑장",126.872166235201,37.5699951008368,서울 마포구 한강난지로 22,http://place.map.kakao.com/11017626
도운모텔,숙박,"여행 > 숙박 > 여관,모텔",126.875178782089,37.5229157486607,서울 양천구 신목로 94,http://place.map.kakao.com/1793175830
골드리버호텔,숙박,여행 > 숙박 > 호텔,126.87696915513222,37.47834668785502,서울 금천구 서부샛길 584,http://place.map.kakao.com/1408413896
골든서울호텔,숙박,여행 > 숙박 > 호텔,126.878151774356,37.5478945782355,서울 강서구 공항대로 663,http://place.map.kakao.com/21369384
나이아가라호텔,숙박,여행 > 숙박 > 호텔,126.87862382972229,37.54918529379859,서울 강서구 양천로 743,http://place.map.kakao.com/715823105
대림장여관,숙박,"여행 > 숙박 > 여관,모텔",126.876625517398,37.5484011564109,서울 강서구 공항대로81길 26,http://place.map.kakao.com/9735274
모텔봄 남구로점,숙박,"여행 > 숙박 > 여관,모텔",126.882428571307,37.4906780357642,서울 구로구 구로동로25길 26,http://place.map.kakao.com/734844627
수모텔,숙박,"여행 > 숙박 > 여관,모텔",126.882975777181,37.4907290354514,서울 구로구 구로동로25길 18,http://place.map.kakao.com/16417812
유림장,숙박,"여행 > 숙박 > 여관,모텔",126.882781349435,37.4906891983941,서울 구로구 구로동로25길 22,http://place.map.kakao.com/16622399
우림장,숙박,"여행 > 숙박 > 여관,모텔",126.882759720129,37.4900584719593,서울 구로구 구로동로21길 26-15,http://place.map.kakao.com/16735847
목화여인숙,숙박,"여행 > 숙박 > 여관,모텔",126.88333741109,37.4908627421505,서울 구로구 구로동로25길 10-11,http://place.map.kakao.com/16677827
스테이션 호텔,숙박,"여행 > 숙박 > 여관,모텔",126.882981855626,37.4998787609789,서울 구로구 구로중앙로 135-4,http://place.map.kakao.com/1505103460
코코모호텔,숙박,여행 > 숙박 > 호텔,126.883356292474,37.501988385153,서울 구로구 새말로 20,http://place.map.kakao.com/961324803
호텔브릿지,숙박,여행 > 숙박 > 호텔,126.882580331463,37.5237414488898,서울 영등포구 영등포로 9,http://place.map.kakao.com/507175592
광일장여인숙,숙박,"여행 > 숙박 > 여관,모텔",126.885536571894,37.4872644680143,서울 구로구 구로동로12길 9,http://place.map.kakao.com/16096021
흥부모텔,숙박,"여행 > 숙박 > 여관,모텔",126.885056397896,37.4907094538826,서울 구로구 구로동로28길 18,http://place.map.kakao.com/16415704
더링크호텔 서울,숙박,여행 > 숙박 > 호텔,126.88401823016,37.505420064238,서울 구로구 경인로 610,http://place.map.kakao.com/869232764
라마다서울신도림호텔,숙박,여행 > 숙박 > 호텔 > 특급호텔 > 라마다호텔,126.88539224869314,37.5062377156315,서울 구로구 경인로 624,http://place.map.kakao.com/1212235250
홈즈스테이 G벨리 가산,숙박,여행 > 숙박 > 호텔,126.887880680386,37.4712666007495,서울 금천구 벚꽃로 182,http://place.map.kakao.com/161183827
Si호텔,숙박,"여행 > 숙박 > 여관,모텔",126.88788067231138,37.471272006802266,서울 금천구 벚꽃로 182,http://place.map.kakao.com/1868252302
명동 여관,숙박,"여행 > 숙박 > 여관,모텔",126.887536242465,37.4898901220244,서울 구로구 구로동로26길 62,http://place.map.kakao.com/276584057
한도여인숙,숙박,"여행 > 숙박 > 여관,모텔",126.8882227774396,37.49053229066601,서울 구로구 구로동로26길 77-10,http://place.map.kakao.com/21696797
스탠포드호텔 서울,숙박,여행 > 숙박 > 호텔,126.8866953497733,37.58236797309298,서울 마포구 월드컵북로58길 15,http://place.map.kakao.com/21318113
자기야모텔,숙박,"여행 > 숙박 > 여관,모텔",126.88965170314,37.4784673340466,서울 금천구 디지털로 208-12,http://place.map.kakao.com/124120611
더스테이호텔,숙박,"여행 > 숙박 > 여관,모텔",126.88862615018974,37.47931332018537,서울 금천구 디지털로11길 14,http://place.map.kakao.com/393843716
H호텔,숙박,"여행 > 숙박 > 여관,모텔",126.88850279891844,37.479392492626864,서울 금천구 디지털로11길 18,http://place.map.kakao.com/2024229221
마리호텔,숙박,"여행 > 숙박 > 여관,모텔",126.888764284231,37.4791764969648,서울 금천구 디지털로11길 12,http://place.map.kakao.com/16053140
리치호텔,숙박,"여행 > 숙박 > 여관,모텔",126.890148789724,37.4787164757138,서울 금천구 가산로 153,http://place.map.kakao.com/7868197
팰리스파크,숙박,"여행 > 숙박 > 여관,모텔",126.889533948837,37.478586157199,서울 금천구 디지털로 208-8,http://place.map.kakao.com/25612033
청수장,숙박,"여행 > 숙박 > 여관,모텔",126.88916547196,37.4800562585652,서울 구로구 남부순환로105라길 6,http://place.map.kakao.com/16618010
롯데여인숙,숙박,"여행 > 숙박 > 여관,모텔",126.88968954283,37.4804135484557,서울 구로구 남부순환로105라길 20,http://place.map.kakao.com/22757669
문래여관,숙박,"여행 > 숙박 > 여관,모텔",126.888606450175,37.5161797651365,서울 영등포구 선유로 26,http://place.map.kakao.com/149630792
노바루스관광호텔,숙박,여행 > 숙박 > 호텔,126.890701273767,37.5216408981788,서울 영등포구 선유로 88-6,http://place.map.kakao.com/26495451
팔레스모텔,숙박,"여행 > 숙박 > 여관,모텔",126.890393481569,37.5217090891263,서울 영등포구 선유로 88-2,http://place.map.kakao.com/14560586
샤또호텔,숙박,여행 > 숙박 > 호텔,126.890373810635,37.5227830656041,서울 영등포구 선유로 100,http://place.map.kakao.com/1891820782
Y.ROAD135,숙박,여행 > 숙박 > 게스트하우스,126.888906178264,37.52306280692764,서울 영등포구 영등포로13길 5,http://place.map.kakao.com/1279396876
인하모텔,숙박,"여행 > 숙박 > 여관,모텔",126.888938930862,37.5230988778169,서울 영등포구 영등포로13길 5,http://place.map.kakao.com/18489875
구로JS호스텔,숙박,"여행 > 숙박 > 여관,모텔",126.89100687910114,37.47950655416494,서울 구로구 남부순환로105길 32,http://place.map.kakao.com/1696675437
마인드호텔,숙박,여행 > 숙박 > 호텔,126.89097046258208,37.47889203251153,서울 금천구 남부순환로 1262,http://place.map.kakao.com/1561607435
노트호텔,숙박,"여행 > 숙박 > 여관,모텔",126.892370397838,37.4999750854163,서울 구로구 새말로18길 150,http://place.map.kakao.com/8634426
유로파라텔,숙박,"여행 > 숙박 > 여관,모텔",126.892139358531,37.5002091361731,서울 구로구 새말로18길 142,http://place.map.kakao.com/10688508
노벰버호텔,숙박,"여행 > 숙박 > 여관,모텔",126.89107977347848,37.50249851993251,서울 구로구 공원로6가길 20,http://place.map.kakao.com/26330731
베르2모텔,숙박,"여행 > 숙박 > 여관,모텔",126.8918107492467,37.50301006165442,서울 구로구 새말로16길 62,http://place.map.kakao.com/24177877
나인,숙박,"여행 > 숙박 > 여관,모텔",126.890991406223,37.502604757048,서울 구로구 공원로6가길 22,http://place.map.kakao.com/16470812
세종모텔,숙박,"여행 > 숙박 > 여관,모텔",126.891140245001,37.5216016594838,서울 영등포구 영등포로18길 2-1,http://place.map.kakao.com/12639194
스위트하우스,숙박,"여행 > 숙박 > 여관,모텔",126.891987883177,37.5237107829503,서울 영등포구 선유동1로 20,http://place.map.kakao.com/1428362263
유니언호텔,숙박,여행 > 숙박 > 호텔,126.893055915673,37.5386755785897,서울 영등포구 양평로 136,http://place.map.kakao.com/646248215
메인모텔,숙박,"여행 > 숙박 > 여관,모텔",126.892481403011,37.5833752893279,서울 은평구 수색로 287,http://place.map.kakao.com/12412416
88호텔,숙박,여행 > 숙박 > 호텔,126.89529522143,37.4721942356449,서울 금천구 시흥대로123길 66,http://place.map.kakao.com/1064955363
서울장,숙박,"여행 > 숙박 > 여관,모텔",126.894649392801,37.4780646396983,서울 금천구 남부순환로110길 3,http://place.map.kakao.com/26244169
캠핑서치,숙박,"여행 > 숙박 > 야영,캠핑장",126.89442156293664,37.48249920135776,서울 구로구 디지털로 272,http://place.map.kakao.com/13121446
대림모텔,숙박,"여행 > 숙박 > 여관,모텔",126.895494117388,37.5825310615428,서울 은평구 수색로 260-1,http://place.map.kakao.com/16045991
영진여관,숙박,"여행 > 숙박 > 여관,모텔",126.895425341982,37.5831364679755,서울 은평구 수색로16길 9,http://place.map.kakao.com/9250233
수일여관,숙박,"여행 > 숙박 > 여관,모텔",126.894759155395,37.5834782532524,서울 은평구 수색로16길 15-15,http://place.map.kakao.com/16296141
미니멀시즌호텔,숙박,"여행 > 숙박 > 여관,모텔",126.89800677217,37.4766944474633,서울 금천구 시흥대로141길 84,http://place.map.kakao.com/824122628
테이블엔조이,숙박,여행 > 숙박 > 호텔,126.89704451450376,37.48258260682533,서울 구로구 디지털로26길 111,http://place.map.kakao.com/14559670
포레스트카라반,숙박,"여행 > 숙박 > 야영,캠핑장 > 카라반",126.89769960041184,37.48308233447987,서울 구로구 디지털로26길 123,http://place.map.kakao.com/1876001651
롯데시티호텔 구로,숙박,여행 > 숙박 > 호텔 > 특급호텔,126.89693793891084,37.48526751835009,서울 구로구 디지털로 300,http://place.map.kakao.com/25160139
문래게스트하우스,숙박,여행 > 숙박 > 게스트하우스,126.89640569363296,37.514518204774134,서울 영등포구 도림로128가길 8,http://place.map.kakao.com/1034420483
당산여인숙,숙박,"여행 > 숙박 > 여관,모텔",126.897510148724,37.5224326769577,서울 영등포구 당산로16길 14,http://place.map.kakao.com/14563527
SL모텔,숙박,"여행 > 숙박 > 여관,모텔",126.896354459272,37.5270267784353,서울 영등포구 당산로33길 3,http://place.map.kakao.com/26924405
굿데이모텔 선유도역점,숙박,"여행 > 숙박 > 여관,모텔",126.89606456668916,37.53701141501798,서울 영등포구 양평로 104,http://place.map.kakao.com/22137375
영등포머스트스테이 선유도역점,숙박,"여행 > 숙박 > 여관,모텔",126.89698380484,37.536650018434,서울 영등포구 양평로 92-1,http://place.map.kakao.com/650209714
영빈모텔,숙박,"여행 > 숙박 > 여관,모텔",126.89853530453,37.4536902877095,서울 금천구 시흥대로61길 38,http://place.map.kakao.com/14559385
호텔인카페 독산사거리점,숙박,"여행 > 숙박 > 여관,모텔",126.898899494134,37.4711224693973,서울 금천구 가산로 35,http://place.map.kakao.com/917061718
넘버25,숙박,"여행 > 숙박 > 여관,모텔",126.89941337739786,37.471477905953584,서울 금천구 가산로 32,http://place.map.kakao.com/1573494995
모텔카프리,숙박,"여행 > 숙박 > 여관,모텔",126.899411610289,37.4711093912979,서울 금천구 가산로 31-1,http://place.map.kakao.com/12057741
포포인츠 바이쉐라톤 서울구로,숙박,여행 > 숙박 > 호텔,126.89888439029444,37.48317255420732,서울 구로구 디지털로32길 72,http://place.map.kakao.com/428137292
삼원장,숙박,"여행 > 숙박 > 여관,모텔",126.898443288379,37.4882962080153,서울 영등포구 디지털로 337,http://place.map.kakao.com/8382821
호텔로프트,숙박,여행 > 숙박 > 호텔,126.89872670675136,37.53462878026919,서울 영등포구 선유동2로 72,http://place.map.kakao.com/22115804
호텔트리플8,숙박,"여행 > 숙박 > 여관,모텔",126.90249917722446,37.45261330984207,서울 금천구 시흥대로56길 15,http://place.map.kakao.com/175270472
준희빈모텔,숙박,"여행 > 숙박 > 여관,모텔",126.90182073232006,37.45287016760094,서울 금천구 시흥대로52길 35,http://place.map.kakao.com/10791869
궁전파크,숙박,"여행 > 숙박 > 여관,모텔",126.900677767397,37.4710780259748,서울 금천구 가산로 19-1,http://place.map.kakao.com/20531452
호텔오아시스,숙박,"여행 > 숙박 > 여관,모텔",126.90095563269922,37.48324368629755,서울 구로구 디지털로32길 97-10,http://place.map.kakao.com/11195203
대방모텔,숙박,"여행 > 숙박 > 여관,모텔",126.90178044057726,37.49576297143814,서울 영등포구 도림로 186,http://place.map.kakao.com/14559645
CL호텔,숙박,여행 > 숙박 > 호텔,126.90180757629942,37.51908009321168,서울 영등포구 영신로32길 8,http://place.map.kakao.com/26635961
금화장여관,숙박,"여행 > 숙박 > 여관,모텔",126.902385383404,37.5209915989297,서울 영등포구 영등포로33길 5,http://place.map.kakao.com/14577047
용궁여관,숙박,"여행 > 숙박 > 여관,모텔",126.90307342662,37.4542743489774,서울 금천구 금하로9길 4-22,http://place.map.kakao.com/16418455
로얄파크장,숙박,"여행 > 숙박 > 여관,모텔",126.904366332501,37.4614150232636,서울 금천구 독산로 157-1,http://place.map.kakao.com/16269637
대림장,숙박,"여행 > 숙박 > 여관,모텔",126.90341173839154,37.47243180752989,서울 금천구 독산로 288,http://place.map.kakao.com/15785461
휴모텔,숙박,"여행 > 숙박 > 여관,모텔",126.90324772646598,37.476011385007546,서울 금천구 독산로 327,http://place.map.kakao.com/16555759
신라스테이 구로,숙박,여행 > 숙박 > 호텔 > 신라스테이,126.90423261315748,37.48560612831725,서울 동작구 시흥대로 596,http://place.map.kakao.com/26993674
경림장,숙박,"여행 > 숙박 > 여관,모텔",126.904516033573,37.4894581656455,서울 영등포구 대림로7길 3-8,http://place.map.kakao.com/14562225
대도장,숙박,"여행 > 숙박 > 여관,모텔",126.904198560488,37.4936782258257,서울 영등포구 디지털로67길 4,http://place.map.kakao.com/20747952
코트야드 바이메리어트 서울타임스퀘어,숙박,여행 > 숙박 > 호텔 > 특급호텔 > 메리어트호텔,126.904313298074,37.5171909444178,서울 영등포구 영중로 15,http://place.map.kakao.com/21741740
자딘호텔,숙박,"여행 > 숙박 > 여관,모텔",126.90470444646886,37.51915184322373,서울 영등포구 영신로34길 33,http://place.map.kakao.com/27467615
프리호텔,숙박,"여행 > 숙박 > 여관,모텔",126.903698074926,37.5206142554423,서울 영등포구 영신로38길 24,http://place.map.kakao.com/27300006
포유모텔,숙박,"여행 > 숙박 > 여관,모텔",126.90393873642422,37.52083699907066,서울 영등포구 영등포로35길 7,http://place.map.kakao.com/14559593
모텔욜로,숙박,"여행 > 숙박 > 여관,모텔",126.904158117845,37.5217787249472,서울 영등포구 영등포로35길 17-4,http://place.map.kakao.com/2000527428
하이서울유스호스텔,숙박,여행 > 숙박 > 유스호스텔,126.90324141367702,37.525601830713384,서울 영등포구 영신로 200,http://place.map.kakao.com/12827468
강남모텔,숙박,"여행 > 숙박 > 여관,모텔",126.903088213641,37.5338404604868,서울 영등포구 당산로46길 5-1,http://place.map.kakao.com/12223064
신성여관,숙박,"여행 > 숙박 > 여관,모텔",126.907515713455,37.4886748733699,서울 동작구 신대방3길 83,http://place.map.kakao.com/23904594
서광장,숙박,"여행 > 숙박 > 여관,모텔",126.906247424359,37.4901767541302,서울 영등포구 시흥대로181길 7,http://place.map.kakao.com/14562221
충남장,숙박,"여행 > 숙박 > 여관,모텔",126.906460099095,37.4901012380917,서울 영등포구 시흥대로181길 8,http://place.map.kakao.com/9517335
대림장,숙박,"여행 > 숙박 > 여관,모텔",126.907169101134,37.4909955965185,서울 영등포구 시흥대로183길 6,http://place.map.kakao.com/14559312
세일여인숙,숙박,"여행 > 숙박 > 여관,모텔",126.907250875801,37.4980199086407,서울 영등포구 신길로15길 8-12,http://place.map.kakao.com/14563344
캡슐마중게스트하우스,숙박,여행 > 숙박 > 게스트하우스,126.90560587414244,37.51566027888799,서울 영등포구 경인로100길 1-10,http://place.map.kakao.com/1132375585
호텔데쟈트,숙박,"여행 > 숙박 > 여관,모텔",126.9075566532773,37.51783774464644,서울 영등포구 영중로4길 9-6,http://place.map.kakao.com/304525767
코모도모텔,숙박,"여행 > 숙박 > 여관,모텔",126.9068778508342,37.51792100470618,서울 영등포구 영중로6길 10,http://place.map.kakao.com/22485043
신영모텔,숙박,"여행 > 숙박 > 여관,모텔",126.906914370448,37.5176615446018,서울 영등포구 영등포로42길 19-2,http://place.map.kakao.com/7970902
호텔아이리스,숙박,"여행 > 숙박 > 여관,모텔",126.90645718871068,37.51872166397759,서울 영등포구 영등포로42길 8-5,http://place.map.kakao.com/539048454
아하바호텔,숙박,"여행 > 숙박 > 여관,모텔",126.90639283654284,37.51862160166609,서울 영등포구 영중로8길 7,http://place.map.kakao.com/27288925
더호텔 문,숙박,"여행 > 숙박 > 여관,모텔",126.90711690624592,37.51852756797832,서울 영등포구 영중로8길 13,http://place.map.kakao.com/558089484
인게스트하우스,숙박,여행 > 숙박 > 게스트하우스,126.906679658528,37.5607832106013,서울 마포구 성미산로1길 68,http://place.map.kakao.com/25039949
하프프라이스모텔,숙박,"여행 > 숙박 > 여관,모텔",126.908257658443,37.4996136734042,서울 영등포구 대방천로 155,http://place.map.kakao.com/12776786
삼성장여관,숙박,"여행 > 숙박 > 여관,모텔",126.909994665994,37.5071834542465,서울 영등포구 가마산로71길 16-6,http://place.map.kakao.com/14558313
나혼자잔다스테이하우스 1호점,숙박,여행 > 숙박 > 게스트하우스,126.90838306406276,37.514521795224624,서울 영등포구 영신로 32-4,http://place.map.kakao.com/26111217
페어필드바이메리어트 서울,숙박,여행 > 숙박 > 호텔 > 특급호텔 > 메리어트호텔,126.90928157127732,37.51699304011284,서울 영등포구 경인로 870,http://place.map.kakao.com/1580149613
GMS호텔,숙박,여행 > 숙박 > 호텔,126.90899592487028,37.51748386711501,서울 영등포구 경인로 867,http://place.map.kakao.com/1757728640
그곳에호텔,숙박,"여행 > 숙박 > 여관,모텔",126.907891667161,37.5176839348445,서울 영등포구 영중로4길 15-5,http://place.map.kakao.com/26924905
호텔르오,숙박,"여행 > 숙박 > 여관,모텔",126.90833055785136,37.51768427628898,서울 영등포구 영중로6길 22,http://place.map.kakao.com/1828064982
넘버25 영등포점,숙박,"여행 > 숙박 > 여관,모텔",126.908353976167,37.5179591004074,서울 영등포구 영중로6길 23-5,http://place.map.kakao.com/571657578
호텔CC,숙박,"여행 > 숙박 > 여관,모텔",126.90884140338284,37.51804597390011,서울 영등포구 영중로6길 23-6,http://place.map.kakao.com/25814939
스티치스게스트하우스,숙박,여행 > 숙박 > 게스트하우스,126.90983867381426,37.55034851208091,서울 마포구 포은로2나길 46,http://place.map.kakao.com/445284
다다름 게스트하우스,숙박,여행 > 숙박 > 게스트하우스,126.9103122676889,37.50735939173783,서울 영등포구 신길로37길 13-2,http://place.map.kakao.com/27543570
성원여인숙,숙박,"여행 > 숙박 > 여관,모텔",126.910713249501,37.5115989211658,서울 영등포구 신길로52길 3-2,http://place.map.kakao.com/7949593
베니키아호텔카카오,숙박,여행 > 숙박 > 호텔 > 베니키아 호텔,126.911882647019,37.5174815509817,서울 영등포구 경인로108길 15,http://place.map.kakao.com/492293707
토요코인호텔 서울영등포점,숙박,여행 > 숙박 > 호텔,126.91201256523036,37.517622204327914,서울 영등포구 신길로 293,http://place.map.kakao.com/1794486862
라이프스타일호텔,숙박,"여행 > 숙박 > 여관,모텔",126.91119759090256,37.51712153764074,서울 영등포구 경인로108길 8,http://place.map.kakao.com/847284386
I호텔,숙박,"여행 > 숙박 > 여관,모텔",126.911471318265,37.5171316541572,서울 영등포구 경인로108길 10,http://place.map.kakao.com/775229290
부띠크 호텔SB,숙박,"여행 > 숙박 > 여관,모텔",126.91035712093952,37.51808587712436,서울 영등포구 영중로4길 36,http://place.map.kakao.com/25414832
BLVD 오라비지니스호텔,숙박,"여행 > 숙박 > 여관,모텔",126.91064299587384,37.51834648362836,서울 영등포구 영등포로 264-11,http://place.map.kakao.com/2014064937
모텔자고,숙박,"여행 > 숙박 > 여관,모텔",126.91012727885906,37.51826500206848,서울 영등포구 영중로10길 44-1,http://place.map.kakao.com/8997789
보보스모텔,숙박,"여행 > 숙박 > 여관,모텔",126.910601132026,37.5221477825244,서울 영등포구 국회대로54길 41-18,http://place.map.kakao.com/9350633
써클호텔 합정점,숙박,여행 > 숙박 > 호텔,126.910736706817,37.5488715572442,서울 마포구 양화로 15,http://place.map.kakao.com/10599985
남경호텔,숙박,"여행 > 숙박 > 여관,모텔",126.910510225147,37.5490011295794,서울 마포구 양화로1길 7,http://place.map.kakao.com/8210442
남경장호텔,숙박,여행 > 숙박 > 호텔,126.910161932529,37.548791833483,서울 마포구 양화로 11,http://place.map.kakao.com/9724033
캐슬모텔,숙박,"여행 > 숙박 > 여관,모텔",126.911443231922,37.5523715658704,서울 마포구 월드컵로7길 13-7,http://place.map.kakao.com/118882598
거북장여관,숙박,"여행 > 숙박 > 여관,모텔",126.911540709188,37.580958428943,서울 서대문구 응암로1길 3,http://place.map.kakao.com/16767686
CS프리미어호텔서울,숙박,여행 > 숙박 > 호텔,126.91284785827172,37.48119335130184,서울 관악구 남부순환로 1458,http://place.map.kakao.com/711678639
그레이스모텔,숙박,"여행 > 숙박 > 여관,모텔",126.913830419652,37.4840953193824,서울 관악구 난곡로 337,http://place.map.kakao.com/16762450
동원여관,숙박,"여행 > 숙박 > 여관,모텔",126.913315814712,37.5106457953639,서울 영등포구 도신로48길 5-4,http://place.map.kakao.com/10290807
VIP,숙박,여행 > 숙박 > 호텔,126.913439008943,37.517580010177,서울 영등포구 경인로114나길 6,http://place.map.kakao.com/242309362
대도여관,숙박,"여행 > 숙박 > 여관,모텔",126.914727441209,37.5701992979712,서울 서대문구 수색로4길 3-8,http://place.map.kakao.com/16499564
리베로모텔,숙박,"여행 > 숙박 > 여관,모텔",126.914634814797,37.5839123609331,서울 서대문구 응암로 130,http://place.map.kakao.com/16041718
제이에스하우스,숙박,여행 > 숙박 > 게스트하우스,126.914227622631,37.5954150325243,서울 은평구 증산로 439-3,http://place.map.kakao.com/482125917
URBAN HOTEL&GOLF,숙박,여행 > 숙박 > 호텔,126.91497209646852,37.481354377630595,서울 관악구 난곡로64길 5,http://place.map.kakao.com/1616447428
게스트하우스카프마르,숙박,여행 > 숙박 > 게스트하우스,126.915138791894,37.486914619648,서울 관악구 난곡로78길 28,http://place.map.kakao.com/26423375
서울해군호텔,숙박,여행 > 숙박 > 호텔,126.9159587420021,37.50389737766523,서울 영등포구 가마산로 540,http://place.map.kakao.com/12655613
신길장모텔,숙박,"여행 > 숙박 > 여관,모텔",126.916477290319,37.5115058291133,서울 영등포구 도신로58길 3,http://place.map.kakao.com/14562838
글래드 여의도,숙박,여행 > 숙박 > 호텔,126.91727637862635,37.52739918170664,서울 영등포구 의사당대로 16,http://place.map.kakao.com/1129396972
롬바드하우스,숙박,여행 > 숙박 > 게스트하우스,126.91578911489,37.55420016669026,서울 마포구 동교로16길 17,http://place.map.kakao.com/26406310
드림게스트하우스,숙박,여행 > 숙박 > 게스트하우스,126.916438362319,37.5545195810894,서울 마포구 잔다리로 78,http://place.map.kakao.com/19825977
로컬스티치 크리에이터타운 서교,숙박,여행 > 숙박 > 호텔,126.9168053633582,37.55626417122932,서울 마포구 월드컵북로5길 41,http://place.map.kakao.com/26844250
더그레이호텔,숙박,"여행 > 숙박 > 여관,모텔",126.91531667013795,37.56965912499782,서울 서대문구 수색로 34-6,http://place.map.kakao.com/611611593
이코노미호텔 은평점,숙박,"여행 > 숙박 > 여관,모텔",126.91635011941096,37.58789147187578,서울 은평구 응암로 177,http://place.map.kakao.com/27317969
Y호텔,숙박,"여행 > 숙박 > 여관,모텔",126.915902910422,37.5878740352477,서울 은평구 응암로9길 6-11,http://place.map.kakao.com/1063408959
도미니크호텔,숙박,여행 > 숙박 > 호텔,126.917386814784,37.482631017904,서울 관악구 남부순환로 1501,http://place.map.kakao.com/728564672
모텔봄 보라매역점,숙박,"여행 > 숙박 > 여관,모텔",126.91887497122596,37.4991357994774,서울 영등포구 대방천로 251,http://place.map.kakao.com/606446672
메리어트 이그제큐티브아파트먼트 서울,숙박,여행 > 숙박 > 호텔 > 특급호텔 > 메리어트호텔,126.91855570262244,37.52132731628651,서울 영등포구 여의대로 8,http://place.map.kakao.com/7868633
호텔더디자이너스 홍대,숙박,여행 > 숙박 > 호텔,126.9175888327221,37.55187956528583,서울 마포구 양화로 86,http://place.map.kakao.com/18618217
나루게스트하우스,숙박,여행 > 숙박 > 게스트하우스,126.917917573811,37.5513743344003,서울 마포구 양화로12길 8-12,http://place.map.kakao.com/1583427105
보보호텔,숙박,여행 > 숙박 > 호텔,126.918183623823,37.5523115569246,서울 마포구 양화로 94,http://place.map.kakao.com/7900726
니트하우스,숙박,여행 > 숙박 > 게스트하우스,126.919000834128,37.5542798994185,서울 마포구 양화로15안길 7,http://place.map.kakao.com/494757479
아만티호텔서울,숙박,여행 > 숙박 > 호텔,126.91869441779112,37.55714846444077,서울 마포구 월드컵북로 31,http://place.map.kakao.com/1719950135
아이하우스친친,숙박,여행 > 숙박 > 게스트하우스,126.918523902031,37.5640752089034,서울 마포구 연남로7길 24-11,http://place.map.kakao.com/26099942
연남 마리하우스,숙박,여행 > 숙박 > 게스트하우스,126.91891335077884,37.56399438737334,서울 마포구 연남로7길 20-7,http://place.map.kakao.com/1419541561
예포게스트하우스,숙박,여행 > 숙박 > 게스트하우스,126.91960452406616,37.56752135776248,서울 서대문구 성산로7안길 8,http://place.map.kakao.com/25754662
모텔스테이,숙박,"여행 > 숙박 > 여관,모텔",126.918984499387,37.5850398656173,서울 은평구 가좌로7나길 15,http://place.map.kakao.com/945357600
킹모텔,숙박,"여행 > 숙박 > 여관,모텔",126.918990160289,37.5850398695024,서울 은평구 가좌로7나길 15,http://place.map.kakao.com/20741516
카누모텔,숙박,"여행 > 숙박 > 여관,모텔",126.918352880017,37.5880235180897,서울 은평구 응암로12길 11-6,http://place.map.kakao.com/2058702669
베네치아모텔,숙박,"여행 > 숙박 > 여관,모텔",126.91800160444,37.5903478345785,서울 은평구 응암로14길 5,http://place.map.kakao.com/20750008
호텔타오 연신내역점,숙박,여행 > 숙박 > 호텔,126.919527136549,37.620485190318,서울 은평구 통일로 863-24,http://place.map.kakao.com/1320845156
연신내레스트모텔,숙박,"여행 > 숙박 > 여관,모텔",126.91959976437388,37.62036090355353,서울 은평구 통일로 863-22,http://place.map.kakao.com/42196127
호텔디아티스트 연신내점,숙박,"여행 > 숙박 > 여관,모텔",126.9194955251702,37.622488964534,서울 은평구 통일로 891,http://place.map.kakao.com/729881269
한진모텔,숙박,"여행 > 숙박 > 여관,모텔",126.91896631105,37.6237355683852,서울 은평구 통일로87길 6-7,http://place.map.kakao.com/16931700
셀립여의,숙박,여행 > 숙박 > 호텔,126.921605367677,37.5138519541717,서울 영등포구 영등포로 389,http://place.map.kakao.com/441106487
신흥장모텔,숙박,"여행 > 숙박 > 여관,모텔",126.920311852072,37.5134113987219,서울 영등포구 영등포로78길 4,http://place.map.kakao.com/14561491
영빈여관,숙박,"여행 > 숙박 > 여관,모텔",126.920198043926,37.5140672526507,서울 영등포구 영등포로 377,http://place.map.kakao.com/14561568
코보스호텔,숙박,여행 > 숙박 > 호텔,126.92067301553622,37.53018290361662,서울 영등포구 국회대로72길 9,http://place.map.kakao.com/9602825
켄싱턴호텔 여의도,숙박,여행 > 숙박 > 호텔,126.92192760269,37.53026122576229,서울 영등포구 국회대로76길 16,http://place.map.kakao.com/328946161
컴포트인 여의도,숙박,여행 > 숙박 > 호텔,126.92053824525637,37.53031435920135,서울 영등포구 국회대로72길 7,http://place.map.kakao.com/187350501
코코아게스트하우스,숙박,여행 > 숙박 > 게스트하우스,126.92181479732804,37.54977563523027,서울 마포구 와우산로17길 19-9,http://place.map.kakao.com/684138688
마마스앤파파스 게스트하우스,숙박,여행 > 숙박 > 게스트하우스,126.920599408233,37.5494552401094,서울 마포구 어울마당로 47,http://place.map.kakao.com/22484094
라이즈 오토그래프 컬렉션,숙박,여행 > 숙박 > 호텔,126.92127657051412,37.5544165882929,서울 마포구 양화로 130,http://place.map.kakao.com/1310053611
나인브릭호텔,숙박,여행 > 숙박 > 호텔,126.92060504086048,37.55374669741411,서울 마포구 홍익로5길 32,http://place.map.kakao.com/269921264
L7 홍대,숙박,여행 > 숙박 > 호텔,126.921561552027,37.5556979963801,서울 마포구 양화로 141,http://place.map.kakao.com/43179481
DW디자인레지던스,숙박,여행 > 숙박 > 게스트하우스,126.9205922020102,37.55838051803024,서울 마포구 동교로25길 35,http://place.map.kakao.com/19705793
홍대스타일게스트하우스,숙박,여행 > 숙박 > 게스트하우스,126.920785552164,37.5574850568507,서울 마포구 월드컵북로4길 23-3,http://place.map.kakao.com/267978266
애플게스트하우스,숙박,여행 > 숙박 > 게스트하우스,126.920855903746,37.5594528813899,서울 마포구 월드컵북로6길 53-9,http://place.map.kakao.com/18848432
스튜디오41st 호스텔,숙박,여행 > 숙박 > 게스트하우스,126.921519250951,37.5615003885889,서울 마포구 성미산로22길 32,http://place.map.kakao.com/13312523
브릭스호텔,숙박,여행 > 숙박 > 호텔,126.921189037102,37.5999005141928,서울 은평구 은평로8길 1,http://place.map.kakao.com/600982868
대명모텔,숙박,"여행 > 숙박 > 여관,모텔",126.9216777292447,37.60686549292472,서울 은평구 서오릉로7길 3-1,http://place.map.kakao.com/16472284
만토바모텔,숙박,"여행 > 숙박 > 여관,모텔",126.921455368834,37.6180033675371,서울 은평구 통일로 839-1,http://place.map.kakao.com/11079501
아비숑모텔,숙박,"여행 > 숙박 > 여관,모텔",126.921289945378,37.6202016672667,서울 은평구 통일로80길 7-3,http://place.map.kakao.com/16418572
공군호텔,숙박,여행 > 숙박 > 호텔,126.9237559648766,37.51015564119212,서울 영등포구 여의대방로 259,http://place.map.kakao.com/583164148
로체모텔,숙박,"여행 > 숙박 > 여관,모텔",126.923995714277,37.5124191182324,서울 영등포구 여의대방로55길 10,http://place.map.kakao.com/256359478
테마모텔,숙박,"여행 > 숙박 > 여관,모텔",126.924217486629,37.5123399723701,서울 영등포구 여의대방로55길 8-1,http://place.map.kakao.com/16678577
앰배서더호텔 머큐어 서울홍대,숙박,여행 > 숙박 > 호텔 > 특급호텔 > 앰배서더호텔,126.92246520784865,37.555186826703,서울 마포구 양화로 144,http://place.map.kakao.com/106952975
미성장모텔,숙박,"여행 > 숙박 > 여관,모텔",126.92400901824467,37.55840078651873,서울 마포구 양화로19길 20,http://place.map.kakao.com/15974449
필로소퍼,숙박,여행 > 숙박 > 유스호스텔,126.923531420368,37.5594960903966,서울 마포구 동교로 217,http://place.map.kakao.com/2060367147
파크애비뉴 게스트하우스,숙박,여행 > 숙박 > 게스트하우스,126.922989620702,37.5624744329653,서울 마포구 성미산로26길 32-2,http://place.map.kakao.com/26415078
로이게스트하우스,숙박,여행 > 숙박 > 게스트하우스,126.924021217253,37.5631057987613,서울 마포구 동교로41길 14,http://place.map.kakao.com/20992918
뜨랑블루호텔,숙박,여행 > 숙박 > 호텔,126.92677816575662,37.48463654893541,서울 관악구 신림동7길 52,http://place.map.kakao.com/157856669
유토피아,숙박,"여행 > 숙박 > 여관,모텔",126.92694326195482,37.4846168289543,서울 관악구 신림로65길 47,http://place.map.kakao.com/16328059
별빛스테이,숙박,여행 > 숙박 > 민박,126.925336617032,37.4879964066637,서울 관악구 관천로18길 41,http://place.map.kakao.com/300396865
휴모텔,숙박,"여행 > 숙박 > 여관,모텔",126.92683503999176,37.49935723910372,서울 동작구 여의대방로24길 121,http://place.map.kakao.com/10960979
수원여인숙,숙박,"여행 > 숙박 > 여관,모텔",126.924610867326,37.5125744851432,서울 영등포구 영등포로 420-1,http://place.map.kakao.com/14577111
콘래드 서울,숙박,여행 > 숙박 > 호텔 > 특급호텔,126.92674398135534,37.52541872450673,서울 영등포구 국제금융로 10,http://place.map.kakao.com/18206183
씰링캠프,숙박,"여행 > 숙박 > 야영,캠핑장",126.925398454427,37.5531128178672,서울 마포구 와우산로 108,http://place.map.kakao.com/20895509
홀리데이인익스프레스 서울홍대,숙박,여행 > 숙박 > 호텔,126.92673403106848,37.557560076670406,서울 마포구 양화로 188,http://place.map.kakao.com/1503578811
둘이안하우스,숙박,여행 > 숙박 > 게스트하우스,126.92471695865456,37.566823753891974,서울 서대문구 성산로 309-30,http://place.map.kakao.com/1009694736
오포짓스탠다드,숙박,"여행 > 숙박 > 여관,모텔",126.925752031258,37.6027866422962,서울 은평구 서오릉로 17,http://place.map.kakao.com/1144350202
아트호텔,숙박,"여행 > 숙박 > 여관,모텔",126.926066516033,37.60312651302007,서울 은평구 서오릉로 22,http://place.map.kakao.com/758225973
백운장여관,숙박,"여행 > 숙박 > 여관,모텔",126.924560543962,37.6074205784754,서울 은평구 진흥로 128,http://place.map.kakao.com/15536129
호텔루136,숙박,여행 > 숙박 > 호텔,126.92529409948,37.6077381933988,서울 은평구 진흥로 136,http://place.map.kakao.com/1805638710
라비야호텔,숙박,"여행 > 숙박 > 여관,모텔",126.92552271130327,37.60789691203256,서울 은평구 진흥로 138,http://place.map.kakao.com/22601301
WD호텔,숙박,여행 > 숙박 > 호텔,126.92925235770672,37.48551924242793,서울 관악구 신림로 349,http://place.map.kakao.com/523881044
삼원장모텔,숙박,"여행 > 숙박 > 여관,모텔",126.928612627566,37.4864622130887,서울 관악구 신림동1길 23,http://place.map.kakao.com/23993839
더스토리모텔,숙박,"여행 > 숙박 > 여관,모텔",126.928033039494,37.4871646476726,서울 관악구 신림동1길 4,http://place.map.kakao.com/379282506
모아모아모텔,숙박,"여행 > 숙박 > 여관,모텔",126.9283963344609,37.48680897027581,서울 관악구 신림동1길 13,http://place.map.kakao.com/16676947
올인,숙박,"여행 > 숙박 > 여관,모텔",126.92871975302764,37.48676771947625,서울 관악구 신림동1길 19-5,http://place.map.kakao.com/15484683
페어몬트 앰배서더 서울,숙박,여행 > 숙박 > 호텔 > 특급호텔 > 앰배서더호텔,126.9290916051326,37.52518769877941,서울 영등포구 여의대로 108,http://place.map.kakao.com/803334605
준게스트하우스,숙박,여행 > 숙박 > 게스트하우스,126.927556473628,37.5544152023169,서울 마포구 와우산로29나길 24-3,http://place.map.kakao.com/27510640
보아 트래블하우스,숙박,여행 > 숙박 > 게스트하우스,126.928416641069,37.5590828927612,서울 서대문구 신촌로1길 15,http://place.map.kakao.com/17148600
한소호텔,숙박,여행 > 숙박 > 게스트하우스,126.928011758637,37.5611261072175,서울 서대문구 연희로4길 22,http://place.map.kakao.com/1535776231
연희모텔,숙박,"여행 > 숙박 > 여관,모텔",126.92796966693972,37.56252442809015,서울 서대문구 연희로 44,http://place.map.kakao.com/16499682
시티게스트하우스,숙박,여행 > 숙박 > 게스트하우스,126.928500841307,37.5704571177534,서울 서대문구 연희로15길 83-9,http://place.map.kakao.com/15337865
그레이스레지던스,숙박,여행 > 숙박 > 게스트하우스,126.928444521205,37.572532976129,서울 서대문구 연희로15길 130-3,http://place.map.kakao.com/18818570
시안호텔,숙박,여행 > 숙박 > 호텔,126.92849133427,37.6087997374984,서울 은평구 진흥로 169,http://place.map.kakao.com/16762189
티파니모텔,숙박,"여행 > 숙박 > 여관,모텔",126.92838920866056,37.60900510113008,서울 은평구 통일로65길 24,http://place.map.kakao.com/823616862
톰플러스모텔,숙박,"여행 > 숙박 > 여관,모텔",126.927462888182,37.6123996421721,서울 은평구 통일로71길 30-4,http://place.map.kakao.com/831904377
수도장여관,숙박,"여행 > 숙박 > 여관,모텔",126.927151494993,37.6123271910616,서울 은평구 통일로71길 26-7,http://place.map.kakao.com/15881411
신트라호텔,숙박,"여행 > 숙박 > 여관,모텔",126.930590132887,37.485320913109,서울 관악구 신림로66길 16,http://place.map.kakao.com/27433993
호텔 나이스타임,숙박,"여행 > 숙박 > 여관,모텔",126.931305029104,37.4849825518392,서울 관악구 신림로64길 28,http://place.map.kakao.com/23106506
호텔포도,숙박,"여행 > 숙박 > 여관,모텔",126.93064931104932,37.48490648407475,서울 관악구 신림로64길 16,http://place.map.kakao.com/16766186
릴호텔,숙박,"여행 > 숙박 > 여관,모텔",126.929611570263,37.4870899139959,서울 관악구 봉천로12길 36,http://place.map.kakao.com/23107832
라다호텔,숙박,여행 > 숙박 > 호텔,126.930390291324,37.5203374740417,서울 영등포구 여의대방로67길 18,http://place.map.kakao.com/14561695
댓하우스 홍대점,숙박,여행 > 숙박 > 게스트하우스,126.930518253092,37.5579921398713,서울 서대문구 신촌로3가길 29,http://place.map.kakao.com/1834028208
야코리아호스텔 홍대점,숙박,여행 > 숙박 > 게스트하우스,126.92952161212,37.5587159507681,서울 서대문구 신촌로3가길 3-8,http://place.map.kakao.com/26647546
아담여관,숙박,"여행 > 숙박 > 여관,모텔",126.930251356638,37.5577757432024,서울 서대문구 신촌로 31-1,http://place.map.kakao.com/16732967
연희장,숙박,여행 > 숙박 > 게스트하우스,126.93008061582516,37.56608643374123,서울 서대문구 연희로 87,http://place.map.kakao.com/899418166
메종아미멜로,숙박,여행 > 숙박 > 민박,126.931171859951,37.5758205250803,서울 서대문구 홍연8길 16-10,http://place.map.kakao.com/109713121
포레스타호텔,숙박,여행 > 숙박 > 호텔,126.92944059908643,37.60859308132377,서울 은평구 진흥로 179,http://place.map.kakao.com/660249790
CS호텔,숙박,"여행 > 숙박 > 여관,모텔",126.929918507939,37.608616791813,서울 은평구 진흥로 183,http://place.map.kakao.com/16618252
호텔리츠,숙박,"여행 > 숙박 > 여관,모텔",126.93133337767524,37.60949068213826,서울 은평구 통일로 712-4,http://place.map.kakao.com/7854949
라비다호텔,숙박,"여행 > 숙박 > 여관,모텔",126.929990250562,37.6094061009997,서울 은평구 통일로65길 10-4,http://place.map.kakao.com/22176339
DU호텔,숙박,"여행 > 숙박 > 여관,모텔",126.93158011783638,37.60966111240437,서울 은평구 통일로 708-7,http://place.map.kakao.com/8271903
봄모텔 신림점,숙박,"여행 > 숙박 > 여관,모텔",126.933254676691,37.47058013365988,서울 관악구 호암로 595,http://place.map.kakao.com/651200936
루쏘호텔,숙박,"여행 > 숙박 > 여관,모텔",126.931951683519,37.4850802349419,서울 관악구 신림로64길 38,http://place.map.kakao.com/16414832
더메이,숙박,"여행 > 숙박 > 여관,모텔",126.93211452289678,37.4850551003867,서울 관악구 신림로64길 42,http://place.map.kakao.com/20345254
핸드픽트호텔,숙박,여행 > 숙박 > 호텔,126.93357232214998,37.501241619023695,서울 동작구 상도로 120,http://place.map.kakao.com/27172184
동원장여관,숙박,"여행 > 숙박 > 여관,모텔",126.932674331,37.5012915669751,서울 동작구 상도로15길 5,http://place.map.kakao.com/16296964
테마모텔,숙박,"여행 > 숙박 > 여관,모텔",126.93212164379857,37.55710829333804,서울 서대문구 신촌로9길 4,http://place.map.kakao.com/16498497
스위스 그랜드 호텔,숙박,여행 > 숙박 > 호텔 > 특급호텔,126.9341320182096,37.588819043357624,서울 서대문구 연희로 353,http://place.map.kakao.com/1610123513
북한산옐로우게스트하우스,숙박,여행 > 숙박 > 게스트하우스,126.93259814425,37.6211096557235,서울 은평구 불광로 156-15,http://place.map.kakao.com/1900884119
흥스테이,숙박,"여행 > 숙박 > 여관,모텔",126.935858075535,37.5129343217451,서울 동작구 노량진로6길 2,http://place.map.kakao.com/714947150
호텔M,숙박,"여행 > 숙박 > 여관,모텔",126.93628110312922,37.55283087285388,서울 마포구 백범로4길 14,http://place.map.kakao.com/10969963
호텔루디,숙박,"여행 > 숙박 > 여관,모텔",126.936384970784,37.5531228521728,서울 마포구 서강로20길 30,http://place.map.kakao.com/1077470813
성도모텔,숙박,"여행 > 숙박 > 여관,모텔",126.93621783273,37.5527083029775,서울 마포구 백범로4길 16,http://place.map.kakao.com/16499337
라세느,숙박,"여행 > 숙박 > 여관,모텔",126.93566965495329,37.553218871386335,서울 마포구 서강로18길 16,http://place.map.kakao.com/11088097
알파게스트하우스,숙박,여행 > 숙박 > 게스트하우스,126.936127540394,37.5524235388195,서울 마포구 백범로4길 21,http://place.map.kakao.com/14560157
브라운스위트호텔 신촌센트럴,숙박,여행 > 숙박 > 호텔,126.935582394903,37.5546721331465,서울 마포구 서강로 137,http://place.map.kakao.com/1663748975
신촌 메이저호텔,숙박,"여행 > 숙박 > 여관,모텔",126.935388756318,37.5534935223452,서울 마포구 서강로18길 8,http://place.map.kakao.com/12683949
라뉘호텔,숙박,"여행 > 숙박 > 여관,모텔",126.936149220986,37.5535407879132,서울 마포구 서강로20길 20,http://place.map.kakao.com/11556397
Y호텔,숙박,"여행 > 숙박 > 여관,모텔",126.936321401759,37.55335077036,서울 마포구 서강로20길 24,http://place.map.kakao.com/1851518429
넘버25호텔 신촌점,숙박,"여행 > 숙박 > 여관,모텔",126.9362620967344,37.55388683204076,서울 마포구 서강로20길 12,http://place.map.kakao.com/610544648
호텔S,숙박,"여행 > 숙박 > 여관,모텔",126.93507628739772,37.55363030260966,서울 마포구 서강로 128,http://place.map.kakao.com/25814221
피터캣,숙박,"여행 > 숙박 > 여관,모텔",126.93585816841286,37.55377939457259,서울 마포구 백범로2길 21,http://place.map.kakao.com/24876590
신촌시스터즈호스텔,숙박,여행 > 숙박 > 게스트하우스,126.935655488166,37.5539009189915,서울 마포구 백범로2길 24,http://place.map.kakao.com/2038841417
위드모텔,숙박,"여행 > 숙박 > 여관,모텔",126.935542317218,37.5539008572647,서울 마포구 서강로 134,http://place.map.kakao.com/10046400
24게스트하우스 신촌점,숙박,여행 > 숙박 > 게스트하우스,126.935183729407,37.5550178980461,서울 마포구 신촌로18길 9,http://place.map.kakao.com/19416691
CS에비뉴호텔,숙박,여행 > 숙박 > 호텔,126.93650440123344,37.59907633089061,서울 은평구 통일로 585-1,http://place.map.kakao.com/26883995
소셜스티치,숙박,여행 > 숙박 > 유스호스텔,126.93480522206112,37.60883402800338,서울 은평구 통일로 684,http://place.map.kakao.com/2101990874
포레스타호텔,숙박,"여행 > 숙박 > 여관,모텔",126.9379456988766,37.5570772600268,서울 서대문구 연세로4길 16,http://place.map.kakao.com/903432230
호텔루이,숙박,"여행 > 숙박 > 여관,모텔",126.938206596841,37.55635840100107,서울 서대문구 연세로2나길 6,http://place.map.kakao.com/14558558
애니타임호텔,숙박,"여행 > 숙박 > 여관,모텔",126.938084172882,37.5565943981724,서울 서대문구 연세로2나길 11,http://place.map.kakao.com/22943873
호텔밀하우스,숙박,여행 > 숙박 > 호텔,126.93798927683544,37.5563880199785,서울 서대문구 연세로2나길 5,http://place.map.kakao.com/1663246455
호텔제이드,숙박,"여행 > 숙박 > 여관,모텔",126.93765871584657,37.5564968665862,서울 서대문구 연세로2가길 12,http://place.map.kakao.com/8944392
바론드호텔,숙박,"여행 > 숙박 > 여관,모텔",126.93831059127108,37.55651162493234,서울 서대문구 연세로2나길 8,http://place.map.kakao.com/13017351
D호텔,숙박,"여행 > 숙박 > 여관,모텔",126.9376975433648,37.556078824297,서울 서대문구 연세로2길 13,http://place.map.kakao.com/15751439
평안채,숙박,여행 > 숙박 > 게스트하우스,126.938700955185,37.6408184476305,서울 은평구 연서로50길 9,http://place.map.kakao.com/422551329
북한산캠핑장,숙박,"여행 > 숙박 > 야영,캠핑장",126.937823011266,37.6501512786613,서울 은평구 북한산로 232-1,http://place.map.kakao.com/1823206389
게티하우스,숙박,여행 > 숙박 > 게스트하우스,126.94048841634,37.5446988535262,서울 마포구 큰우물로 8,http://place.map.kakao.com/504528070
힙호텔,숙박,"여행 > 숙박 > 여관,모텔",126.941334328122,37.5568915849224,서울 서대문구 연세로2길 82,http://place.map.kakao.com/8181042
아바니호텔,숙박,여행 > 숙박 > 호텔,126.9396641682162,37.55650601740325,서울 서대문구 연세로2길 50,http://place.map.kakao.com/1927085979
호텔모모,숙박,"여행 > 숙박 > 여관,모텔",126.939519366245,37.5564293585435,서울 서대문구 연세로2길 48,http://place.map.kakao.com/12152736
피오나호텔,숙박,"여행 > 숙박 > 여관,모텔",126.93979298245117,37.55676106540428,서울 서대문구 연세로2길 55,http://place.map.kakao.com/691856514
호텔레츠,숙박,"여행 > 숙박 > 여관,모텔",126.9397083819218,37.556412336263136,서울 서대문구 신촌로 125-5,http://place.map.kakao.com/10050018
게스트하우스 덕선재,숙박,여행 > 숙박 > 게스트하우스,126.93958739869969,37.64030444272452,서울 은평구 연서로50길 17-1,http://place.map.kakao.com/1525651486
담서제,숙박,여행 > 숙박 > 게스트하우스,126.93923263534326,37.64046193282395,서울 은평구 연서로50길 15,http://place.map.kakao.com/1135091288
이리루,숙박,여행 > 숙박 > 게스트하우스,126.940181642002,37.6410426517975,서울 은평구 연서로50길 11-44,http://place.map.kakao.com/645153810
홍유가인,숙박,여행 > 숙박 > 게스트하우스,126.939816487806,37.6428417316993,서울 은평구 진관길 11-37,http://place.map.kakao.com/289657027
채효당,숙박,여행 > 숙박 > 게스트하우스,126.93974596534228,37.64317956474669,서울 은평구 진관길 11-30,http://place.map.kakao.com/627912631
코텔 노량진역점,숙박,"여행 > 숙박 > 여관,모텔",126.942015875634,37.5127537002782,서울 동작구 노량진로14길 16,http://place.map.kakao.com/27361296
H에비뉴호텔 신촌이대점,숙박,여행 > 숙박 > 호텔,126.94257524584876,37.5562218529393,서울 마포구 신촌로 152,http://place.map.kakao.com/391589894
에버8,숙박,여행 > 숙박 > 호텔,126.94256648898268,37.55730935245272,서울 서대문구 신촌역로 7,http://place.map.kakao.com/23667192
비욘드스위트,숙박,여행 > 숙박 > 호텔,126.943385854773,37.5573484910586,서울 서대문구 이화여대1길 42-3,http://place.map.kakao.com/2142997591
신촌월호텔,숙박,"여행 > 숙박 > 여관,모텔",126.94250626888852,37.557617464193214,서울 서대문구 연세로2길 101-10,http://place.map.kakao.com/601388262
한강게스트하우스,숙박,여행 > 숙박 > 게스트하우스,126.945396685337,37.5360552306642,서울 마포구 마포대로4길 120-39,http://place.map.kakao.com/24545933
호텔 나루 서울 엠갤러리,숙박,여행 > 숙박 > 호텔 > 특급호텔 > 앰배서더호텔,126.94436944325074,37.537435984833536,서울 마포구 마포대로 8,http://place.map.kakao.com/2051491774
참호텔,숙박,"여행 > 숙박 > 여관,모텔",126.943841585581,37.5578406531733,서울 서대문구 이화여대3길 33,http://place.map.kakao.com/1173532025
필스테이 이화부띠끄점,숙박,여행 > 숙박 > 게스트하우스,126.945294055367,37.5588288279059,서울 서대문구 이화여대7길 8,http://place.map.kakao.com/26643978
유림장여관,숙박,"여행 > 숙박 > 여관,모텔",126.94637494298924,37.48133045587116,서울 관악구 청룡길 9,http://place.map.kakao.com/16074434
명동여관,숙박,"여행 > 숙박 > 여관,모텔",126.946652957521,37.4814945653374,서울 관악구 남부순환로 1770-6,http://place.map.kakao.com/16732399
서울가든호텔,숙박,여행 > 숙박 > 호텔,126.9483691620464,37.540712936477675,서울 마포구 마포대로 58,http://place.map.kakao.com/14559009
로이넷호텔 서울마포,숙박,여행 > 숙박 > 호텔,126.94828917227166,37.54184816112085,서울 마포구 마포대로 67,http://place.map.kakao.com/1990395068
발리모텔,숙박,"여행 > 숙박 > 여관,모텔",126.947297898216,37.593337824467,서울 서대문구 세검정로3길 56-10,http://place.map.kakao.com/16043313
폼모텔,숙박,"여행 > 숙박 > 여관,모텔",126.948025870523,37.5951112987684,서울 서대문구 간호대로1길 36,http://place.map.kakao.com/16296574
PPP Seoul,숙박,여행 > 숙박 > 펜션,126.946843074927,37.6023763627808,서울 서대문구 홍은중앙로9나길 55-13,http://place.map.kakao.com/220636303
54번가호텔,숙박,여행 > 숙박 > 호텔,126.95060161000626,37.480678166096354,서울 관악구 관악로17길 19,http://place.map.kakao.com/25973593
아비숑모텔,숙박,"여행 > 숙박 > 여관,모텔",126.949217462272,37.4811028555239,서울 관악구 관악로17길 46,http://place.map.kakao.com/16732401
신라스테이 마포,숙박,여행 > 숙박 > 호텔 > 신라스테이,126.94968259053644,37.542776792633845,서울 마포구 마포대로 83,http://place.map.kakao.com/26431825
롯데시티호텔 마포,숙박,여행 > 숙박 > 호텔 > 특급호텔,126.95042820650492,37.54459172069758,서울 마포구 마포대로 109,http://place.map.kakao.com/8325573
ZIP호텔,숙박,"여행 > 숙박 > 여관,모텔",126.95298339597196,37.47950962808079,서울 관악구 남부순환로224길 32,http://place.map.kakao.com/18839784
쉐르빌모텔,숙박,"여행 > 숙박 > 여관,모텔",126.95175136091,37.4790352005578,서울 관악구 남부순환로220길 49,http://place.map.kakao.com/8560250
바이올린모텔,숙박,"여행 > 숙박 > 여관,모텔",126.951800634191,37.4797704441684,서울 관악구 남부순환로220길 31,http://place.map.kakao.com/10410877
글래드 마포,숙박,여행 > 숙박 > 호텔,126.95135047702333,37.54278650154863,서울 마포구 마포대로 92,http://place.map.kakao.com/528383466
엔젤모텔,숙박,"여행 > 숙박 > 여관,모텔",126.95414172357847,37.482217615300485,서울 관악구 봉천로53길 7,http://place.map.kakao.com/16044570
폭스호텔,숙박,"여행 > 숙박 > 여관,모텔",126.95459344308104,37.4830962732481,서울 관악구 관악로 208-4,http://place.map.kakao.com/25814021
한라장모텔,숙박,"여행 > 숙박 > 여관,모텔",126.953857619471,37.4956001727288,서울 동작구 상도로 372-2,http://place.map.kakao.com/23905244
용봉장모텔,숙박,"여행 > 숙박 > 여관,모텔",126.954937682937,37.5123340627944,서울 동작구 노량진로28길 12,http://place.map.kakao.com/16444169
나루하우스,숙박,여행 > 숙박 > 게스트하우스,126.95487130660251,37.547419035239805,서울 마포구 마포대로12길 31,http://place.map.kakao.com/18848528
태창여관,숙박,"여행 > 숙박 > 여관,모텔",126.957974523811,37.5347232915418,서울 용산구 원효로39길 25-3,http://place.map.kakao.com/15460485
국제여관,숙박,"여행 > 숙박 > 여관,모텔",126.95685746338113,37.55889038225524,서울 서대문구 북아현로 16-6,http://place.map.kakao.com/16009532
자하문호텔,숙박,여행 > 숙박 > 호텔,126.95600301662,37.6088204087686,서울 종로구 진흥로 425,http://place.map.kakao.com/8059281
인더가든186,숙박,여행 > 숙박 > 게스트하우스,126.958522599938,37.5093548534584,서울 동작구 흑석로5길 93,http://place.map.kakao.com/732767643
평안모텔,숙박,"여행 > 숙박 > 여관,모텔",126.959951804728,37.5355492952639,서울 용산구 원효로41길 47-4,http://place.map.kakao.com/9542870
미담스테이,숙박,여행 > 숙박 > 민박,126.958360773158,37.5481834632346,서울 마포구 만리재옛6길 11-1,http://place.map.kakao.com/741250771
미라지모텔,숙박,"여행 > 숙박 > 여관,모텔",126.95945038973127,37.600629842124505,서울 종로구 세검정로6길 4,http://place.map.kakao.com/12685303
WO모텔 용산역,숙박,"여행 > 숙박 > 여관,모텔",126.962333524108,37.5241938559458,서울 용산구 한강대로7길 9,http://place.map.kakao.com/708278669
스카이모텔,숙박,"여행 > 숙박 > 여관,모텔",126.962211427896,37.5240352405236,서울 용산구 한강대로7길 9-5,http://place.map.kakao.com/7888963
앰배서더호텔 이비스스타일 서울용산,숙박,여행 > 숙박 > 호텔 > 특급호텔 > 앰배서더호텔,126.961763870598,37.532075636391,서울 용산구 청파로20길 95,http://place.map.kakao.com/1694378303
그랜드 머큐어 앰배서더 호텔 앤 레지던스 서울용산,숙박,여행 > 숙박 > 호텔 > 특급호텔 > 앰배서더호텔,126.9609401737401,37.53217537796159,서울 용산구 청파로20길 95,http://place.map.kakao.com/59564823
서울드래곤시티,숙박,여행 > 숙박 > 호텔 > 특급호텔,126.962764139611,37.5318164676656,서울 용산구 청파로20길 95,http://place.map.kakao.com/485944812
서부티엔디,숙박,여행 > 숙박 > 호텔,126.96294969600348,37.53179490199585,서울 용산구 청파로20길 95,http://place.map.kakao.com/10368893
화전모텔,숙박,"여행 > 숙박 > 여관,모텔",126.962784566224,37.5362457943906,서울 용산구 원효로 181-2,http://place.map.kakao.com/16765704
타운게스트하우스,숙박,여행 > 숙박 > 게스트하우스,126.962240308231,37.5565036827416,서울 마포구 손기정로 43,http://place.map.kakao.com/20807104
둥글하우스,숙박,여행 > 숙박 > 게스트하우스,126.96543215179,37.4773605135068,서울 관악구 남부순환로247가길 22,http://place.map.kakao.com/479719579
나인트리 프리미어 로카우스 호텔 서울 용산,숙박,여행 > 숙박 > 호텔,126.96438633518396,37.52747414054013,서울 용산구 한강대로23길 25,http://place.map.kakao.com/346968986
노보텔 스위트 앰배서더 서울용산,숙박,여행 > 숙박 > 호텔 > 특급호텔 > 앰배서더호텔,126.96319634966754,37.53176704808189,서울 용산구 청파로20길 95,http://place.map.kakao.com/620468162
노보텔 앰배서더 서울용산,숙박,여행 > 숙박 > 호텔 > 특급호텔 > 앰배서더호텔,126.963199752648,37.5317490291179,서울 용산구 청파로20길 95,http://place.map.kakao.com/308689557
샾호텔,숙박,"여행 > 숙박 > 여관,모텔",126.963133716019,37.5348944029479,서울 용산구 원효로56길 21-3,http://place.map.kakao.com/8174593
진양모텔,숙박,"여행 > 숙박 > 여관,모텔",126.96361216101,37.5468382050655,서울 용산구 효창원로 220,http://place.map.kakao.com/719642251
테마모텔,숙박,"여행 > 숙박 > 여관,모텔",126.964919905766,37.5669812981921,서울 서대문구 통일로 143-1,http://place.map.kakao.com/16041720
조이하슬라 오피스,숙박,여행 > 숙박 > 민박,126.964762810349,37.6049022420703,서울 종로구 평창문화로 29,http://place.map.kakao.com/900946628
호텔노블,숙박,"여행 > 숙박 > 여관,모텔",126.967009566421,37.5306752602642,서울 용산구 새창로 209,http://place.map.kakao.com/1992120783
콩스테이,숙박,여행 > 숙박 > 게스트하우스,126.965578223772,37.5532034474878,서울 용산구 만리재로28길 5-34,http://place.map.kakao.com/1515425457
금강모텔,숙박,"여행 > 숙박 > 여관,모텔",126.966999461903,37.5536038963365,서울 용산구 만리재로36길 16-1,http://place.map.kakao.com/16039746
계림모텔,숙박,"여행 > 숙박 > 여관,모텔",126.966917724208,37.5541805120838,서울 용산구 만리재로36길 5,http://place.map.kakao.com/16040707
동은여인숙,숙박,"여행 > 숙박 > 여관,모텔",126.967763456277,37.5560151772539,서울 중구 만리재로 207-10,http://place.map.kakao.com/10284704
영빈장여관,숙박,"여행 > 숙박 > 여관,모텔",126.96736674323,37.5625887425162,서울 서대문구 충정로6길 49-4,http://place.map.kakao.com/16821296
신라스테이 서대문,숙박,여행 > 숙박 > 호텔 > 신라스테이,126.966804196914,37.5651870590594,서울 서대문구 충정로 76,http://place.map.kakao.com/26431813
호텔아트리움바비엥2,숙박,여행 > 숙박 > 호텔,126.96788852899044,37.56520988386736,서울 중구 통일로 114,http://place.map.kakao.com/27507399
샘하우스154,숙박,여행 > 숙박 > 게스트하우스,126.967815669828,37.5793356641751,서울 종로구 필운대로5길 15,http://place.map.kakao.com/2135092363
심산재 한옥스테이게스트하우스,숙박,여행 > 숙박 > 게스트하우스,126.96787043937454,37.58097188388734,서울 종로구 옥인1길 10,http://place.map.kakao.com/1038204756
G하우스,숙박,여행 > 숙박 > 게스트하우스,126.967691648046,37.5964950351329,서울 종로구 백석동길 187,http://place.map.kakao.com/20601215
동산장여관,숙박,"여행 > 숙박 > 여관,모텔",126.969673089297,37.5466885494174,서울 용산구 청파로57길 7-6,http://place.map.kakao.com/16931201
MK리버티하우스 서울역본점,숙박,여행 > 숙박 > 게스트하우스,126.96863322326772,37.55460985521396,서울 용산구 청파로95길 5,http://place.map.kakao.com/25967774
K서울게스트하우스,숙박,여행 > 숙박 > 게스트하우스,126.968676828212,37.5585850674705,서울 중구 청파로 435-10,http://place.map.kakao.com/1768902909
프레이저플레이스 센트럴서울,숙박,여행 > 숙박 > 호텔,126.96979003758572,37.56253532765712,서울 중구 통일로 78,http://place.map.kakao.com/10879960
바비엥스위트,숙박,여행 > 숙박 > 호텔,126.968488793719,37.5643369803049,서울 중구 통일로 102,http://place.map.kakao.com/15214837
수모텔,숙박,"여행 > 숙박 > 여관,모텔",126.968329624286,37.5767021972625,서울 종로구 사직로9길 10,http://place.map.kakao.com/18782614
비빔밥게스트하우스,숙박,여행 > 숙박 > 게스트하우스,126.96853338054076,37.57673468754728,서울 종로구 사직로9가길 5-7,http://place.map.kakao.com/26598593
메모리스테이 MemoryStay,숙박,여행 > 숙박 > 민박,126.96944816202,37.5765376100749,서울 종로구 자하문로1길 49-22,http://place.map.kakao.com/781630222
헤브레 서울,숙박,여행 > 숙박 > 게스트하우스,126.969455295844,37.5784729475426,서울 종로구 필운대로 26-10,http://place.map.kakao.com/1836876656
오마이게스트하우스,숙박,여행 > 숙박 > 게스트하우스,126.969761965652,37.584379039792,서울 종로구 자하문로 97-13,http://place.map.kakao.com/1143159953
게스트하우스 더킴스,숙박,여행 > 숙박 > 게스트하우스,126.96874757700569,37.59512220850663,서울 종로구 백석동1길 13,http://place.map.kakao.com/144699502
호텔엘르인,숙박,여행 > 숙박 > 호텔,126.9721966279616,37.54041100648808,서울 용산구 한강대로71길 24,http://place.map.kakao.com/8001779
레인보우호텔,숙박,여행 > 숙박 > 호텔,126.972150984343,37.5414417395486,서울 용산구 한강대로71길 48,http://place.map.kakao.com/17081577
호텔더디자이너스 서울역점,숙박,여행 > 숙박 > 호텔,126.97157687392456,37.54555196222526,서울 용산구 한강대로 305,http://place.map.kakao.com/1623337984
코스테이 서울역점,숙박,여행 > 숙박 > 게스트하우스,126.97251815091424,37.54609909149076,서울 용산구 한강대로92길 3-6,http://place.map.kakao.com/1412578696
K그랜드호텔 서울,숙박,여행 > 숙박 > 호텔,126.972255387116,37.5528375980695,서울 용산구 한강대로 385,http://place.map.kakao.com/1263491301
라마다호텔앤스위트 서울남대문,숙박,여행 > 숙박 > 호텔 > 특급호텔 > 라마다호텔,126.97188584385984,37.56048878084385,서울 중구 칠패로 27,http://place.map.kakao.com/12783363
제이파크아일랜드,숙박,"여행 > 숙박 > 콘도,리조트",126.970642761383,37.5671630591305,서울 중구 정동길 17,http://place.map.kakao.com/241952011
나그네하우스,숙박,여행 > 숙박 > 게스트하우스,126.97168612894616,37.57680486239135,서울 종로구 자하문로1나길 6,http://place.map.kakao.com/1497338453
소윤재 바이 버틀러리,숙박,여행 > 숙박 > 펜션,126.970460651958,37.5811680761069,서울 종로구 자하문로 57-6,http://place.map.kakao.com/1464731277
수피아 게스트하우스,숙박,여행 > 숙박 > 게스트하우스,126.97163362539,37.5809196895411,서울 종로구 자하문로14길 17-7,http://place.map.kakao.com/884898260
하우재,숙박,여행 > 숙박 > 게스트하우스,126.974267084612,37.5344071191759,서울 용산구 한강대로62나길 11,http://place.map.kakao.com/325051499
한국소년탐험대,숙박,여행 > 숙박 > 게스트하우스,126.974791545781,37.5359390236221,서울 용산구 한강대로 198,http://place.map.kakao.com/24209930
벵가호텔 플랫폼 본사,숙박,여행 > 숙박 > 호텔,126.974469637976,37.5409566247079,서울 용산구 한강대로72길 21-7,http://place.map.kakao.com/731249474
게릴라하우스01,숙박,여행 > 숙박 > 게스트하우스,126.973390978462,37.5418745053403,서울 용산구 한강대로 262-5,http://place.map.kakao.com/1116082266
호텔뉴월드,숙박,"여행 > 숙박 > 여관,모텔",126.973521383041,37.5442856093476,서울 용산구 한강대로84길 21-13,http://place.map.kakao.com/16046939
로망스모텔,숙박,"여행 > 숙박 > 여관,모텔",126.973353964055,37.5441378077963,서울 용산구 한강대로84길 11-12,http://place.map.kakao.com/16068018
일일모텔,숙박,"여행 > 숙박 > 여관,모텔",126.97279672262152,37.54554864555059,서울 용산구 두텁바위로1길 7,http://place.map.kakao.com/18836278
조선호텔 포포인츠바이쉐라톤 서울역,숙박,여행 > 숙박 > 호텔 > 특급호텔 > 조선호텔,126.972922596708,37.5510636875957,서울 용산구 한강대로 366,http://place.map.kakao.com/1821839394
호텔스테이인 서울역,숙박,"여행 > 숙박 > 여관,모텔",126.97410261476506,37.55196224752896,서울 용산구 후암로57길 35,http://place.map.kakao.com/26793104
24게스트하우스 서울역점,숙박,여행 > 숙박 > 게스트하우스,126.97408801302714,37.551644191968336,서울 용산구 후암로57길 41,http://place.map.kakao.com/25449959
원미닛게스트하우스,숙박,여행 > 숙박 > 게스트하우스,126.974595209166,37.5543734251115,서울 중구 후암로58길 13,http://place.map.kakao.com/1362783646
안전장모텔,숙박,"여행 > 숙박 > 여관,모텔",126.974625512706,37.5584567521816,서울 중구 세종대로2나길 21,http://place.map.kakao.com/23993832
호텔레스 서울,숙박,여행 > 숙박 > 호텔,126.974487413858,37.5585206932198,서울 중구 세종대로 24-1,http://place.map.kakao.com/567318214
ENA스위트호텔,숙박,여행 > 숙박 > 호텔,126.97389077525318,37.56231015558714,서울 중구 세종대로11길 36,http://place.map.kakao.com/1906769625
보안스테이,숙박,여행 > 숙박 > 게스트하우스,126.97366871737,37.5790055490607,서울 종로구 효자로 33,http://place.map.kakao.com/2118382129
Hide & Seek 게스트하우스,숙박,여행 > 숙박 > 게스트하우스,126.972812078774,37.5780331822508,서울 종로구 자하문로6길 14,http://place.map.kakao.com/25046985
더채라이브러리,숙박,여행 > 숙박 > 게스트하우스,126.973296233714,37.5790784459026,서울 종로구 효자로7길 10-4,http://place.map.kakao.com/145900907
사당이층집,숙박,여행 > 숙박 > 게스트하우스,126.97659947555871,37.48194128069707,서울 동작구 동작대로15가길 15,http://place.map.kakao.com/624933648
타워모텔,숙박,"여행 > 숙박 > 여관,모텔",126.976116684546,37.5529717899432,서울 용산구 후암로49길 4,http://place.map.kakao.com/14561367
밀레니엄힐튼 서울(22년12월31일 영업종료),숙박,여행 > 숙박 > 호텔 > 특급호텔 > 힐튼호텔,126.9754866901112,37.555326869140345,서울 중구 소월로 50,http://place.map.kakao.com/23882610
서광장,숙박,"여행 > 숙박 > 여관,모텔",126.977306705349,37.5546983365803,서울 용산구 소월로 60,http://place.map.kakao.com/15790263
케이팝하우스,숙박,여행 > 숙박 > 게스트하우스,126.977165733992,37.5567886237909,서울 중구 퇴계로2길 20,http://place.map.kakao.com/1102607934
코트야드바이메리어트 서울남대문,숙박,여행 > 숙박 > 호텔 > 특급호텔 > 메리어트호텔,126.976938008129,37.5612503170701,서울 중구 남대문로 9,http://place.map.kakao.com/821799963
프레이저플레이스 남대문서울,숙박,여행 > 숙박 > 호텔,126.976426385174,37.5613763555678,서울 중구 세종대로 58,http://place.map.kakao.com/25429712
호텔그레이스리 서울,숙박,여행 > 숙박 > 호텔,126.9769107309752,37.56161791839677,서울 중구 세종대로12길 12,http://place.map.kakao.com/1330886736
24게스트하우스 서울시청점,숙박,여행 > 숙박 > 게스트하우스,126.976348366187,37.5647136308635,서울 중구 덕수궁길 7,http://place.map.kakao.com/27336166
코리아나호텔,숙박,여행 > 숙박 > 호텔,126.97663139666076,37.56813837281585,서울 중구 세종대로 135,http://place.map.kakao.com/23121414
글로카로카 광화문점,숙박,여행 > 숙박 > 호텔,126.976646060495,37.5683023569298,서울 중구 세종대로 135,http://place.map.kakao.com/1625147226
포시즌스호텔 서울,숙박,여행 > 숙박 > 호텔,126.975404685018,37.5706816338885,서울 종로구 새문안로 97,http://place.map.kakao.com/22959013
세림모텔,숙박,"여행 > 숙박 > 여관,모텔",126.979855997287,37.4849431405737,서울 동작구 사당로 291,http://place.map.kakao.com/16045286
한국문화체험관 츠요시노이에,숙박,여행 > 숙박 > 게스트하우스,126.978163477663,37.5506187789476,서울 용산구 후암로30길 17,http://place.map.kakao.com/11528978
드림게스트하우스,숙박,여행 > 숙박 > 게스트하우스,126.97844336956057,37.55718620381605,서울 중구 퇴계로6길 22-1,http://place.map.kakao.com/26643880
JJ게스트하우스,숙박,여행 > 숙박 > 게스트하우스,126.978532884301,37.5568177121922,서울 중구 퇴계로6가길 10,http://place.map.kakao.com/19071875
킴스명동호스텔,숙박,여행 > 숙박 > 유스호스텔,126.979841379578,37.5561223727958,서울 중구 소파로 25,http://place.map.kakao.com/12803224
호텔루미아 명동,숙박,여행 > 숙박 > 호텔,126.9796835344275,37.55808471802881,서울 중구 퇴계로8길 31-9,http://place.map.kakao.com/27173136
보코서울명동,숙박,여행 > 숙박 > 호텔,126.978544874544,37.5584187865618,서울 중구 퇴계로 52,http://place.map.kakao.com/1507405659
레스케이프호텔,숙박,여행 > 숙박 > 호텔 > 특급호텔 > 조선호텔,126.97935591995754,37.560012794944306,서울 중구 퇴계로 67,http://place.map.kakao.com/1220594086
24게스트하우스 명동타운점,숙박,여행 > 숙박 > 게스트하우스,126.978849066483,37.559326145538,서울 중구 퇴계로 61,http://place.map.kakao.com/26931235
스타힐스호텔,숙박,"여행 > 숙박 > 여관,모텔",126.977680414076,37.5614811149117,서울 중구 남대문로1길 8-1,http://place.map.kakao.com/735459590
24게스트하우스 명동에비뉴점,숙박,여행 > 숙박 > 게스트하우스,126.97769177530672,37.561336957584444,서울 중구 남대문로1길 6,http://place.map.kakao.com/24662056
호텔코지 명동,숙박,여행 > 숙박 > 호텔,126.979369288435,37.5607858526039,서울 중구 남대문시장길 61,http://place.map.kakao.com/25048571
소테츠 호텔즈 더 스프라지르 서울 명동,숙박,여행 > 숙박 > 호텔,126.978780385233,37.5620543516072,서울 중구 남대문로5길 15,http://place.map.kakao.com/2040574326
호텔8아워즈,숙박,여행 > 숙박 > 호텔,126.978001677468,37.5620758330026,서울 중구 남대문로1길 26-10,http://place.map.kakao.com/26889256
호텔피넛,숙박,"여행 > 숙박 > 여관,모텔",126.9778160155889,37.562214551740375,서울 중구 남대문로1길 26-8,http://place.map.kakao.com/306360827
호텔아이린시티,숙박,여행 > 숙박 > 호텔,126.977992622798,37.5620758313152,서울 중구 남대문로1길 26-10,http://place.map.kakao.com/8871739
호텔대우인,숙박,"여행 > 숙박 > 여관,모텔",126.97786112745638,37.56276056411788,서울 중구 세종대로14길 22-2,http://place.map.kakao.com/16556621
서울호텔신신,숙박,여행 > 숙박 > 호텔,126.97891499419096,37.562335486655485,서울 중구 남대문로5길 21,http://place.map.kakao.com/749201010
호텔토마스 명동,숙박,여행 > 숙박 > 호텔,126.97837600637706,37.56314178105397,서울 중구 세종대로16길 26,http://place.map.kakao.com/1549352295
트레블로지 명동 시티홀 호텔,숙박,여행 > 숙박 > 호텔,126.978078349656,37.5630741514274,서울 중구 세종대로16길 22,http://place.map.kakao.com/24065729
르서울호텔,숙박,여행 > 숙박 > 호텔,126.977747742057,37.5634362901449,서울 중구 남대문로1길 56,http://place.map.kakao.com/1680077232
더플라자호텔,숙박,여행 > 숙박 > 호텔 > 한화호텔,126.97811069981492,37.56469234685201,서울 중구 소공로 119,http://place.map.kakao.com/7943752
프레지던트호텔,숙박,여행 > 숙박 > 호텔,126.979386068845,37.5656079885064,서울 중구 을지로 16,http://place.map.kakao.com/8641502
뉴서울호텔,숙박,여행 > 숙박 > 호텔,126.9781765109669,37.56801523213501,서울 중구 세종대로22길 16,http://place.map.kakao.com/14562562
라엘하우스,숙박,여행 > 숙박 > 게스트하우스,126.978312959519,37.6127116826028,서울 종로구 평창길 338,http://place.map.kakao.com/526626030
넘버25 사당역점,숙박,"여행 > 숙박 > 여관,모텔",126.980980290426,37.4744123311494,서울 관악구 승방2길 13,http://place.map.kakao.com/502900434
메트로21호텔,숙박,"여행 > 숙박 > 여관,모텔",126.981002965402,37.4741564479445,서울 관악구 승방2길 7,http://place.map.kakao.com/12557204
램파트호텔,숙박,"여행 > 숙박 > 여관,모텔",126.98104256840828,37.47401679774331,서울 관악구 승방2길 3,http://place.map.kakao.com/23905501
호텔카일 사당점,숙박,"여행 > 숙박 > 여관,모텔",126.980665703525,37.4755962071465,서울 관악구 남현3길 75,http://place.map.kakao.com/2125506166
카리스호텔,숙박,여행 > 숙박 > 호텔,126.9808760832694,37.47519799501902,서울 관악구 승방2길 31,http://place.map.kakao.com/1152876677
SR 호텔 사당,숙박,여행 > 숙박 > 호텔,126.980414319458,37.477154912568,서울 동작구 동작대로1길 15,http://place.map.kakao.com/111253687
M모텔,숙박,"여행 > 숙박 > 여관,모텔",126.98084308447127,37.47603502781559,서울 관악구 남부순환로 2082-27,http://place.map.kakao.com/20746355
MRG호텔,숙박,"여행 > 숙박 > 여관,모텔",126.981372153369,37.480676211944,서울 동작구 동작대로9길 4,http://place.map.kakao.com/533517098
모텔코자자,숙박,"여행 > 숙박 > 여관,모텔",126.981253565599,37.484698296294,서울 동작구 사당로30길 5,http://place.map.kakao.com/8101976
포토박게스트하우스,숙박,여행 > 숙박 > 게스트하우스,126.982017209381,37.5441286328924,서울 용산구 신흥로27길 6-5,http://place.map.kakao.com/26607683
온리포유모텔,숙박,"여행 > 숙박 > 여관,모텔",126.98124243959542,37.54724596933885,서울 용산구 두텁바위로 85-5,http://place.map.kakao.com/1922596478
힐하우스호텔,숙박,여행 > 숙박 > 호텔,126.98205038494258,37.5567831604322,서울 중구 소공로3길 42,http://place.map.kakao.com/7993042
호텔파크힐 명동,숙박,여행 > 숙박 > 호텔,126.981751359604,37.557776914675,서울 중구 퇴계로12길 39-8,http://place.map.kakao.com/1862025405
알로프트 서울명동,숙박,여행 > 숙박 > 호텔,126.981922286996,37.562335985428,서울 중구 남대문로 56,http://place.map.kakao.com/396872952
크라운파크호텔 서울,숙박,여행 > 숙박 > 호텔,126.980776499589,37.5637665868218,서울 중구 남대문로7길 19,http://place.map.kakao.com/1300555248
웨스틴조선 서울,숙박,여행 > 숙박 > 호텔 > 특급호텔 > 조선호텔,126.98002023009,37.56446833738266,서울 중구 소공로 106,http://place.map.kakao.com/10686757
롯데호텔 서울,숙박,여행 > 숙박 > 호텔 > 특급호텔 > 롯데호텔,126.98101264795298,37.56538301228365,서울 중구 을지로 30,http://place.map.kakao.com/7855876
롯데호텔서울 이그제큐티브타워,숙박,여행 > 숙박 > 호텔 > 특급호텔 > 롯데호텔,126.980992840284,37.5653818378015,서울 중구 을지로 30,http://place.map.kakao.com/1550004210
요기는무인호텔,숙박,"여행 > 숙박 > 여관,모텔",126.982034396731,37.5668085478651,서울 중구 남대문로9길 8,http://place.map.kakao.com/408079183
호텔 미드시티 명동,숙박,여행 > 숙박 > 호텔,126.98101547127872,37.567638205575264,서울 중구 다동길 30,http://place.map.kakao.com/750620291
신라스테이 광화문,숙박,여행 > 숙박 > 호텔 > 신라스테이,126.98115799085134,37.57253694035176,서울 종로구 삼봉로 71,http://place.map.kakao.com/26993676
수송게스트하우스,숙박,여행 > 숙박 > 게스트하우스,126.98112275855236,37.573093749624114,서울 종로구 율곡로4길 59,http://place.map.kakao.com/1125097695
서머셋팰리스 서울,숙박,여행 > 숙박 > 호텔,126.98108380175456,37.57494708967333,서울 종로구 율곡로2길 7,http://place.map.kakao.com/25626178
소현당,숙박,여행 > 숙박 > 게스트하우스,126.981755256192,37.5789250853918,서울 종로구 율곡로1길 74-11,http://place.map.kakao.com/195701953
공심가 게스트하우스,숙박,여행 > 숙박 > 게스트하우스,126.980940422349,37.5778653875565,서울 종로구 율곡로1길 46,http://place.map.kakao.com/1260626863
사사로이,숙박,여행 > 숙박 > 게스트하우스,126.981390927432,37.5781060248808,서울 종로구 율곡로1길 40-59,http://place.map.kakao.com/786280047
코리아게스트하우스,숙박,여행 > 숙박 > 게스트하우스,126.982053351681,37.5821578968218,서울 종로구 삼청로4길 12-1,http://place.map.kakao.com/26514094
정연재,숙박,여행 > 숙박 > 게스트하우스,126.980685401554,37.5834262796958,서울 종로구 삼청로7길 19-14,http://place.map.kakao.com/631529313
더채 하우도,숙박,여행 > 숙박 > 민박,126.982030808492,37.5864538290574,서울 종로구 삼청로 124-4,http://place.map.kakao.com/1043201228
홍안게스트하우스,숙박,여행 > 숙박 > 게스트하우스,126.983641384078,37.5475562696595,서울 용산구 두텁바위로40길 32-6,http://place.map.kakao.com/315689156
남산힐호텔,숙박,"여행 > 숙박 > 여관,모텔",126.9824273016763,37.55660121564724,서울 중구 소공로3길 35,http://place.map.kakao.com/21653661
신민장,숙박,"여행 > 숙박 > 여관,모텔",126.982521324343,37.5562273156464,서울 중구 소공로3길 29-8,http://place.map.kakao.com/9200222
남산게스트하우스,숙박,여행 > 숙박 > 게스트하우스,126.98458638897768,37.55802689505579,서울 중구 퇴계로18길 67,http://place.map.kakao.com/23937687
남산길하우스,숙박,여행 > 숙박 > 게스트하우스,126.98475964927258,37.55754037901622,서울 중구 퇴계로18길 79-3,http://place.map.kakao.com/166751981
비마이게스트하우스,숙박,여행 > 숙박 > 게스트하우스,126.983883466818,37.5584511708847,서울 중구 소공로6가길 2,http://place.map.kakao.com/17894392
레드게스트하우스,숙박,여행 > 숙박 > 게스트하우스,126.984802477936,37.5584188568552,서울 중구 소공로6길 32,http://place.map.kakao.com/24855928
아이유게스트하우스,숙박,여행 > 숙박 > 게스트하우스,126.983693468534,37.5578060307833,서울 중구 소공로6나길 11,http://place.map.kakao.com/1071102166
남산 포레스트 인 명동,숙박,여행 > 숙박 > 게스트하우스,126.983978377287,37.5591936054286,서울 중구 퇴계로14길 29,http://place.map.kakao.com/1836104875
더 로드 호스텔,숙박,여행 > 숙박 > 게스트하우스,126.983995416002,37.5589043876752,서울 중구 소공로6길 13-8,http://place.map.kakao.com/1086674748
밀리오레호텔 명동,숙박,여행 > 숙박 > 호텔,126.984211134416,37.5610496904418,서울 중구 퇴계로 115,http://place.map.kakao.com/330850389
목시 서울 명동,숙박,여행 > 숙박 > 호텔,126.98275100575334,37.56140988485214,서울 중구 명동8나길 38,http://place.map.kakao.com/177174107
57명동호스텔,숙박,"여행 > 숙박 > 여관,모텔",126.98339058536516,37.56096308216818,서울 중구 명동2길 57,http://place.map.kakao.com/1546305700
데이즈호텔 명동,숙박,여행 > 숙박 > 호텔,126.983588657287,37.5609450899306,서울 중구 퇴계로 107,http://place.map.kakao.com/23700132
호텔스카이파크 명동1호점,숙박,여행 > 숙박 > 호텔,126.984113752896,37.561262312615,서울 중구 명동8나길 15,http://place.map.kakao.com/25612226
모헤닉호텔 서울명동,숙박,여행 > 숙박 > 호텔,126.98452125188,37.5610533354932,서울 중구 퇴계로 115,http://place.map.kakao.com/1280256164
이코노미호텔 명동프리미어점,숙박,여행 > 숙박 > 호텔,126.984430656916,37.5612911867261,서울 중구 명동8나길 9,http://place.map.kakao.com/25777439
르메르디앙 서울명동,숙박,여행 > 숙박 > 호텔,126.98268303793978,37.561662153979626,서울 중구 명동8나길 38,http://place.map.kakao.com/2124774684
사보이호텔,숙박,여행 > 숙박 > 호텔,126.984186092731,37.561720028656,서울 중구 명동8나길 10,http://place.map.kakao.com/11049685
아트래블 명동서울호스텔,숙박,여행 > 숙박 > 게스트하우스,126.984086386044,37.5622173654036,서울 중구 명동4길 31,http://place.map.kakao.com/1382953461
K그랜드호텔 명동,숙박,여행 > 숙박 > 호텔,126.98472023736,37.562103923564,서울 중구 명동8길 36,http://place.map.kakao.com/619773283
앰배서더호텔 이비스 서울명동,숙박,여행 > 숙박 > 호텔 > 특급호텔 > 앰배서더호텔,126.98299937639496,37.56418499012939,서울 중구 남대문로 78,http://place.map.kakao.com/17361103
호텔28 명동,숙박,여행 > 숙박 > 호텔 > 특급호텔 > 하얏트호텔,126.9839682179169,37.56435090898033,서울 중구 명동7길 13,http://place.map.kakao.com/1455421251
스탠포드호텔 명동,숙박,여행 > 숙박 > 호텔,126.98284080112089,37.56468231712421,서울 중구 남대문로 84,http://place.map.kakao.com/1877073295
라인호텔명동,숙박,여행 > 숙박 > 호텔,126.98373710193508,37.5653392702002,서울 중구 명동3길 36,http://place.map.kakao.com/182126048
메트로호텔,숙박,여행 > 숙박 > 호텔,126.98371564675584,37.565106810238625,서울 중구 명동9가길 14,http://place.map.kakao.com/8350578
호스텔아라125,숙박,여행 > 숙박 > 호텔,126.98453859459,37.564761839341,서울 중구 명동9길 21,http://place.map.kakao.com/101471342
호텔 드립앤드롭 명동,숙박,여행 > 숙박 > 호텔,126.98372344504,37.5656807458326,서울 중구 명동3길 44,http://place.map.kakao.com/1373724743
호스텔하루,숙박,여행 > 숙박 > 게스트하우스,126.98432038672225,37.56899829322578,서울 종로구 청계천로 61,http://place.map.kakao.com/27600427
MG호텔,숙박,"여행 > 숙박 > 여관,모텔",126.98481505557396,37.56894069417148,서울 종로구 청계천로 63-3,http://place.map.kakao.com/727821236
아미드호텔 서울,숙박,여행 > 숙박 > 호텔,126.98423926631,37.5725707287488,서울 종로구 인사동5길 38,http://place.map.kakao.com/1792810417
더프리마호텔 종로점,숙박,여행 > 숙박 > 호텔,126.983297339197,37.5730598395128,서울 종로구 우정국로 46,http://place.map.kakao.com/346715332
호텔썬비,숙박,여행 > 숙박 > 호텔,126.98476780538267,37.57306904835141,서울 종로구 인사동7길 26,http://place.map.kakao.com/14808423
나인트리 바이 파르나스 서울 인사동,숙박,여행 > 숙박 > 호텔,126.983578894622,37.5744834508474,서울 종로구 인사동길 49,http://place.map.kakao.com/1229659802
노스텔지어 히든재,숙박,여행 > 숙박 > 호텔,126.984172902,37.5812680183423,서울 종로구 북촌로9길 16-1,http://place.map.kakao.com/168330474
담소정,숙박,여행 > 숙박 > 게스트하우스,126.9843098712642,37.58135273003314,서울 종로구 북촌로9길 16-2,http://place.map.kakao.com/21159217
백일홍하우스,숙박,여행 > 숙박 > 게스트하우스,126.984421900257,37.5815996171318,서울 종로구 북촌로11길 9,http://place.map.kakao.com/1034801248
클라시코북촌,숙박,여행 > 숙박 > 게스트하우스,126.984159314218,37.5812788284439,서울 종로구 북촌로9길 16-1,http://place.map.kakao.com/1046670624
청춘재,숙박,여행 > 숙박 > 게스트하우스,126.983751502695,37.5824140249462,서울 종로구 북촌로11가길 21,http://place.map.kakao.com/14534175
자명서실,숙박,여행 > 숙박 > 펜션,126.982958822827,37.5832067874081,서울 종로구 북촌로11라길 11,http://place.map.kakao.com/1012903827
가인게스트하우스,숙박,여행 > 숙박 > 게스트하우스,126.984783695317,37.5839890989599,서울 종로구 북촌로11길 118,http://place.map.kakao.com/17106939
Gstay,숙박,여행 > 숙박 > 게스트하우스,126.985028152018,37.4825688505168,서울 서초구 방배천로18길 42,http://place.map.kakao.com/937789013
스타일호텔,숙박,"여행 > 숙박 > 여관,모텔",126.985962132895,37.4942388193984,서울 서초구 방배중앙로 171,http://place.map.kakao.com/520299218
2001호텔,숙박,"여행 > 숙박 > 여관,모텔",126.98625040965317,37.49467313865913,서울 서초구 방배중앙로 174,http://place.map.kakao.com/27059438
블루문모텔,숙박,"여행 > 숙박 > 여관,모텔",126.985746585966,37.4978860687945,서울 서초구 동광로19길 139,http://place.map.kakao.com/16762175
아트몬스테이,숙박,여행 > 숙박 > 게스트하우스,126.985201076369,37.5573449187487,서울 중구 퇴계로20나길 42,http://place.map.kakao.com/27496795
크립49게스트하우스,숙박,여행 > 숙박 > 게스트하우스,126.985667410737,37.5570926970153,서울 중구 퇴계로20나길 49,http://place.map.kakao.com/145486921
스타리아호스텔,숙박,여행 > 숙박 > 게스트하우스,126.98613796254,37.5584947049648,서울 중구 퇴계로20길 38,http://place.map.kakao.com/26857530
웰플러스,숙박,여행 > 숙박 > 게스트하우스,126.98583012257149,37.55847304448905,서울 중구 퇴계로20나길 9,http://place.map.kakao.com/1740298180
서울타워 게스트하우스,숙박,여행 > 숙박 > 게스트하우스,126.985626485369,37.5580405412144,서울 중구 퇴계로20나길 15-12,http://place.map.kakao.com/24524646
퍼시픽호텔,숙박,여행 > 숙박 > 호텔 > 특급호텔,126.9854314901355,37.55973709487564,서울 중구 퇴계로20길 2,http://place.map.kakao.com/8115356
더큐브호텔,숙박,여행 > 숙박 > 게스트하우스,126.986205809524,37.5588190718841,서울 중구 퇴계로20길 31,http://place.map.kakao.com/550473912
SSH 동도호텔,숙박,"여행 > 숙박 > 여관,모텔",126.984965221588,37.5595757579598,서울 중구 퇴계로18길 30,http://place.map.kakao.com/10294286
욜로게스트하우스,숙박,여행 > 숙박 > 게스트하우스,126.985567440634,37.5590388388703,서울 중구 퇴계로20나길 2-8,http://place.map.kakao.com/1358018345
자자백팩커스,숙박,여행 > 숙박 > 게스트하우스,126.986418587636,37.5588046805976,서울 중구 퇴계로20길 35,http://place.map.kakao.com/1817214999
L7 명동,숙박,여행 > 숙박 > 호텔 > 특급호텔 > 롯데호텔,126.98698855837377,37.561384298991165,서울 중구 퇴계로 137,http://place.map.kakao.com/26806179
서울프린스호텔,숙박,여행 > 숙박 > 호텔,126.986277904015,37.5606715300781,서울 중구 퇴계로 130,http://place.map.kakao.com/17358633
명동맘하우스,숙박,여행 > 숙박 > 게스트하우스,126.986653702432,37.5604661458734,서울 중구 퇴계로22길 11,http://place.map.kakao.com/25691768
나인트리바이파르나스 서울명동1,숙박,여행 > 숙박 > 호텔,126.986010627113,37.5615760994689,서울 중구 명동10길 51,http://place.map.kakao.com/18645255
솔라리아니시테츠호텔 서울명동,숙박,여행 > 숙박 > 호텔,126.98516383740936,37.562502220632545,서울 중구 명동8길 27,http://place.map.kakao.com/27140898
Mayone Hotel,숙박,"여행 > 숙박 > 여관,모텔",126.985965155301,37.5626356660969,서울 중구 명동10길 35-12,http://place.map.kakao.com/1529524241
스테이7 명동,숙박,여행 > 숙박 > 호텔,126.98581692188,37.5624356271478,서울 중구 명동10길 35-9,http://place.map.kakao.com/833647384
더그랜드호텔 명동점,숙박,여행 > 숙박 > 호텔,126.98718430408869,37.56173300612565,서울 중구 명동8가길 38,http://place.map.kakao.com/18166543
소테츠 프레사 인서울 명동,숙박,여행 > 숙박 > 호텔,126.985014198436,37.5636807051139,서울 중구 명동길 48,http://place.map.kakao.com/977716552
스텝인명동1,숙박,여행 > 숙박 > 게스트하우스,126.985349125387,37.5642069290123,서울 중구 명동길 55,http://place.map.kakao.com/26338181
로얄호텔서울,숙박,여행 > 숙박 > 호텔,126.98560265367244,37.56425741599385,서울 중구 명동길 61,http://place.map.kakao.com/24633671
호텔스카이파크 센트럴명동점,숙박,여행 > 숙박 > 호텔,126.98526076598937,37.56458173246226,서울 중구 명동9길 16,http://place.map.kakao.com/18282609
호텔스카이파크 명동2호점,숙박,여행 > 숙박 > 호텔,126.98506827946,37.5649240868361,서울 중구 명동9길 22,http://place.map.kakao.com/25620335
유에이치스위트 더 에비뉴,숙박,여행 > 숙박 > 호텔,126.986000167682,37.5690831979546,서울 종로구 종로12길 21,http://place.map.kakao.com/4618427
서울YMCA관광호텔,숙박,여행 > 숙박 > 호텔,126.985307144401,37.5704886666311,서울 종로구 종로 69,http://place.map.kakao.com/7946095
호텔 쿠레타케소 인사동 서울,숙박,여행 > 숙박 > 호텔,126.98717228933047,37.57239538985379,서울 종로구 인사동길 20-9,http://place.map.kakao.com/328271369
예하도예 게스트하우스,숙박,여행 > 숙박 > 게스트하우스,126.985111664379,37.574420584475,서울 종로구 인사동12길 10,http://place.map.kakao.com/9281128
보눔1957,숙박,여행 > 숙박 > 호텔,126.9848543632475,37.58165103004802,서울 종로구 북촌로 53,http://place.map.kakao.com/519483371
노스탤지어 웰컴센터,숙박,여행 > 숙박 > 호텔,126.985293744031,37.581069944686,서울 종로구 북촌로8길 1,http://place.map.kakao.com/243931755
인우하우스,숙박,여행 > 숙박 > 게스트하우스,126.98711618915544,37.58263788652417,서울 종로구 계동6길 9,http://place.map.kakao.com/25036123
북촌애,숙박,여행 > 숙박 > 게스트하우스,126.987107146911,37.5825513901623,서울 종로구 계동6길 7,http://place.map.kakao.com/534865332
토다기게스트하우스,숙박,여행 > 숙박 > 게스트하우스,126.987088931784,37.5831352319255,서울 종로구 창덕궁길 160-1,http://place.map.kakao.com/19824933
연우하우스,숙박,여행 > 숙박 > 게스트하우스,126.98533650522972,37.58239260863399,서울 종로구 북촌로12길 5-13,http://place.map.kakao.com/14561975
이태원인,숙박,여행 > 숙박 > 게스트하우스,126.989398739389,37.5336779242969,서울 용산구 녹사평대로32길 9,http://place.map.kakao.com/764947220
리틀엔타워,숙박,여행 > 숙박 > 게스트하우스,126.988739731456,37.5372061820457,서울 용산구 녹사평대로46길 28-5,http://place.map.kakao.com/1500688553
덕성모텔,숙박,"여행 > 숙박 > 여관,모텔",126.987304173406,37.5423345286528,서울 용산구 신흥로 41-1,http://place.map.kakao.com/11094408
마마게스트하우스,숙박,여행 > 숙박 > 게스트하우스,126.988356251779,37.5584877365892,서울 중구 소파로4길 34-1,http://place.map.kakao.com/22003193
세종호텔,숙박,여행 > 숙박 > 호텔,126.9879687117535,37.56141954181265,서울 중구 퇴계로 145,http://place.map.kakao.com/13323689
호텔스카이파크 명동3호점,숙박,여행 > 숙박 > 호텔,126.98726360540698,37.561302338279155,서울 중구 퇴계로 139,http://place.map.kakao.com/14539228
앰배서더호텔 이비스스타일 서울명동,숙박,여행 > 숙박 > 호텔 > 특급호텔 > 앰배서더호텔,126.9893800588118,37.56168276823622,서울 중구 삼일대로 302,http://place.map.kakao.com/26475078
유에이치스위트 명동 본관,숙박,여행 > 숙박 > 호텔,126.987822615698,37.5619772437818,서울 중구 명동8가길 49,http://place.map.kakao.com/162572912
호텔크레토명동,숙박,여행 > 숙박 > 호텔,126.9880772809879,37.5619583488441,서울 중구 명동8가길 53,http://place.map.kakao.com/26909004
헨나호텔 서울명동,숙박,여행 > 숙박 > 호텔,126.988319482918,37.5620232448122,서울 중구 명동8가길 59,http://place.map.kakao.com/1685853917
K스테이게스트하우스,숙박,여행 > 숙박 > 게스트하우스,126.98845983076976,37.562019654627235,서울 중구 명동8가길 61,http://place.map.kakao.com/1963371214
이화인명동 게스트하우스,숙박,여행 > 숙박 > 게스트하우스,126.987766864955,37.5637567061156,서울 중구 삼일대로9길 2-1,http://place.map.kakao.com/463461417
조선호텔 포포인츠바이쉐라톤 서울명동,숙박,여행 > 숙박 > 호텔 > 특급호텔 > 조선호텔,126.98942364960428,37.56557687854458,서울 중구 삼일대로10길 36,http://place.map.kakao.com/579976895
트레블로지 명동을지로호텔,숙박,여행 > 숙박 > 호텔,126.9894144522256,37.56658238927269,서울 중구 수표로 61,http://place.map.kakao.com/26600515
롯데시티호텔 명동,숙박,여행 > 숙박 > 호텔 > 특급호텔,126.988033472394,37.5669534676886,서울 중구 삼일대로 362,http://place.map.kakao.com/26784273
호텔더디자이너스 종로점,숙박,여행 > 숙박 > 호텔,126.98906089205312,37.569363730844536,서울 종로구 수표로 89-8,http://place.map.kakao.com/22249076
르몽호텔,숙박,"여행 > 숙박 > 여관,모텔",126.98848141257152,37.56887083116287,서울 종로구 종로16길 28,http://place.map.kakao.com/8164491
부티크호텔K 종로점,숙박,"여행 > 숙박 > 여관,모텔",126.98826854983936,37.56924472335917,서울 종로구 삼일대로 388-7,http://place.map.kakao.com/27494882
목시 서울 인사동,숙박,여행 > 숙박 > 호텔,126.98935703729896,37.57234425031362,서울 종로구 돈화문로11길 37,http://place.map.kakao.com/1390107137
N285 호텔 인사동,숙박,여행 > 숙박 > 호텔,126.987411147101,37.5723485638237,서울 종로구 삼일대로 423,http://place.map.kakao.com/199481747
메이커스X이쁘다,숙박,여행 > 숙박 > 호텔,126.9895404174086,37.572359583619416,서울 종로구 돈화문로11길 33,http://place.map.kakao.com/27479761
호텔더메이,숙박,"여행 > 숙박 > 여관,모텔",126.989557448074,37.57199558311407,서울 종로구 수표로26길 10,http://place.map.kakao.com/785327967
호텔라와,숙박,여행 > 숙박 > 호텔,126.989178192782,37.5722766594252,서울 종로구 수표로26길 3,http://place.map.kakao.com/509500959
오라카이 인사동 스위츠,숙박,여행 > 숙박 > 호텔,126.98735328766897,37.57310539343618,서울 종로구 인사동4길 18,http://place.map.kakao.com/1330378467
호텔야자 종로점,숙박,"여행 > 숙박 > 여관,모텔",126.9889199798759,37.57308392699683,서울 종로구 수표로28길 9-1,http://place.map.kakao.com/420513825
헤르츠호텔,숙박,"여행 > 숙박 > 여관,모텔",126.98892908869554,37.5727271338433,서울 종로구 돈화문로11길 44,http://place.map.kakao.com/27405806
앰배서더호텔 이비스 서울인사동,숙박,여행 > 숙박 > 호텔 > 특급호텔 > 앰배서더호텔,126.9893657997042,37.57440843041503,서울 종로구 삼일대로30길 31,http://place.map.kakao.com/21582653
크라운호텔,숙박,여행 > 숙박 > 호텔,126.988186289905,37.5740569303127,서울 종로구 삼일대로30길 9,http://place.map.kakao.com/10817967
아이콘 호텔,숙박,여행 > 숙박 > 호텔,126.988883491758,37.5748606853253,서울 종로구 삼일대로32가길 20,http://place.map.kakao.com/18678369
남현당,숙박,여행 > 숙박 > 게스트하우스,126.988109240674,37.5745110239353,서울 종로구 삼일대로 446-15,http://place.map.kakao.com/18607843
제이힐하우스,숙박,여행 > 숙박 > 게스트하우스,126.988921771265,37.5762743493924,서울 종로구 율곡로6길 26-12,http://place.map.kakao.com/1735120900
시통하우스,숙박,여행 > 숙박 > 게스트하우스,126.987265628617,37.5826595265836,서울 종로구 계동6길 10,http://place.map.kakao.com/7965717
M모텔,숙박,"여행 > 숙박 > 여관,모텔",126.99175671555224,37.49136695480092,서울 서초구 방배로 200,http://place.map.kakao.com/15981717
에이원호텔,숙박,여행 > 숙박 > 호텔,126.99163888254805,37.5340168804998,서울 용산구 이태원로20길 2-8,http://place.map.kakao.com/1096893081
서울유스호스텔,숙박,여행 > 숙박 > 유스호스텔,126.99104649124398,37.55849247623213,서울 중구 퇴계로26가길 6,http://place.map.kakao.com/7934954
오리엔스호텔&레지던스,숙박,여행 > 숙박 > 호텔,126.991149302122,37.560023277988,서울 중구 삼일대로2길 50,http://place.map.kakao.com/26553457
디어스 명동,숙박,여행 > 숙박 > 호텔,126.991294081463,37.5608089580339,서울 중구 퇴계로 176,http://place.map.kakao.com/154728097
트레블로지 명동남산호텔,숙박,여행 > 숙박 > 호텔,126.990650994796,37.562537020514,서울 중구 수표로 16,http://place.map.kakao.com/1101101034
뉴스테이인 명동점,숙박,여행 > 숙박 > 유스호스텔,126.990610266846,37.5623910558378,서울 중구 수표로 14,http://place.map.kakao.com/836329797
G2호텔,숙박,여행 > 숙박 > 호텔,126.990419995206,37.563349700835,서울 중구 수표로 24,http://place.map.kakao.com/1420845534
나인트리바이파르나스 서울명동2,숙박,여행 > 숙박 > 호텔,126.990831861214,37.5643984932914,서울 중구 마른내로 28,http://place.map.kakao.com/2029809639
미오디자인레지던스호텔,숙박,여행 > 숙박 > 호텔,126.99161952170878,37.56547253928949,서울 중구 충무로5길 22,http://place.map.kakao.com/1324617595
솔게스트하우스 서울명동점,숙박,여행 > 숙박 > 게스트하우스,126.990944729216,37.5670330145151,서울 중구 을지로11길 14,http://place.map.kakao.com/1081710585
베뉴지호텔,숙박,여행 > 숙박 > 호텔,126.99074079235017,37.56859442433215,서울 종로구 청계천로 117,http://place.map.kakao.com/27367234
다나호텔,숙박,"여행 > 숙박 > 여관,모텔",126.99006834898108,37.56916289789328,서울 종로구 수표로18길 10,http://place.map.kakao.com/541084582
k world호텔,숙박,여행 > 숙박 > 호텔,126.991265936316,37.569217052299,서울 종로구 수표로18길 28,http://place.map.kakao.com/1579817158
더포스트호텔,숙박,"여행 > 숙박 > 여관,모텔",126.9905890001531,37.56949450689597,서울 종로구 수표로18길 15-1,http://place.map.kakao.com/1639028260
나포레호텔,숙박,여행 > 숙박 > 호텔,126.990745275155,37.5689575259117,서울 종로구 수표로18가길 17,http://place.map.kakao.com/26102099
IMT모텔,숙박,"여행 > 숙박 > 여관,모텔",126.99030041138688,37.569051193739085,서울 종로구 수표로18가길 8,http://place.map.kakao.com/885498048
누누모텔,숙박,"여행 > 숙박 > 여관,모텔",126.98965720457603,37.570969358376544,서울 종로구 수표로22길 6,http://place.map.kakao.com/8683039
심플스테이,숙박,"여행 > 숙박 > 여관,모텔",126.989703438277,37.5722550825233,서울 종로구 수표로26길 11,http://place.map.kakao.com/117670965
아마레호텔,숙박,"여행 > 숙박 > 여관,모텔",126.98977487004149,37.57140274733389,서울 종로구 수표로22길 7,http://place.map.kakao.com/1562701298
호텔팝리즈프리미어,숙박,"여행 > 숙박 > 여관,모텔",126.990165440973,37.5711018481116,서울 종로구 수표로22길 16,http://place.map.kakao.com/12701856
T모텔,숙박,"여행 > 숙박 > 여관,모텔",126.99067256967082,37.57105413652017,서울 종로구 수표로22길 20-3,http://place.map.kakao.com/20536948
호텔에비뉴162,숙박,"여행 > 숙박 > 여관,모텔",126.98983036107144,37.57122435507467,서울 종로구 수표로22길 9,http://place.map.kakao.com/467832356
피카소모텔,숙박,"여행 > 숙박 > 여관,모텔",126.989979774167,37.5712784275644,서울 종로구 수표로22길 11,http://place.map.kakao.com/17736494
비욘드 레지던스 종로,숙박,"여행 > 숙박 > 여관,모텔",126.99003966027,37.5720929322545,서울 종로구 수표로26길 18,http://place.map.kakao.com/2073128458
호텔팝3,숙박,"여행 > 숙박 > 여관,모텔",126.98990622291126,37.57107840035654,서울 종로구 수표로22길 10,http://place.map.kakao.com/1073329836
호스텔토미,숙박,여행 > 숙박 > 게스트하우스,126.99119740689396,37.57442479910375,서울 종로구 돈화문로 66,http://place.map.kakao.com/77503819
궁게스트하우스,숙박,여행 > 숙박 > 게스트하우스,126.99143513619538,37.57438156884312,서울 종로구 율곡로8길 67,http://place.map.kakao.com/22581773
쿠즈호텔,숙박,"여행 > 숙박 > 여관,모텔",126.98994173659992,37.57635282722031,서울 종로구 돈화문로11가길 83,http://place.map.kakao.com/11640576
비원게스트하우스,숙박,여행 > 숙박 > 게스트하우스,126.989933849121,37.5760789242309,서울 종로구 돈화문로11가길 77-4,http://place.map.kakao.com/7916246
노블관광호텔,숙박,여행 > 숙박 > 호텔,126.98967000156222,37.57666454782383,서울 종로구 율곡로6길 13-3,http://place.map.kakao.com/10274647
씨티파크모텔,숙박,"여행 > 숙박 > 여관,모텔",126.98983416981308,37.57651499700377,서울 종로구 돈화문로11가길 89,http://place.map.kakao.com/18278060
순라스테이,숙박,"여행 > 숙박 > 여관,모텔",126.9911416706339,37.57668088532888,서울 종로구 율곡로10길 17,http://place.map.kakao.com/1470378015
몬드리안 서울이태원,숙박,여행 > 숙박 > 호텔,126.993107954052,37.5285641152689,서울 용산구 장문로 23,http://place.map.kakao.com/1172632105
아마존게스트하우스,숙박,여행 > 숙박 > 게스트하우스,126.993044214849,37.5327087181511,서울 용산구 녹사평대로26가길 25,http://place.map.kakao.com/1834958942
해밀톤호텔,숙박,여행 > 숙박 > 호텔,126.99355768412204,37.53482159453022,서울 용산구 이태원로 179,http://place.map.kakao.com/14560349
큐브게스트하우스,숙박,여행 > 숙박 > 게스트하우스,126.992075420195,37.5357792681381,서울 용산구 이태원로23길 28-4,http://place.map.kakao.com/26611909
제이제이 게스트하우스,숙박,여행 > 숙박 > 게스트하우스,126.99409688198088,37.5410421289471,서울 용산구 회나무로39길 6-17,http://place.map.kakao.com/1866748694
영인호텔,숙박,여행 > 숙박 > 호텔,126.993218556083,37.5565095258442,서울 중구 필동로8길 77,http://place.map.kakao.com/2103225477
홈즈스테이 명동,숙박,여행 > 숙박 > 호텔,126.992878557087,37.5614911187925,서울 중구 충무로 3,http://place.map.kakao.com/1214855792
솔라고 명동호텔&레지던스,숙박,여행 > 숙박 > 호텔,126.994001224107,37.5627805073357,서울 중구 충무로2길 9,http://place.map.kakao.com/1555302767
G3호텔,숙박,여행 > 숙박 > 호텔,126.992915877113,37.5618100738675,서울 중구 충무로 7,http://place.map.kakao.com/305725294
위코스테이 남산,숙박,여행 > 숙박 > 펜션,126.992860447458,37.5614956226824,서울 중구 충무로 3,http://place.map.kakao.com/1239127720
레인보우호텔 명동점,숙박,여행 > 숙박 > 유스호스텔,126.992126918061,37.5625100982635,서울 중구 퇴계로31길 29,http://place.map.kakao.com/26613616
어반스테이 명동,숙박,여행 > 숙박 > 호텔,126.993389976334,37.5633661224065,서울 중구 충무로 24,http://place.map.kakao.com/803726647
스테이비호텔 명동,숙박,여행 > 숙박 > 호텔,126.992787833994,37.5633282453087,서울 중구 충무로 23-1,http://place.map.kakao.com/26226666
꼬모까사,숙박,여행 > 숙박 > 게스트하우스,126.99340355492,37.5634075690016,서울 중구 충무로 24,http://place.map.kakao.com/859006377
호텔베네,숙박,여행 > 숙박 > 호텔,126.992389247295,37.5650437172547,서울 중구 충무로5길 3,http://place.map.kakao.com/27424441
라이프인을지로,숙박,"여행 > 숙박 > 여관,모텔",126.993082997324,37.5660348556479,서울 중구 충무로 54-3,http://place.map.kakao.com/1781327783
서울맘게스트하우스,숙박,여행 > 숙박 > 게스트하우스,126.994041644436,37.5668746361561,서울 중구 을지로15길 6-15,http://place.map.kakao.com/119571727
센트럴호텔,숙박,여행 > 숙박 > 호텔,126.99290616206862,37.56877477342571,서울 종로구 청계천로 137,http://place.map.kakao.com/12182231
아임그린게스트하우스,숙박,여행 > 숙박 > 게스트하우스,126.99283712174706,37.59232854924019,서울 성북구 성북로23나길 4,http://place.map.kakao.com/563598702
정산모텔,숙박,"여행 > 숙박 > 여관,모텔",126.995174249422,37.4857881030865,서울 서초구 방배로 130,http://place.map.kakao.com/14557877
서래마을게스트하우스,숙박,여행 > 숙박 > 게스트하우스,126.996240985234,37.4983193519308,서울 서초구 사평대로18길 16-3,http://place.map.kakao.com/26896702
PJHOUSE,숙박,여행 > 숙박 > 게스트하우스,126.995361565179,37.528448897055,서울 용산구 장문로9가길 19,http://place.map.kakao.com/24211626
이태원게스트하우스,숙박,여행 > 숙박 > 게스트하우스,126.996480306452,37.5314222408011,서울 용산구 우사단로 11-1,http://place.map.kakao.com/1710191340
H호스텔,숙박,여행 > 숙박 > 게스트하우스,126.99458068771,37.5320817018379,서울 용산구 보광로 103-2,http://place.map.kakao.com/1647820289
서울큐브 이태원 서울용산,숙박,여행 > 숙박 > 게스트하우스,126.99609550592292,37.53400359692189,서울 용산구 우사단로14길 8,http://place.map.kakao.com/1317909174
G게스트하우스,숙박,여행 > 숙박 > 게스트하우스,126.99496188709664,37.533208871132,서울 용산구 보광로60길 14-38,http://place.map.kakao.com/24767157
뷰모텔,숙박,"여행 > 숙박 > 여관,모텔",126.996610300044,37.5339414437559,서울 용산구 우사단로14길 14-5,http://place.map.kakao.com/26078275
마고게스트하우스,숙박,여행 > 숙박 > 게스트하우스,126.994893556136,37.556354638598,서울 중구 퇴계로36가길 90-6,http://place.map.kakao.com/19833565
스테이락호텔,숙박,여행 > 숙박 > 호텔,126.99501767687262,37.56193361781335,서울 중구 퇴계로 211-5,http://place.map.kakao.com/443260534
달콤게스트하우스,숙박,여행 > 숙박 > 게스트하우스,126.9966983774768,37.563507717717414,서울 중구 마른내로8길 13,http://place.map.kakao.com/15215223
호텔PJ 명동,숙박,여행 > 숙박 > 호텔,126.99569887431603,37.56480782321409,서울 중구 마른내로 71,http://place.map.kakao.com/10623423
호텔국도,숙박,여행 > 숙박 > 호텔,126.99628738054786,37.56619537719137,서울 중구 을지로 164,http://place.map.kakao.com/8835460
호텔제로,숙박,"여행 > 숙박 > 여관,모텔",126.996852975867,37.574580056435,서울 종로구 창경궁로 135-9,http://place.map.kakao.com/14706772
종로스테이 게스트하우스,숙박,여행 > 숙박 > 게스트하우스,126.996178263965,37.5750918014977,서울 종로구 동순라길 98,http://place.map.kakao.com/1995096921
슬로우스테이다,숙박,여행 > 숙박 > 게스트하우스,126.994687790982,37.5852324297636,서울 종로구 성균관로5길 55-3,http://place.map.kakao.com/1152120521
어메이징하우스,숙박,여행 > 숙박 > 게스트하우스,126.999257843857,37.5291121230794,서울 용산구 보광로30길 36-12,http://place.map.kakao.com/2053263725
보광여관,숙박,"여행 > 숙박 > 여관,모텔",126.997339008831,37.5316421075892,서울 용산구 우사단로4길 11,http://place.map.kakao.com/9047183
임피리얼팰리스 부티크호텔,숙박,여행 > 숙박 > 호텔,126.9982304434218,37.53536506045079,서울 용산구 이태원로 221,http://place.map.kakao.com/24211294
그랜드하얏트 서울,숙박,여행 > 숙박 > 호텔 > 특급호텔 > 하얏트호텔,126.99708075146782,37.539444767461234,서울 용산구 소월로 322,http://place.map.kakao.com/18661190
멀린호텔,숙박,"여행 > 숙박 > 여관,모텔",126.99906170311527,37.5626040606827,서울 중구 퇴계로 245,http://place.map.kakao.com/683504425
더캡슐 명동점,숙박,여행 > 숙박 > 게스트하우스,126.99885682574124,37.56352037229717,서울 중구 퇴계로45길 23,http://place.map.kakao.com/1543680062
청계하우스,숙박,여행 > 숙박 > 게스트하우스,126.998727696197,37.5692822402005,서울 종로구 청계천로 189-1,http://place.map.kakao.com/18841303
호스텔제이스테이,숙박,여행 > 숙박 > 유스호스텔,126.998528485522,37.5687092047015,서울 중구 청계천로 188,http://place.map.kakao.com/470601795
힙지게스트하우스,숙박,여행 > 숙박 > 게스트하우스,126.99756295277184,37.56849024677971,서울 중구 창경궁로 67-6,http://place.map.kakao.com/1658995346
트래블러스A코리아호스텔,숙박,여행 > 숙박 > 게스트하우스,126.998930327412,37.56834250379904,서울 중구 을지로27길 31-2,http://place.map.kakao.com/15905986
호텔아트리움 종로,숙박,여행 > 숙박 > 호텔,126.99812091009494,37.5718581777545,서울 종로구 창경궁로 106,http://place.map.kakao.com/2135788697
호텔앳홈,숙박,여행 > 숙박 > 호텔,126.99925514792496,37.57266187796469,서울 종로구 종로31길 40,http://place.map.kakao.com/18243678
오라카이대학로호텔,숙박,여행 > 숙박 > 호텔,126.99871853290132,37.57557118553275,서울 종로구 율곡로 180,http://place.map.kakao.com/32093597
메이플레이스호텔,숙박,여행 > 숙박 > 호텔,126.99874569286844,37.57610457458356,서울 종로구 율곡로 179,http://place.map.kakao.com/24787361
SLA,숙박,여행 > 숙박 > 호텔,126.997595525987,37.5763532312322,서울 종로구 창경궁로 158,http://place.map.kakao.com/9315092
쉘라근,숙박,"여행 > 숙박 > 여관,모텔",126.99776061252842,37.58278903429381,서울 종로구 창경궁로 229-8,http://place.map.kakao.com/18755239
봉하우스,숙박,여행 > 숙박 > 게스트하우스,126.99776282233276,37.58460994184031,서울 종로구 성균관로4길 5,http://place.map.kakao.com/196584375
혜화1938,숙박,여행 > 숙박 > 펜션,126.998695534218,37.589597851982,서울 종로구 성균관로16길 7,http://place.map.kakao.com/913029034
스테이카키,숙박,여행 > 숙박 > 게스트하우스,126.99995926924,37.5340388004962,서울 용산구 이태원로36길 19-8,http://place.map.kakao.com/58944026
반얀트리클럽앤스파서울,숙박,여행 > 숙박 > 호텔 > 특급호텔,127.00118824486688,37.55069827798053,서울 중구 장충단로 60,http://place.map.kakao.com/18059533
현대레지던스,숙박,여행 > 숙박 > 호텔,127.000747028065,37.5638510411416,서울 중구 마른내로12길 7-4,http://place.map.kakao.com/21736911
모닝스카이호텔,숙박,여행 > 숙박 > 호텔,126.999900395927,37.5640997184529,서울 중구 퇴계로45길 32-37,http://place.map.kakao.com/26935264
파이브호텔 종로,숙박,여행 > 숙박 > 호텔,126.999520024554,37.5742160955285,서울 종로구 창경궁로16가길 9,http://place.map.kakao.com/67654688
팰리스모텔,숙박,"여행 > 숙박 > 여관,모텔",127.00021284704,37.5839612477208,서울 종로구 창경궁로 258-6,http://place.map.kakao.com/24690483
화이트래빗,숙박,여행 > 숙박 > 게스트하우스,127.001209244624,37.5896663284195,서울 종로구 혜화로6가길 14,http://place.map.kakao.com/25737963
삼성모텔,숙박,"여행 > 숙박 > 여관,모텔",127.002371202148,37.5266721885697,서울 용산구 장문로 116,http://place.map.kakao.com/11144978
통일여관,숙박,"여행 > 숙박 > 여관,모텔",127.002122312955,37.5265496570248,서울 용산구 서빙고로95길 22,http://place.map.kakao.com/16822574
앰배서더 서울 풀만,숙박,여행 > 숙박 > 호텔 > 특급호텔 > 앰배서더호텔,127.002174200281,37.5602677598736,서울 중구 동호로 287,http://place.map.kakao.com/2049779313
호텔스카이파크 동대문1호점,숙박,여행 > 숙박 > 호텔,127.002141491078,37.5642222345717,서울 중구 동호로 335,http://place.map.kakao.com/25613021
베이튼호텔 동대문,숙박,여행 > 숙박 > 호텔,127.00277537258408,37.565202505267926,서울 중구 동호로 346,http://place.map.kakao.com/24709139
글로리인,숙박,여행 > 숙박 > 호텔,127.00207360339844,37.565098905120784,서울 중구 동호로 343-1,http://place.map.kakao.com/27229813
K게스트하우스 동대문1호점,숙박,여행 > 숙박 > 게스트하우스,127.002028330634,37.5651881045273,서울 중구 동호로 345,http://place.map.kakao.com/26983862
라마다바이윈덤 서울동대문,숙박,여행 > 숙박 > 호텔 > 특급호텔 > 라마다호텔,127.00269390186467,37.56588906618329,서울 중구 동호로 354,http://place.map.kakao.com/13111137
나인트리 바이 파르나스 서울 동대문,숙박,여행 > 숙박 > 호텔,127.002947472905,37.5665828270408,서울 중구 을지로 224,http://place.map.kakao.com/438884815
트레블로지동대문호텔,숙박,여행 > 숙박 > 호텔,127.001883480725,37.5664134615702,서울 중구 동호로 359,http://place.map.kakao.com/423104394
웨스턴 코업호텔&레지던스,숙박,여행 > 숙박 > 호텔,127.0033243905165,37.56645307361206,서울 중구 을지로 228,http://place.map.kakao.com/25613020
에이큐브호텔 동대문,숙박,여행 > 숙박 > 호텔,127.001729536981,37.5661792049696,서울 중구 동호로35길 5,http://place.map.kakao.com/27399074
뉴천지호텔,숙박,여행 > 숙박 > 호텔,127.003354926281,37.5658836432733,서울 중구 을지로38길 20,http://place.map.kakao.com/8834824
호텔 U5,숙박,여행 > 숙박 > 호텔,127.001859735297,37.5673973494609,서울 중구 동호로 369,http://place.map.kakao.com/1601963134
엘케이호스텔,숙박,"여행 > 숙박 > 여관,모텔",127.003577003631,37.5706228740602,서울 종로구 종로 232-5,http://place.map.kakao.com/1227261224
이화정,숙박,"여행 > 숙박 > 여관,모텔",127.00335646494042,37.57494855749388,서울 종로구 율곡로14길 25-1,http://place.map.kakao.com/10760973
글루호텔,숙박,여행 > 숙박 > 호텔,127.003962145282,37.5757981766234,서울 종로구 율곡로 228,http://place.map.kakao.com/1022744329
백운산장,숙박,"여행 > 숙박 > 산장,별장",127.002942643778,37.6738832579108,서울 강북구 삼양로179길 283,http://place.map.kakao.com/7886971
JW메리어트호텔서울,숙박,여행 > 숙박 > 호텔 > 특급호텔 > 메리어트호텔,127.00469347243684,37.504044310271155,서울 서초구 신반포로 176,http://place.map.kakao.com/195802694
한남67호텔,숙박,"여행 > 숙박 > 여관,모텔",127.005643426634,37.5334223810015,서울 용산구 대사관로 67,http://place.map.kakao.com/613402422
서울신라호텔,숙박,여행 > 숙박 > 호텔 > 특급호텔 > 신라호텔,127.00517884800654,37.555954592538384,서울 중구 동호로 249,http://place.map.kakao.com/14576878
서울신라호텔 더 이그제큐티브 라운지,숙박,여행 > 숙박 > 호텔,127.005151681006,37.5558789099307,서울 중구 동호로 249,http://place.map.kakao.com/1876479818
CF모텔,숙박,"여행 > 숙박 > 여관,모텔",127.00569421467812,37.56153174110512,서울 중구 퇴계로56길 51,http://place.map.kakao.com/16533230
서울달빛 DDP지점,숙박,여행 > 숙박 > 게스트하우스,127.00551200243704,37.56169032517188,서울 중구 퇴계로56가길 2,http://place.map.kakao.com/1790144952
신도잔여관,숙박,"여행 > 숙박 > 여관,모텔",127.005179244877,37.5616885382446,서울 중구 퇴계로56가길 7,http://place.map.kakao.com/16471396
호텔더디자이너스 동대문,숙박,여행 > 숙박 > 호텔,127.005650232565,37.5636382731572,서울 중구 퇴계로 306,http://place.map.kakao.com/26830414
영빈호텔,숙박,여행 > 숙박 > 호텔,127.005505308397,37.5630075824964,서울 중구 퇴계로56길 18,http://place.map.kakao.com/24896076
트리쉐이드호텔,숙박,"여행 > 숙박 > 여관,모텔",127.005953708041,37.5653681710601,서울 중구 마른내로 159-14,http://place.map.kakao.com/27232696
에비뉴모텔,숙박,"여행 > 숙박 > 여관,모텔",127.0062478674449,37.565162728739224,서울 중구 을지로44길 24-4,http://place.map.kakao.com/10335182
노보텔 앰배서더 서울동대문호텔&레지던스,숙박,여행 > 숙박 > 호텔 > 특급호텔 > 앰배서더호텔,127.004581922665,37.5663088721492,서울 중구 을지로 238,http://place.map.kakao.com/245940082
을지로 코업 레지던스,숙박,여행 > 숙박 > 호텔,127.005401407368,37.5661790940781,서울 중구 을지로 246,http://place.map.kakao.com/12440445
호텔클로이,숙박,"여행 > 숙박 > 여관,모텔",127.00583828248774,37.56570875335036,서울 중구 을지로42길 11,http://place.map.kakao.com/1557344441
호텔DDK,숙박,"여행 > 숙박 > 여관,모텔",127.006468851137,37.56694128298416,서울 중구 을지로43길 9-8,http://place.map.kakao.com/1035822117
인터넷모텔,숙박,"여행 > 숙박 > 여관,모텔",127.00480744493387,37.5705813845817,서울 종로구 종로36가길 16,http://place.map.kakao.com/9374566
제이오호스텔 동대문,숙박,여행 > 숙박 > 게스트하우스,127.00422007152052,37.57262216110645,서울 종로구 종로35길 30-8,http://place.map.kakao.com/461988666
파크장여관,숙박,"여행 > 숙박 > 여관,모텔",127.004462660798,37.6162851097973,서울 성북구 보국문로 151,http://place.map.kakao.com/16442534
상록수가든,숙박,여행 > 숙박 > 민박,127.005518016901,37.67378946367,서울 강북구 삼양로181길 252,http://place.map.kakao.com/27044074
세화장모텔,숙박,"여행 > 숙박 > 여관,모텔",127.007858220569,37.5503286131288,서울 중구 다산로 66,http://place.map.kakao.com/15781842
퀸모텔,숙박,"여행 > 숙박 > 여관,모텔",127.008755194631,37.5563328004756,서울 중구 동호로15길 7,http://place.map.kakao.com/14088392
써미트호텔 동대문,숙박,여행 > 숙박 > 호텔 > 특급호텔,127.006822709391,37.5622398646594,서울 중구 장충단로 198,http://place.map.kakao.com/20808004
맹그로브 동대문,숙박,여행 > 숙박 > 호텔,127.008715358028,37.5641138127546,서울 중구 퇴계로 334,http://place.map.kakao.com/3241716
K게스트하우스 동대문프리미엄점,숙박,여행 > 숙박 > 게스트하우스,127.0068183170376,37.56372110314463,서울 중구 장충단로 213,http://place.map.kakao.com/1355250191
토요코인호텔 서울동대문2,숙박,여행 > 숙박 > 호텔,127.00782009272544,37.56449319488555,서울 중구 퇴계로 325,http://place.map.kakao.com/2135584617
소테츠호텔즈 더 스프라지르 서울동대문,숙박,여행 > 숙박 > 호텔 > 특급호텔,127.00780993025334,37.56472655358476,서울 중구 장충단로 226,http://place.map.kakao.com/26857220
넘버25호텔 동대문점,숙박,"여행 > 숙박 > 여관,모텔",127.00687731474596,37.56525549635427,서울 중구 을지로44길 17-7,http://place.map.kakao.com/1478952150
호텔 루,숙박,"여행 > 숙박 > 여관,모텔",127.00701767901,37.5653717165956,서울 중구 장충단로 229-5,http://place.map.kakao.com/16764939
호텔라온,숙박,"여행 > 숙박 > 여관,모텔",127.006530935902,37.5649924251436,서울 중구 을지로44길 23,http://place.map.kakao.com/1644601416
올리브호스텔 동대문점,숙박,"여행 > 숙박 > 여관,모텔",127.006885247788,37.5653627144319,서울 중구 장충단로 229-9,http://place.map.kakao.com/429510802
케이스타호텔,숙박,"여행 > 숙박 > 여관,모텔",127.006601240897,37.566449331882,서울 중구 을지로 255,http://place.map.kakao.com/1369297424
호텔 밀리오레 서울,숙박,여행 > 숙박 > 호텔,127.00844870757297,37.56827192867193,서울 중구 장충단로 263,http://place.map.kakao.com/27273195
호텔스카이파크킹스타운 동대문점,숙박,여행 > 숙박 > 호텔,127.00766659298505,37.56873419281239,서울 중구 장충단로13길 20,http://place.map.kakao.com/1978877755
JW메리어트동대문스퀘어서울,숙박,여행 > 숙박 > 호텔 > 특급호텔 > 메리어트호텔,127.008747765849,37.5702333741613,서울 종로구 청계천로 279,http://place.map.kakao.com/23323052
하 게스트하우스,숙박,여행 > 숙박 > 게스트하우스,127.008041565171,37.5715416695248,서울 종로구 종로 269-8,http://place.map.kakao.com/828772460
지금서울,숙박,여행 > 숙박 > 펜션,127.00845615157316,37.57404280264611,서울 종로구 낙산성곽서길 37,http://place.map.kakao.com/1265837507
파라스파라 서울,숙박,여행 > 숙박 > 호텔 > 특급호텔 > 조선호텔,127.00767307458536,37.66491649006847,서울 강북구 삼양로 689,http://place.map.kakao.com/1820675401
한미장펜션,숙박,여행 > 숙박 > 펜션,127.0075716899954,37.67102784680682,서울 강북구 삼양로181길 168,http://place.map.kakao.com/17969851
토요코인 서울동대문1,숙박,여행 > 숙박 > 호텔,127.008964439079,37.5647048476588,서울 중구 퇴계로 337,http://place.map.kakao.com/1888660780
96번지트래블러스롯지,숙박,여행 > 숙박 > 게스트하우스,127.009761290324,37.5647984880718,서울 중구 퇴계로 343-1,http://place.map.kakao.com/1944749476
맥스타일게스트하우스,숙박,여행 > 숙박 > 게스트하우스,127.010730737813,37.5687195381417,서울 중구 마장로 3,http://place.map.kakao.com/26806534
24게스트하우스 동대문시장점,숙박,여행 > 숙박 > 게스트하우스,127.01018880390392,37.57064771644816,서울 종로구 종로46길 22,http://place.map.kakao.com/27317931
호텔코타,숙박,"여행 > 숙박 > 여관,모텔",127.010744698957,37.5713504434673,서울 종로구 종로 294,http://place.map.kakao.com/26523622
메이호텔,숙박,"여행 > 숙박 > 여관,모텔",127.01027394346748,37.58888923198115,서울 성북구 동소문로8길 23,http://place.map.kakao.com/18552233
삼미여관,숙박,"여행 > 숙박 > 여관,모텔",127.011080256173,37.605227734805,서울 성북구 보국문로 7-6,http://place.map.kakao.com/12235873
O2모텔,숙박,"여행 > 숙박 > 여관,모텔",127.01113302124892,37.64770114729015,서울 강북구 4.19로 28,http://place.map.kakao.com/20546745
유원호텔,숙박,여행 > 숙박 > 호텔,127.012853494146,37.4852144611646,서울 서초구 반포대로12길 29,http://place.map.kakao.com/8042453
라바호텔,숙박,"여행 > 숙박 > 여관,모텔",127.013613538745,37.4864938077948,서울 서초구 효령로53길 40,http://place.map.kakao.com/13148930
나인스호텔,숙박,"여행 > 숙박 > 여관,모텔",127.013577312231,37.4862487377322,서울 서초구 반포대로14길 51,http://place.map.kakao.com/1071016303
로이움지젤 서초애비뉴,숙박,여행 > 숙박 > 호텔,127.012573223522,37.4860281018347,서울 서초구 반포대로16길 30,http://place.map.kakao.com/1368669089
서초인투라온호텔앤레지던스,숙박,여행 > 숙박 > 호텔,127.013733474625,37.4869442979891,서울 서초구 효령로53길 50,http://place.map.kakao.com/1378150677
JS호텔,숙박,"여행 > 숙박 > 여관,모텔",127.013386185018,37.4923566911128,서울 서초구 반포대로28길 97,http://place.map.kakao.com/98822938
피터하우스,숙박,여행 > 숙박 > 게스트하우스,127.012188082148,37.5373178139849,서울 용산구 독서당로 123,http://place.map.kakao.com/19224828
야코리아호스텔 동대문점,숙박,여행 > 숙박 > 게스트하우스,127.01308812586,37.5597850211007,서울 중구 다산로27길 6-10,http://place.map.kakao.com/26923937
대천여관,숙박,"여행 > 숙박 > 여관,모텔",127.012522211801,37.5596985867672,서울 중구 동호로12길 104,http://place.map.kakao.com/23883046
글로벌인 동대문 시티데이즈인,숙박,여행 > 숙박 > 호텔,127.011722743275,37.5714692817662,서울 종로구 종로48길 12,http://place.map.kakao.com/19533657
호텔가온,숙박,"여행 > 숙박 > 여관,모텔",127.0120080023744,37.571476461057216,서울 종로구 종로48길 19,http://place.map.kakao.com/23736693
토이하우스,숙박,여행 > 숙박 > 게스트하우스,127.01327804880728,37.571303333964245,서울 종로구 종로52길 18-6,http://place.map.kakao.com/1854051473
호스텔 베이지 세컨드,숙박,여행 > 숙박 > 게스트하우스,127.012189321188,37.5727198157028,서울 종로구 종로51나길 6,http://place.map.kakao.com/1896496163
모텔태화장,숙박,"여행 > 숙박 > 여관,모텔",127.011748415014,37.5907685645373,서울 성북구 보문로39길 34,http://place.map.kakao.com/13596354
영호텔,숙박,"여행 > 숙박 > 여관,모텔",127.01137664667174,37.64771463880073,서울 강북구 4.19로 26,http://place.map.kakao.com/15809363
장미모텔,숙박,"여행 > 숙박 > 여관,모텔",127.01360230890928,37.64876044494725,서울 강북구 삼양로 515-7,http://place.map.kakao.com/15688317
인수모텔,숙박,"여행 > 숙박 > 여관,모텔",127.012933755376,37.661849090818,서울 강북구 삼양로 661,http://place.map.kakao.com/20181036
문모텔,숙박,"여행 > 숙박 > 여관,모텔",127.013151263889,37.661315685783,서울 강북구 삼양로 655,http://place.map.kakao.com/2023380498
우이동가족캠핑장,숙박,"여행 > 숙박 > 야영,캠핑장",127.01145870121492,37.6655153353207,서울 강북구 삼양로181길 28,http://place.map.kakao.com/1388660164
소설호텔,숙박,여행 > 숙박 > 호텔,127.01383626257964,37.4863712448072,서울 서초구 반포대로14길 53,http://place.map.kakao.com/24019548
목화모텔,숙박,"여행 > 숙박 > 여관,모텔",127.014852558741,37.4853872203794,서울 서초구 서초중앙로5길 16,http://place.map.kakao.com/10416631
에이치호텔 서초점,숙박,여행 > 숙박 > 호텔,127.01398452011124,37.487106449999246,서울 서초구 효령로55길 51,http://place.map.kakao.com/24923454
르컬렉티브 강남 예술의전당 시그니티,숙박,여행 > 숙박 > 호텔,127.013771939574,37.4870596225493,서울 서초구 효령로53길 50,http://place.map.kakao.com/1960969765
자스민호텔,숙박,"여행 > 숙박 > 여관,모텔",127.01390316468525,37.487403792263216,서울 서초구 효령로55길 59,http://place.map.kakao.com/27368430
8모텔,숙박,"여행 > 숙박 > 여관,모텔",127.014415376336,37.5638429554858,서울 중구 다산로35길 21,http://place.map.kakao.com/1764100050
레인보우호텔,숙박,"여행 > 숙박 > 여관,모텔",127.01590761262376,37.565931273028845,서울 중구 다산로 255-1,http://place.map.kakao.com/793824915
플러스호텔,숙박,"여행 > 숙박 > 여관,모텔",127.0158918086259,37.56613129627302,서울 중구 다산로 259,http://place.map.kakao.com/823785119
바티카호텔,숙박,여행 > 숙박 > 호텔,127.01552590322476,37.57012365689172,서울 종로구 청계천로 341,http://place.map.kakao.com/26846543
리치다이아몬드호텔,숙박,여행 > 숙박 > 호텔,127.015610000309,37.6475808090448,서울 강북구 삼양로 500-18,http://place.map.kakao.com/24045841
업플로 서초,숙박,여행 > 숙박 > 유스호스텔,127.01701856428134,37.49372665561906,서울 서초구 서초대로56길 18,http://place.map.kakao.com/1302905700
티롤관광호텔,숙박,여행 > 숙박 > 호텔,127.01698494576036,37.515044449282925,서울 서초구 나루터로 64,http://place.map.kakao.com/878544769
라트리호텔 신사역점,숙박,"여행 > 숙박 > 여관,모텔",127.01821580745566,37.5158659812943,서울 서초구 나루터로 77,http://place.map.kakao.com/27299076
더 리버사이드호텔,숙박,여행 > 숙박 > 호텔,127.01808524804515,37.51856901180077,서울 서초구 강남대로107길 6,http://place.map.kakao.com/23201274
어반아트스테이,숙박,여행 > 숙박 > 게스트하우스,127.0184327609,37.5701061199046,서울 중구 마장로9길 49-19,http://place.map.kakao.com/827927741
호텔동양장,숙박,"여행 > 숙박 > 여관,모텔",127.017781404968,37.5728416411799,서울 종로구 종로58길 12,http://place.map.kakao.com/809506070
그린파크모텔,숙박,"여행 > 숙박 > 여관,모텔",127.01642746427537,37.572511172183226,서울 종로구 종로56길 14,http://place.map.kakao.com/8802252
서울게스트하우스,숙박,여행 > 숙박 > 게스트하우스,127.016396233103,37.57463031644257,서울 종로구 지봉로12가길 63,http://place.map.kakao.com/586668171
호스텔바닐라2,숙박,여행 > 숙박 > 유스호스텔,127.016328375218,37.5749213471291,서울 종로구 종로57길 34-8,http://place.map.kakao.com/25985213
샤미소호텔,숙박,"여행 > 숙박 > 여관,모텔",127.01794913358596,37.59250850121448,서울 성북구 동소문로20나길 25,http://place.map.kakao.com/19849214
아리랑힐호텔 동대문,숙박,여행 > 숙박 > 호텔,127.016672161833,37.5936583541298,서울 성북구 아리랑로 8,http://place.map.kakao.com/27082570
호텔야자 성신여대역점,숙박,"여행 > 숙박 > 여관,모텔",127.0169449995739,37.59344027525872,서울 성북구 아리랑로2길 11,http://place.map.kakao.com/1563405203
아이비모텔,숙박,"여행 > 숙박 > 여관,모텔",127.018374976456,37.5929156840416,서울 성북구 동소문로24길 14-4,http://place.map.kakao.com/16794751
수모텔,숙박,"여행 > 숙박 > 여관,모텔",127.017259595827,37.6465354382489,서울 강북구 한천로 1147,http://place.map.kakao.com/16326310
교대게스트하우스,숙박,여행 > 숙박 > 게스트하우스,127.019761771108,37.4932793290745,서울 서초구 사임당로17길 116,http://place.map.kakao.com/22139575
프로비스타호텔,숙박,여행 > 숙박 > 호텔,127.018609871917,37.49481393110293,서울 서초구 서초대로 338,http://place.map.kakao.com/9443744
더캡슐 반포,숙박,여행 > 숙박 > 호텔,127.019803105517,37.5042139346513,서울 서초구 주흥3길 13,http://place.map.kakao.com/916244551
렉스관광호텔,숙박,여행 > 숙박 > 호텔,127.020477661948,37.514341112382,서울 강남구 강남대로 588,http://place.map.kakao.com/7858836
리츠호텔,숙박,"여행 > 숙박 > 여관,모텔",127.01896810657,37.5207060526959,서울 강남구 도산대로1길 61,http://place.map.kakao.com/8962739
애인호텔,숙박,"여행 > 숙박 > 여관,모텔",127.019133421315,37.5213259160257,서울 강남구 압구정로2길 2,http://place.map.kakao.com/187981590
라까사호텔 서울점,숙박,여행 > 숙박 > 호텔,127.01953408833786,37.52215387200097,서울 강남구 도산대로1길 83,http://place.map.kakao.com/10514962
빅스테이,숙박,여행 > 숙박 > 게스트하우스,127.020348098858,37.5703616880011,서울 중구 난계로21길 63,http://place.map.kakao.com/81692270
서울앤호텔 동대문,숙박,여행 > 숙박 > 호텔,127.02082434402608,37.573315066965726,서울 종로구 종로66가길 21,http://place.map.kakao.com/472506103
호텔DM,숙박,여행 > 숙박 > 호텔,127.019388972016,37.5733495492423,서울 종로구 난계로29길 73,http://place.map.kakao.com/919496029
올리브호텔,숙박,"여행 > 숙박 > 여관,모텔",127.020136224933,37.5738323573913,서울 종로구 난계로29길 56,http://place.map.kakao.com/483719002
호스텔코리아 오리지널,숙박,여행 > 숙박 > 게스트하우스,127.02046610043878,37.57551355675317,서울 종로구 종로65길 20-12,http://place.map.kakao.com/16586266
부엉이하우스,숙박,여행 > 숙박 > 게스트하우스,127.020186452731,37.5753856636746,서울 종로구 종로65길 20-6,http://place.map.kakao.com/24172210
DH네상스호텔,숙박,여행 > 숙박 > 호텔,127.01857986576093,37.592685899028105,서울 성북구 동소문로20나길 39,http://place.map.kakao.com/18602760
호텔디아티스트 성신여대점,숙박,"여행 > 숙박 > 여관,모텔",127.01874888093472,37.59389320137086,서울 성북구 동소문로 126,http://place.map.kakao.com/1670965227
H에비뉴 성신여대점,숙박,여행 > 숙박 > 호텔,127.0190410789387,37.59413101641151,서울 성북구 동소문로 130,http://place.map.kakao.com/1966612974
W미니호텔,숙박,"여행 > 숙박 > 여관,모텔",127.02056496471394,37.60157565053918,서울 성북구 정릉로38나길 31,http://place.map.kakao.com/26429152
쉴모텔,숙박,"여행 > 숙박 > 여관,모텔",127.020312086037,37.6211235533297,서울 강북구 삼양로 193,http://place.map.kakao.com/754987343
러브모텔,숙박,"여행 > 숙박 > 여관,모텔",127.0198456143936,37.62192280863311,서울 강북구 삼양로41길 5,http://place.map.kakao.com/16088873
샤인호텔,숙박,"여행 > 숙박 > 여관,모텔",127.01917800113984,37.624661920264224,서울 강북구 솔매로 62-3,http://place.map.kakao.com/10289636
모텔휴,숙박,"여행 > 숙박 > 여관,모텔",127.019397704902,37.6244465484452,서울 강북구 삼양로54길 17-3,http://place.map.kakao.com/365939811
수호텔,숙박,"여행 > 숙박 > 여관,모텔",127.020528778531,37.6347212046786,서울 강북구 덕릉로19길 4,http://place.map.kakao.com/1784049306
AN게스트하우스,숙박,여행 > 숙박 > 게스트하우스,127.022067483071,37.5048802773523,서울 서초구 사평대로53길 8-3,http://place.map.kakao.com/383650975
크리스티호텔,숙박,"여행 > 숙박 > 여관,모텔",127.022660486931,37.5659499919306,서울 중구 난계로11길 13,http://place.map.kakao.com/24822516
레지던스유니콘,숙박,여행 > 숙박 > 게스트하우스,127.02268332892056,37.57035585643468,서울 중구 난계로23길 11,http://place.map.kakao.com/1959217611
IBC호텔,숙박,여행 > 숙박 > 호텔,127.022880029364,37.573204765071,서울 종로구 난계로 241,http://place.map.kakao.com/27401858
시화당,숙박,여행 > 숙박 > 게스트하우스,127.021202404191,37.5732122862523,서울 종로구 난계로27길 36-6,http://place.map.kakao.com/1740394197
루미아호텔 종로,숙박,여행 > 숙박 > 호텔,127.02224743125628,37.57384729531698,서울 종로구 난계로29길 19-11,http://place.map.kakao.com/874813205
하이스테이 종로,숙박,여행 > 숙박 > 게스트하우스,127.022950271015,37.5770808302626,서울 종로구 보문로 15-1,http://place.map.kakao.com/129953843
호텔피아노,숙박,"여행 > 숙박 > 여관,모텔",127.02179119055404,37.58147970253235,서울 성북구 보문로 68,http://place.map.kakao.com/24044355
온천장여관,숙박,"여행 > 숙박 > 여관,모텔",127.022198569175,37.5808489310415,서울 성북구 보문로 58-3,http://place.map.kakao.com/15625445
한일장여관,숙박,"여행 > 숙박 > 여관,모텔",127.021724757335,37.6022025321551,서울 성북구 동소문로 225-7,http://place.map.kakao.com/16040259
모텔카누,숙박,"여행 > 숙박 > 여관,모텔",127.02179303512,37.6188636118358,서울 강북구 삼양로30길 12,http://place.map.kakao.com/1497391288
하이모텔 본점,숙박,"여행 > 숙박 > 여관,모텔",127.02332057032103,37.63186546217785,서울 강북구 도봉로73길 7-3,http://place.map.kakao.com/16472557
연가모텔,숙박,"여행 > 숙박 > 여관,모텔",127.023219817278,37.6321042433154,서울 강북구 도봉로73길 11,http://place.map.kakao.com/20741541
카페72,숙박,"여행 > 숙박 > 여관,모텔",127.0224996350772,37.633228813136256,서울 강북구 도봉로73길 39,http://place.map.kakao.com/2064289528
호텔4월2일,숙박,"여행 > 숙박 > 여관,모텔",127.022907335176,37.6327458063189,서울 강북구 도봉로73길 25,http://place.map.kakao.com/16084784
파레스모텔,숙박,"여행 > 숙박 > 여관,모텔",127.02273399526352,37.63272782012915,서울 강북구 도봉로73길 23,http://place.map.kakao.com/10904350
필모텔,숙박,"여행 > 숙박 > 여관,모텔",127.022798635777,37.6329404403016,서울 강북구 도봉로73길 31,http://place.map.kakao.com/14563916
가람게스트하우스,숙박,여행 > 숙박 > 게스트하우스,127.021924135867,37.633297396391,서울 강북구 도봉로71가길 45,http://place.map.kakao.com/24309930
유리아호텔,숙박,"여행 > 숙박 > 여관,모텔",127.02263920274989,37.63395227793066,서울 강북구 덕릉로26길 13,http://place.map.kakao.com/2009688637
시화의집,숙박,"여행 > 숙박 > 여관,모텔",127.022144944596,37.6405638004506,서울 강북구 노해로17길 5,http://place.map.kakao.com/432375423
오클라우드호텔 강남,숙박,여행 > 숙박 > 호텔,127.023736217048,37.5030563186984,서울 서초구 사평대로58길 12,http://place.map.kakao.com/25681685
K그랜드호스텔 강남1호점,숙박,여행 > 숙박 > 게스트하우스,127.025234413006,37.505517555042,서울 강남구 강남대로112길 11,http://place.map.kakao.com/1277922253
봄호텔,숙박,"여행 > 숙박 > 여관,모텔",127.023433732809,37.5050025509489,서울 서초구 사평대로57길 12,http://place.map.kakao.com/913968236
보코서울강남,숙박,여행 > 숙박 > 호텔,127.02454515332,37.5178272212827,서울 강남구 도산대로 144,http://place.map.kakao.com/717144945
안테룸 서울,숙박,여행 > 숙박 > 호텔,127.02522420205648,37.51886593501955,서울 강남구 도산대로 153,http://place.map.kakao.com/352912847
스타장모텔,숙박,"여행 > 숙박 > 여관,모텔",127.02413081756,37.548409083965,서울 성동구 독서당로 315-9,http://place.map.kakao.com/16904774
별장모텔,숙박,"여행 > 숙박 > 여관,모텔",127.02532577671786,37.54829350588246,서울 성동구 무수막길 3-1,http://place.map.kakao.com/16818640
다락호텔,숙박,"여행 > 숙박 > 여관,모텔",127.02391245451,37.5733270957675,서울 동대문구 천호대로2길 38,http://place.map.kakao.com/33022502
서울게스트하우스,숙박,여행 > 숙박 > 게스트하우스,127.024054473743,37.606602516135,서울 성북구 삼양로 40,http://place.map.kakao.com/356297153
아띠하우스 3호점,숙박,여행 > 숙박 > 게스트하우스,127.024677548847,37.6277575898871,서울 강북구 도봉로57길 11,http://place.map.kakao.com/1136884436
넘버25호텔 수유점,숙박,"여행 > 숙박 > 여관,모텔",127.023981661241,37.6337799244523,서울 강북구 도봉로78길 7,http://place.map.kakao.com/396818223
호텔클래시,숙박,"여행 > 숙박 > 여관,모텔",127.02453972326116,37.635802522109074,서울 강북구 도봉로82길 13,http://place.map.kakao.com/741506188
호텔포시즌,숙박,"여행 > 숙박 > 여관,모텔",127.02452617848856,37.63595659341425,서울 강북구 오패산로77길 46,http://place.map.kakao.com/1790077068
다니엘캄파넬라,숙박,여행 > 숙박 > 호텔,127.02577294263943,37.637448359126005,서울 강북구 오패산로79길 6,http://place.map.kakao.com/18648961
강남아르누보씨티,숙박,여행 > 숙박 > 호텔,127.02810367141085,37.49335062075664,서울 서초구 서초대로74길 49,http://place.map.kakao.com/26989073
호텔더디자이너스 리즈강남프리미어,숙박,여행 > 숙박 > 호텔,127.02585634567102,37.50521017774558,서울 강남구 봉은사로 113,http://place.map.kakao.com/27002767
왈츠모텔,숙박,"여행 > 숙박 > 여관,모텔",127.026066812534,37.5055137702698,서울 강남구 강남대로112길 20,http://place.map.kakao.com/1098921244
호텔하이랜드,숙박,"여행 > 숙박 > 여관,모텔",127.026786320484,37.5187475596591,서울 강남구 도산대로 166,http://place.map.kakao.com/8142623
류게스트하우스,숙박,여행 > 숙박 > 게스트하우스,127.02622567762604,37.523185124732706,서울 강남구 논현로159길 22-2,http://place.map.kakao.com/1709410679
호텔부티크나인,숙박,"여행 > 숙박 > 여관,모텔",127.02681261504308,37.57638985450714,서울 동대문구 왕산로 28,http://place.map.kakao.com/26414902
미니호텔G,숙박,"여행 > 숙박 > 여관,모텔",127.025928303777,37.575871079241,서울 동대문구 하정로5길 7,http://place.map.kakao.com/26873829
스테이해랑,숙박,여행 > 숙박 > 게스트하우스,127.027699360319,37.589556767413,서울 성북구 개운사2길 37,http://place.map.kakao.com/210641559
휘닉스모텔,숙박,"여행 > 숙박 > 여관,모텔",127.028076990667,37.6061979842681,서울 성북구 동소문로44길 4,http://place.map.kakao.com/16041132
영모텔,숙박,"여행 > 숙박 > 여관,모텔",127.02701900758822,37.621224920822165,서울 강북구 솔샘로67길 93,http://place.map.kakao.com/218389336
가든파크,숙박,"여행 > 숙박 > 여관,모텔",127.025963229953,37.6372969519115,서울 강북구 오패산로79길 7,http://place.map.kakao.com/16418434
솔리드모텔,숙박,"여행 > 숙박 > 여관,모텔",127.02688701462746,37.63843739202792,서울 강북구 한천로131길 24,http://place.map.kakao.com/16326305
신라스테이 서초,숙박,여행 > 숙박 > 호텔 > 신라스테이,127.030127360034,37.4894496609502,서울 서초구 효령로 427,http://place.map.kakao.com/1790668407
토요코인호텔 서울강남점,숙박,여행 > 숙박 > 호텔,127.0299655035536,37.49187701637549,서울 서초구 강남대로 323,http://place.map.kakao.com/798211435
어반플레이스강남,숙박,여행 > 숙박 > 호텔,127.028848186284,37.4915835660894,서울 서초구 효령로77길 30,http://place.map.kakao.com/25977366
호텔시애틀,숙박,"여행 > 숙박 > 여관,모텔",127.0299987605509,37.495865766060014,서울 강남구 테헤란로2길 37,http://place.map.kakao.com/9633416
캠퍼스호텔,숙박,"여행 > 숙박 > 여관,모텔",127.029212258655,37.4972994646882,서울 강남구 테헤란로2길 13,http://place.map.kakao.com/1688718777
멜리샤호텔,숙박,"여행 > 숙박 > 여관,모텔",127.02937281082282,37.49722464133762,서울 강남구 테헤란로2길 15,http://place.map.kakao.com/213320288
제리스플래닛호텔,숙박,여행 > 숙박 > 호텔,127.02847559853576,37.49903137880762,서울 강남구 강남대로92길 13,http://place.map.kakao.com/25665660
노보텔 앰배서더 서울강남,숙박,여행 > 숙박 > 호텔 > 특급호텔 > 앰배서더호텔,127.02891340250898,37.505293262534146,서울 강남구 봉은사로 130,http://place.map.kakao.com/8233809
도미인 서울강남호텔,숙박,여행 > 숙박 > 호텔,127.0294744983298,37.50562829782134,서울 강남구 봉은사로 134,http://place.map.kakao.com/2058371888
베스트웨스턴프리미어 강남호텔,숙박,여행 > 숙박 > 호텔 > 특급호텔 > 베스트웨스턴 호텔,127.02977902782426,37.506372451719606,서울 강남구 봉은사로 139,http://place.map.kakao.com/8325284
아난티 앳 강남,숙박,여행 > 숙박 > 호텔,127.02947579619703,37.517557594720294,서울 강남구 논현로 734,http://place.map.kakao.com/554629068
파티오세븐,숙박,여행 > 숙박 > 호텔,127.02930622071102,37.517809917866344,서울 강남구 논현로 736,http://place.map.kakao.com/546482073
포포인츠 바이쉐라톤 서울강남,숙박,여행 > 숙박 > 호텔 > 특급호텔,127.028492726237,37.5202932816821,서울 강남구 도산대로 203,http://place.map.kakao.com/2050361518
호텔선샤인 서울,숙박,여행 > 숙박 > 호텔,127.02871566700443,37.520538300498984,서울 강남구 도산대로 205,http://place.map.kakao.com/7940998
안다즈 서울 강남,숙박,여행 > 숙박 > 호텔 > 특급호텔 > 하얏트호텔,127.02887026009084,37.525418092797,서울 강남구 논현로 854,http://place.map.kakao.com/1792487731
헤드원모텔,숙박,"여행 > 숙박 > 여관,모텔",127.029890921098,37.5742105103123,서울 동대문구 천호대로13길 3,http://place.map.kakao.com/80004858
귀빈장모텔,숙박,"여행 > 숙박 > 여관,모텔",127.0286748908051,37.60603926629453,서울 성북구 동소문로44길 16-6,http://place.map.kakao.com/16270542
여로여관,숙박,"여행 > 숙박 > 여관,모텔",127.029296094573,37.642190320386,서울 강북구 도봉로99길 3-3,http://place.map.kakao.com/20741345
더케이호텔 서울,숙박,여행 > 숙박 > 호텔,127.032794775773,37.4661812818489,서울 서초구 바우뫼로12길 70,http://place.map.kakao.com/7941550
힐튼가든인 서울강남,숙박,여행 > 숙박 > 호텔 > 특급호텔 > 힐튼호텔,127.03278757824904,37.48593321953637,서울 서초구 강남대로 253,http://place.map.kakao.com/31754855
호텔페이토 강남,숙박,여행 > 숙박 > 호텔,127.0326973477544,37.48644772022353,서울 서초구 강남대로 259,http://place.map.kakao.com/26806982
호텔소울하다,숙박,여행 > 숙박 > 호텔,127.032533083084,37.4987582272006,서울 강남구 테헤란로10길 5,http://place.map.kakao.com/229281338
648호텔,숙박,"여행 > 숙박 > 여관,모텔",127.03186863458268,37.49995224151424,서울 강남구 강남대로94길 56-4,http://place.map.kakao.com/27110153
쉐어하우스home601,숙박,여행 > 숙박 > 게스트하우스,127.032621685818,37.5048634181408,서울 강남구 논현로105길 11-17,http://place.map.kakao.com/27436411
삼정호텔,숙박,여행 > 숙박 > 호텔,127.03116089877577,37.505887354500274,서울 강남구 봉은사로 150,http://place.map.kakao.com/8194428
호텔카푸치노,숙박,여행 > 숙박 > 호텔,127.03150850797986,37.50683151565546,서울 강남구 봉은사로 155,http://place.map.kakao.com/27169099
캘리포니아호텔,숙박,여행 > 숙박 > 호텔,127.032292156836,37.506521358284,서울 강남구 봉은사로 164,http://place.map.kakao.com/11237821
삼정호텔 한국관,숙박,여행 > 숙박 > 호텔,127.03114277607,37.5058224869054,서울 강남구 봉은사로 150,http://place.map.kakao.com/13298335
엘리에나호텔,숙박,여행 > 숙박 > 호텔,127.03163589759812,37.51121216650916,서울 강남구 논현로 645,http://place.map.kakao.com/1197705393
게스트하우스강남,숙박,여행 > 숙박 > 게스트하우스,127.030834415197,37.5260338818115,서울 강남구 압구정로34길 33,http://place.map.kakao.com/19148678
현대모텔,숙박,"여행 > 숙박 > 여관,모텔",127.032261406704,37.5611832899782,서울 성동구 무학봉22길 10,http://place.map.kakao.com/26420792
K그랜드호스텔,숙박,여행 > 숙박 > 게스트하우스,127.031990554221,37.5630177927368,서울 성동구 왕십리로 339-1,http://place.map.kakao.com/38680552
리오모텔,숙박,"여행 > 숙박 > 여관,모텔",127.030864254358,37.576464548261,서울 동대문구 무학로34길 3,http://place.map.kakao.com/7866194
갤러리모텔,숙박,"여행 > 숙박 > 여관,모텔",127.032618143533,37.6109720607633,서울 강북구 월계로7길 13,http://place.map.kakao.com/18619512
신세계모텔,숙박,"여행 > 숙박 > 여관,모텔",127.031032797124,37.6115923687751,서울 강북구 월계로3길 41,http://place.map.kakao.com/16052017
수복여관,숙박,"여행 > 숙박 > 여관,모텔",127.030855682985,37.64343328106,서울 도봉구 우이천로 280-1,http://place.map.kakao.com/20529810
인터넷모텔,숙박,"여행 > 숙박 > 여관,모텔",127.03209419377,37.6462260008224,서울 도봉구 우이천로24길 65,http://place.map.kakao.com/16791560
렉시호텔,숙박,"여행 > 숙박 > 여관,모텔",127.03398401702526,37.4987983639984,서울 강남구 테헤란로16길 11,http://place.map.kakao.com/7858934
강남스테이호텔,숙박,여행 > 숙박 > 호텔,127.035419391722,37.499413329606,서울 강남구 논현로87길 15-4,http://place.map.kakao.com/27609078
호텔스타,숙박,여행 > 숙박 > 호텔,127.035442069084,37.4995394636671,서울 강남구 논현로87길 17,http://place.map.kakao.com/14611300
AC 호텔 바이 메리어트 서울 강남,숙박,여행 > 숙박 > 호텔 > 특급호텔 > 메리어트호텔,127.03542025313,37.5012369655547,서울 강남구 테헤란로25길 10,http://place.map.kakao.com/650936181
호텔세느,숙박,여행 > 숙박 > 호텔,127.035095818276,37.5039472874883,서울 강남구 논현로 533,http://place.map.kakao.com/412789599
24게스트하우스 강남센터점,숙박,여행 > 숙박 > 게스트하우스,127.033358652909,37.50390814658339,서울 강남구 봉은사로20길 52,http://place.map.kakao.com/24580064
미래,숙박,"여행 > 숙박 > 여관,모텔",127.035149598631,37.5125176293716,서울 강남구 언주로 627,http://place.map.kakao.com/16053486
포레스타호텔,숙박,여행 > 숙박 > 호텔,127.03531111868428,37.56242939659549,서울 성동구 무학로2길 51,http://place.map.kakao.com/619718336
호텔컬리넌 왕십리,숙박,"여행 > 숙박 > 여관,모텔",127.034778108381,37.56261425909276,서울 성동구 무학로2길 47,http://place.map.kakao.com/22756841
아모렉스관광호텔,숙박,여행 > 숙박 > 호텔,127.03530035464904,37.5636042991759,서울 성동구 왕십리로20길 19,http://place.map.kakao.com/7983350
저스트스테이호텔 왕십리역점,숙박,"여행 > 숙박 > 여관,모텔",127.03501486023788,37.563034954468776,서울 성동구 왕십리로22길 12-1,http://place.map.kakao.com/1880543391
풀문,숙박,"여행 > 숙박 > 여관,모텔",127.035141898089,37.563611554418,서울 성동구 왕십리로22길 20,http://place.map.kakao.com/2086863084
리마크호텔,숙박,"여행 > 숙박 > 여관,모텔",127.03525041031035,37.563301579315954,서울 성동구 왕십리로20길 17,http://place.map.kakao.com/129175805
리젠트호텔,숙박,"여행 > 숙박 > 여관,모텔",127.034462435334,37.5628549177203,서울 성동구 무학로2길 43,http://place.map.kakao.com/16041006
코림모텔,숙박,"여행 > 숙박 > 여관,모텔",127.03509304524358,37.56322143751548,서울 성동구 왕십리로22길 14,http://place.map.kakao.com/9978997
파레스모텔,숙박,"여행 > 숙박 > 여관,모텔",127.03525489696,37.5632150823213,서울 성동구 왕십리로20길 15,http://place.map.kakao.com/12692057
부르네모텔,숙박,"여행 > 숙박 > 여관,모텔",127.03493367428916,37.563692705883795,서울 성동구 왕십리로22길 17-1,http://place.map.kakao.com/24051367
호텔스위트,숙박,"여행 > 숙박 > 여관,모텔",127.035264038403,37.5633988828566,서울 성동구 왕십리로20길 17-1,http://place.map.kakao.com/15350221
더쉼공간 안암,숙박,여행 > 숙박 > 민박,127.033753321527,37.5866539952844,서울 동대문구 제기로 7,http://place.map.kakao.com/786994880
크림슨하우스,숙박,여행 > 숙박 > 게스트하우스,127.03499479852,37.5878915977684,서울 동대문구 제기로5길 31,http://place.map.kakao.com/11234346
마레모텔,숙박,"여행 > 숙박 > 여관,모텔",127.03455909670257,37.60057678783245,서울 성북구 종암로24길 10,http://place.map.kakao.com/15558651
호텔딘,숙박,"여행 > 숙박 > 여관,모텔",127.034747115158,37.6006569207996,서울 성북구 종암로24길 14,http://place.map.kakao.com/9002780
무수아취,숙박,"여행 > 숙박 > 야영,캠핑장",127.03308771773604,37.6763878808172,서울 도봉구 도봉로169길 249,http://place.map.kakao.com/14061000
베니키아 강남 노블레스호텔,숙박,여행 > 숙박 > 호텔 > 베니키아 호텔,127.035750557534,37.5013990471133,서울 강남구 테헤란로25길 6-13,http://place.map.kakao.com/8860724
임피리얼 팰리스 서울,숙박,여행 > 숙박 > 호텔,127.035907038981,37.5140716335263,서울 강남구 언주로 640,http://place.map.kakao.com/661567584
프린세스호텔,숙박,"여행 > 숙박 > 여관,모텔",127.03664990126076,37.52738372333095,서울 강남구 압구정로46길 17,http://place.map.kakao.com/8649227
세성여관,숙박,"여행 > 숙박 > 여관,모텔",127.035758975407,37.5640618672892,서울 성동구 왕십리로24나길 25,http://place.map.kakao.com/1105248140
동원장모텔,숙박,"여행 > 숙박 > 여관,모텔",127.036306994875,37.566800728089,서울 성동구 청계천로12다길 28,http://place.map.kakao.com/10281824
썬모텔,숙박,"여행 > 숙박 > 여관,모텔",127.036865281152,37.5696188694553,서울 성동구 고산자로 335-17,http://place.map.kakao.com/8418518
한국행복하우스 KHH,숙박,여행 > 숙박 > 게스트하우스,127.03752441188,37.5748029871905,서울 동대문구 고산자로 393-8,http://place.map.kakao.com/998533828
동보모텔,숙박,"여행 > 숙박 > 여관,모텔",127.036992757617,37.5893361805258,서울 동대문구 고산자로62길 3,http://place.map.kakao.com/20060089
스위스호텔,숙박,"여행 > 숙박 > 여관,모텔",127.036642125933,37.59469899429,서울 성북구 종암로6길 10,http://place.map.kakao.com/17973341
동원모텔,숙박,"여행 > 숙박 > 여관,모텔",127.036716063174,37.652960403262,서울 도봉구 도봉로125길 7,http://place.map.kakao.com/16376777
동궁모텔,숙박,"여행 > 숙박 > 여관,모텔",127.036843822767,37.6638334122781,서울 도봉구 방학로6길 21,http://place.map.kakao.com/16675812
사랑방모텔,숙박,"여행 > 숙박 > 여관,모텔",127.036060157082,37.6651382748119,서울 도봉구 도당로 81,http://place.map.kakao.com/16793328
30먼스모텔,숙박,"여행 > 숙박 > 여관,모텔",127.03868313133158,37.4840627450033,서울 서초구 남부순환로358길 26,http://place.map.kakao.com/644919679
아마레호텔,숙박,"여행 > 숙박 > 여관,모텔",127.04021520083433,37.49466619301067,서울 강남구 논현로 328,http://place.map.kakao.com/16445407
호텔린,숙박,"여행 > 숙박 > 여관,모텔",127.03913842011,37.5006987926638,서울 강남구 언주로87길 50,http://place.map.kakao.com/26557327
XYM 프리미어,숙박,"여행 > 숙박 > 여관,모텔",127.0396520241311,37.50102478553413,서울 강남구 테헤란로28길 3-12,http://place.map.kakao.com/981088828
호텔벤,숙박,"여행 > 숙박 > 여관,모텔",127.0399040490717,37.500708447587094,서울 강남구 언주로87길 41,http://place.map.kakao.com/10980629
호텔아드리게,숙박,"여행 > 숙박 > 여관,모텔",127.03915772880156,37.500858264318474,서울 강남구 테헤란로28길 3-6,http://place.map.kakao.com/14527967
성심모텔,숙박,"여행 > 숙박 > 여관,모텔",127.040092955281,37.5007921771787,서울 강남구 테헤란로34길 10,http://place.map.kakao.com/16053352
에이치에비뉴호텔 역삼,숙박,여행 > 숙박 > 호텔,127.03874353347167,37.502500033483,서울 강남구 테헤란로29길 12,http://place.map.kakao.com/26406445
호텔디아티스트 역삼점,숙박,"여행 > 숙박 > 여관,모텔",127.03848223739053,37.50240190927114,서울 강남구 테헤란로29길 11,http://place.map.kakao.com/1293982264
호텔그라모스,숙박,여행 > 숙박 > 호텔,127.039872234482,37.5025546192533,서울 강남구 테헤란로33길 6-5,http://place.map.kakao.com/19510507
인더시티비즈니스호텔,숙박,여행 > 숙박 > 호텔,127.039976524492,37.5030122948731,서울 강남구 테헤란로37길 13-8,http://place.map.kakao.com/27375971
리치웰호텔,숙박,여행 > 숙박 > 호텔,127.03981704548993,37.502981714544354,서울 강남구 테헤란로37길 13-10,http://place.map.kakao.com/26909427
호텔더디자이너스 리즈스윗역삼,숙박,여행 > 숙박 > 호텔,127.039637189685,37.5029132986031,서울 강남구 테헤란로37길 13-12,http://place.map.kakao.com/1477954132
올인모텔,숙박,"여행 > 숙박 > 여관,모텔",127.039934358072,37.5172698046275,서울 강남구 학동로53길 3-4,http://place.map.kakao.com/9940545
태양모텔,숙박,"여행 > 숙박 > 여관,모텔",127.0400820342573,37.56494075206416,서울 성동구 마조로19길 13,http://place.map.kakao.com/16935083
해로모텔,숙박,"여행 > 숙박 > 여관,모텔",127.038813888995,37.5815366002926,서울 동대문구 고산자로 470,http://place.map.kakao.com/15625638
오즈모텔,숙박,"여행 > 숙박 > 여관,모텔",127.03895718079802,37.582771815185765,서울 동대문구 약령시로 80,http://place.map.kakao.com/27476667
신화무인텔,숙박,"여행 > 숙박 > 여관,모텔",127.03834263929843,37.6030524421906,서울 성북구 오패산로 4,http://place.map.kakao.com/397089315
신화호텔,숙박,"여행 > 숙박 > 여관,모텔",127.0383442025723,37.60306435447981,서울 성북구 오패산로 4,http://place.map.kakao.com/16802258
알하우스,숙박,여행 > 숙박 > 게스트하우스,127.04171559809784,37.47397941949777,서울 서초구 마방로4길 15-48,http://place.map.kakao.com/1957022588
호텔컬리넌 역삼,숙박,여행 > 숙박 > 호텔,127.0421040266785,37.50135640821829,서울 강남구 언주로87길 11,http://place.map.kakao.com/19883669
카파쓰 관광호텔,숙박,여행 > 숙박 > 호텔,127.041138317523,37.501527038571,서울 강남구 언주로89길 21,http://place.map.kakao.com/27560859
사월호텔,숙박,"여행 > 숙박 > 여관,모텔",127.04184408938347,37.50166734759042,서울 강남구 언주로89길 13,http://place.map.kakao.com/12317292
호텔마리,숙박,"여행 > 숙박 > 여관,모텔",127.04210417592938,37.501622204886274,서울 강남구 언주로87길 10,http://place.map.kakao.com/8178754
호텔예스,숙박,"여행 > 숙박 > 여관,모텔",127.041151688776,37.5011630275466,서울 강남구 언주로87길 23,http://place.map.kakao.com/761473627
바레,숙박,"여행 > 숙박 > 여관,모텔",127.04038819746,37.500931732527135,서울 강남구 테헤란로34길 9,http://place.map.kakao.com/25612768
조선팰리스 강남,숙박,여행 > 숙박 > 호텔 > 특급호텔,127.04134714989392,37.50287487023109,서울 강남구 테헤란로 231,http://place.map.kakao.com/1671545166
호텔스타프리미어 역삼,숙박,여행 > 숙박 > 호텔,127.040347304532,37.502698618855,서울 강남구 테헤란로33길 6-11,http://place.map.kakao.com/966048026
브라운도트 역삼점,숙박,"여행 > 숙박 > 여관,모텔",127.040286312865,37.5028455035909,서울 강남구 테헤란로37길 13-5,http://place.map.kakao.com/1742792340
신라스테이 역삼,숙박,여행 > 숙박 > 호텔 > 신라스테이,127.041307593687,37.5049760288127,서울 강남구 언주로 517,http://place.map.kakao.com/25539194
리베라호텔 아노블리,숙박,여행 > 숙박 > 호텔 > 특급호텔 > 리베라호텔,127.04164154185683,37.5238591504407,서울 강남구 도산대로 419,http://place.map.kakao.com/1593553700
휴가하우스,숙박,여행 > 숙박 > 게스트하우스,127.041921318089,37.5911617453065,서울 동대문구 회기로 48,http://place.map.kakao.com/18410802
해날,숙박,여행 > 숙박 > 게스트하우스,127.045035841111,37.50591891973,서울 강남구 테헤란로51길 36-2,http://place.map.kakao.com/1468734530
호텔클릭,숙박,"여행 > 숙박 > 여관,모텔",127.04472098352856,37.51086285252914,서울 강남구 봉은사로 409,http://place.map.kakao.com/16850918
비앤비청담,숙박,여행 > 숙박 > 게스트하우스,127.043570348441,37.5219393191967,서울 강남구 선릉로148길 52-18,http://place.map.kakao.com/18776062
우성서울숲텔,숙박,"여행 > 숙박 > 여관,모텔",127.045021949466,37.5430366161879,서울 성동구 왕십리로 66-26,http://place.map.kakao.com/27176449
동아모텔,숙박,"여행 > 숙박 > 여관,모텔",127.044941104764,37.5817650809493,서울 동대문구 홍릉로 16,http://place.map.kakao.com/16819619
호텔베이204,숙박,여행 > 숙박 > 호텔,127.043632795324,37.6677809956902,서울 도봉구 도봉로 710,http://place.map.kakao.com/417893472
럭스모텔,숙박,"여행 > 숙박 > 여관,모텔",127.043407711605,37.6705344741502,서울 도봉구 도봉로 739,http://place.map.kakao.com/1353224679
청계산장글램핑,숙박,"여행 > 숙박 > 야영,캠핑장 > 글램핑장",127.04643991926734,37.44830332055855,서울 서초구 청계산로 140-94,http://place.map.kakao.com/90792441
호텔데님,숙박,여행 > 숙박 > 호텔,127.046641410362,37.4761309913882,서울 강남구 논현로 66,http://place.map.kakao.com/25638677
호텔컬리넌 개포점,숙박,여행 > 숙박 > 호텔,127.045922845909,37.4768773088294,서울 강남구 논현로 74-1,http://place.map.kakao.com/1918179243
호텔크레센도 서울,숙박,여행 > 숙박 > 호텔,127.04689261367498,37.51085480234504,서울 강남구 봉은사로 428,http://place.map.kakao.com/485733859
디자인모텔엑스와이엠,숙박,"여행 > 숙박 > 여관,모텔",127.04581585536536,37.58113314816955,서울 동대문구 왕산로 209-3,http://place.map.kakao.com/25689523
라비앙모텔,숙박,"여행 > 숙박 > 여관,모텔",127.046722661207,37.6136919098002,서울 성북구 장위로 90,http://place.map.kakao.com/23886261
도봉산모텔,숙박,"여행 > 숙박 > 여관,모텔",127.04520321784764,37.6818699186063,서울 도봉구 도봉로 867,http://place.map.kakao.com/16089519
호텔더데이,숙박,"여행 > 숙박 > 여관,모텔",127.04571648677012,37.68511594439333,서울 도봉구 도봉로 903,http://place.map.kakao.com/1555779223
신진양레저관광,숙박,여행 > 숙박 > 호텔,127.048041870127,37.4739355702599,서울 서초구 논현로 35,http://place.map.kakao.com/14515949
호텔뉴브,숙박,여행 > 숙박 > 호텔,127.049110018057,37.503026871004,서울 강남구 선릉로85길 6,http://place.map.kakao.com/1307986452
호텔스타,숙박,"여행 > 숙박 > 여관,모텔",127.04939199204745,37.50530449509704,서울 강남구 선릉로92길 8,http://place.map.kakao.com/1976356901
호텔엔트라 강남,숙박,여행 > 숙박 > 호텔,127.0484665135331,37.52401872735025,서울 강남구 도산대로 508,http://place.map.kakao.com/597502026
명성여관,숙박,"여행 > 숙박 > 여관,모텔",127.049408450707,37.5371315108992,서울 성동구 둘레7가길 11,http://place.map.kakao.com/16821523
칸모텔,숙박,"여행 > 숙박 > 여관,모텔",127.049027559565,37.5705803120867,서울 동대문구 사가정로 7,http://place.map.kakao.com/25815114
호텔더디자이너스 청량리,숙박,여행 > 숙박 > 호텔,127.047631053735,37.5817712341459,서울 동대문구 왕산로 226,http://place.map.kakao.com/27136891
그린장모텔,숙박,"여행 > 숙박 > 여관,모텔",127.049439825617,37.5846284412313,서울 동대문구 제기로38길 38,http://place.map.kakao.com/16499015
은하장,숙박,"여행 > 숙박 > 여관,모텔",127.04827653717,37.6135795617625,서울 성북구 장위로 104,http://place.map.kakao.com/16648541
애니텔,숙박,"여행 > 숙박 > 여관,모텔",127.049457914668,37.6529881847541,서울 도봉구 마들로11가길 13-7,http://place.map.kakao.com/8469271
금강장여관,숙박,"여행 > 숙박 > 여관,모텔",127.047849419976,37.6752142458293,서울 도봉구 마들로 732,http://place.map.kakao.com/22989246
L7 강남,숙박,여행 > 숙박 > 호텔,127.05175378791697,37.505764798611686,서울 강남구 테헤란로 415,http://place.map.kakao.com/83448418
타라호텔,숙박,"여행 > 숙박 > 여관,모텔",127.051885630429,37.5067017860543,서울 강남구 선릉로100길 56,http://place.map.kakao.com/8110952
어반네스트호텔,숙박,"여행 > 숙박 > 여관,모텔",127.05194644266916,37.50632423821841,서울 강남구 선릉로92길 41,http://place.map.kakao.com/294773314
JS무인호텔,숙박,"여행 > 숙박 > 여관,모텔",127.05145791633772,37.50641455254583,서울 강남구 선릉로92길 37-5,http://place.map.kakao.com/904937425
화신장여관,숙박,"여행 > 숙박 > 여관,모텔",127.051460963194,37.5734120047798,서울 동대문구 답십리로40길 3-18,http://place.map.kakao.com/10973942
영일장여관,숙박,"여행 > 숙박 > 여관,모텔",127.050582701931,37.6138200607579,서울 성북구 장월로16길 45,http://place.map.kakao.com/23886399
론스타호텔,숙박,여행 > 숙박 > 호텔,127.051199040229,37.6537334555044,서울 도봉구 마들로11길 37,http://place.map.kakao.com/20744715
베르사유호텔,숙박,"여행 > 숙박 > 여관,모텔",127.05138036213889,37.65374238649428,서울 도봉구 마들로11길 35,http://place.map.kakao.com/9839950
오라카이청계산호텔,숙박,여행 > 숙박 > 호텔,127.0546981800968,37.44898005261383,서울 서초구 청계산로9길 1-7,http://place.map.kakao.com/873644582
프린스호텔,숙박,여행 > 숙박 > 호텔,127.053118932312,37.5042360877028,서울 강남구 선릉로86길 43,http://place.map.kakao.com/16704467
그레이호텔,숙박,"여행 > 숙박 > 여관,모텔",127.052904526186,37.5049110369099,서울 강남구 선릉로90길 46,http://place.map.kakao.com/259862267
스텔라호스텔,숙박,여행 > 숙박 > 게스트하우스,127.054187297946,37.5052591444721,서울 강남구 선릉로90길 62,http://place.map.kakao.com/1302977083
디에이스호텔,숙박,여행 > 숙박 > 호텔,127.05403472439292,37.50697833206532,서울 강남구 테헤란로77길 11-5,http://place.map.kakao.com/1018760457
리베라호텔 청담,숙박,여행 > 숙박 > 호텔 > 특급호텔 > 리베라호텔,127.05420977446911,37.52382702040133,서울 강남구 영동대로 737,http://place.map.kakao.com/10348068
SM부티크호텔,숙박,"여행 > 숙박 > 여관,모텔",127.05357523717866,37.56665540135885,서울 동대문구 천호대로 291-1,http://place.map.kakao.com/1401076081
코리게스트하우스,숙박,여행 > 숙박 > 게스트하우스,127.052692607207,37.5798697886362,서울 동대문구 답십리로23나길 18,http://place.map.kakao.com/1063524682
카누호텔,숙박,"여행 > 숙박 > 여관,모텔",127.05409069636,37.6782676693209,서울 노원구 동일로243길 17,http://place.map.kakao.com/443613021
알프스모텔,숙박,"여행 > 숙박 > 여관,모텔",127.05409069636,37.6782676693209,서울 노원구 동일로243길 17,http://place.map.kakao.com/16763917
서울의휴일게스트하우스,숙박,여행 > 숙박 > 게스트하우스,127.05532766921,37.4996003004081,서울 강남구 도곡로69길 40,http://place.map.kakao.com/799476102
앰배서더호텔 이비스스타일 서울강남,숙박,여행 > 숙박 > 호텔 > 특급호텔 > 앰배서더호텔,127.057068909754,37.5051100226147,서울 강남구 삼성로 431,http://place.map.kakao.com/27610458
아이게스트하우스 삼성점,숙박,여행 > 숙박 > 게스트하우스,127.05517003029,37.51282712851,서울 강남구 봉은사로82길 9-3,http://place.map.kakao.com/11582115
라비타호텔,숙박,여행 > 숙박 > 호텔,127.05686862661,37.521375043141,서울 강남구 영동대로 712,http://place.map.kakao.com/1397235998
알로프트 서울강남,숙박,여행 > 숙박 > 호텔,127.055635110582,37.5237650894249,서울 강남구 영동대로 736,http://place.map.kakao.com/25778238
리버스테이,숙박,"여행 > 숙박 > 여관,모텔",127.056288102357,37.5346470766978,서울 성동구 둘레17길 2,http://place.map.kakao.com/1140938757
호텔포코 성수,숙박,여행 > 숙박 > 호텔,127.057043804328,37.5434458804588,서울 성동구 성수이로 96,http://place.map.kakao.com/1114629397
로즈파크모텔,숙박,"여행 > 숙박 > 여관,모텔",127.055911726301,37.5488019597263,서울 성동구 아차산로7길 42-1,http://place.map.kakao.com/15307008
글램,숙박,"여행 > 숙박 > 여관,모텔",127.054908069241,37.5890318787579,서울 동대문구 이문로 14,http://place.map.kakao.com/493076904
호텔페이토 삼성,숙박,여행 > 숙박 > 호텔,127.05871822555,37.508453744724,서울 강남구 테헤란로87길 9,http://place.map.kakao.com/10095141
호텔유리앤,숙박,여행 > 숙박 > 호텔,127.057569468606,37.508926436627,서울 강남구 삼성로96길 20,http://place.map.kakao.com/1334116752
오크우드프리미어 코엑스센터,숙박,여행 > 숙박 > 호텔,127.05811853031,37.5110453302872,서울 강남구 테헤란로87길 46,http://place.map.kakao.com/27169901
부티크호텔k 동대문점,숙박,"여행 > 숙박 > 여관,모텔",127.05762395648104,37.563589657588416,서울 동대문구 천호대로 341,http://place.map.kakao.com/11591215
리즈모텔,숙박,"여행 > 숙박 > 여관,모텔",127.057179093998,37.572418279341,서울 동대문구 전농로 83,http://place.map.kakao.com/11856669
24게스트하우스 경희대점,숙박,여행 > 숙박 > 게스트하우스,127.05815678860048,37.5908953767574,서울 동대문구 회기로29길 18,http://place.map.kakao.com/631973030
회기모텔,숙박,"여행 > 숙박 > 여관,모텔",127.0584473647609,37.59036184588207,서울 동대문구 회기로31길 1,http://place.map.kakao.com/16053777
Q모텔,숙박,"여행 > 숙박 > 여관,모텔",127.05883242018224,37.59047157563084,서울 동대문구 회기로31길 9,http://place.map.kakao.com/44229535
리오모텔,숙박,"여행 > 숙박 > 여관,모텔",127.057903926719,37.5904233811938,서울 동대문구 회기로29길 5,http://place.map.kakao.com/16555107
노블레스관광호텔,숙박,여행 > 숙박 > 호텔,127.05936394096,37.6551892207142,서울 노원구 노해로77길 22,http://place.map.kakao.com/25613305
럭스호텔,숙박,"여행 > 숙박 > 여관,모텔",127.0575173634018,37.65451439878257,서울 노원구 노해로75길 14-3,http://place.map.kakao.com/20557141
리츠호텔,숙박,"여행 > 숙박 > 여관,모텔",127.057672852117,37.6548188548993,서울 노원구 노해로75길 20-7,http://place.map.kakao.com/7863652
딘호텔,숙박,"여행 > 숙박 > 여관,모텔",127.058552002598,37.6545084838864,서울 노원구 노해로75길 14-20,http://place.map.kakao.com/1224564355
뉴몬드호텔,숙박,"여행 > 숙박 > 여관,모텔",127.05745976698518,37.654772107802266,서울 노원구 노해로75길 20-3,http://place.map.kakao.com/24044026
노원모텔,숙박,"여행 > 숙박 > 여관,모텔",127.0577406288138,37.654537715253994,서울 노원구 노해로75길 14-7,http://place.map.kakao.com/13691897
세피아호텔,숙박,"여행 > 숙박 > 여관,모텔",127.058221438526,37.6549447229456,서울 노원구 노해로75길 20-17,http://place.map.kakao.com/16903116
브이모텔,숙박,"여행 > 숙박 > 여관,모텔",127.05784020815,37.6543502621369,서울 노원구 노해로75길 14-8,http://place.map.kakao.com/16649648
그랜드인터컨티넨탈 서울파르나스,숙박,여행 > 숙박 > 호텔 > 특급호텔 > 인터컨티넨탈호텔,127.06080669351726,37.50919151190288,서울 강남구 테헤란로 521,http://place.map.kakao.com/8161840
호텔인나인,숙박,여행 > 숙박 > 호텔,127.0600630244236,37.51552595126175,서울 강남구 영동대로 618,http://place.map.kakao.com/970658221
강변모텔,숙박,"여행 > 숙박 > 여관,모텔",127.0608849398697,37.53589358305446,서울 광진구 동일로 34,http://place.map.kakao.com/269581479
새턴호텔,숙박,"여행 > 숙박 > 여관,모텔",127.060815152068,37.5614098980356,서울 성동구 자동차시장1길 29,http://place.map.kakao.com/52088290
호텔27 동대문,숙박,"여행 > 숙박 > 여관,모텔",127.060679315754,37.5613883440075,서울 성동구 자동차시장1길 27,http://place.map.kakao.com/27181719
더리센츠호텔,숙박,여행 > 숙박 > 호텔,127.061653413936,37.5622744199462,서울 동대문구 천호대로 383,http://place.map.kakao.com/1189525280
골든씨티호텔,숙박,여행 > 숙박 > 호텔,127.061006080033,37.5623684598403,서울 동대문구 천호대로 377,http://place.map.kakao.com/26622526
리치모텔,숙박,"여행 > 숙박 > 여관,모텔",127.06056898361342,37.6096221554219,서울 성북구 돌곶이로18길 27-4,http://place.map.kakao.com/11370192
나비호텔,숙박,"여행 > 숙박 > 여관,모텔",127.061815667726,37.6106792702443,서울 성북구 돌곶이로22길 70,http://place.map.kakao.com/1964010460
쉴모텔,숙박,"여행 > 숙박 > 여관,모텔",127.059678120246,37.6229482248999,서울 노원구 광운로 61,http://place.map.kakao.com/14711446
파크 하얏트 서울,숙박,여행 > 숙박 > 호텔 > 특급호텔 > 하얏트호텔,127.06428310006892,37.50873196084404,서울 강남구 테헤란로 606,http://place.map.kakao.com/12392756
신라스테이 삼성,숙박,여행 > 숙박 > 호텔 > 신라스테이,127.0631756888806,37.50991377528472,서울 강남구 영동대로 506,http://place.map.kakao.com/1117108402
호텔케이월드,숙박,여행 > 숙박 > 호텔,127.06342525517582,37.54058213193471,서울 광진구 동일로 90,http://place.map.kakao.com/1938156039
호텔라하,숙박,"여행 > 숙박 > 여관,모텔",127.062311384991,37.602116003327,서울 동대문구 이문로 174-1,http://place.map.kakao.com/1741368725
유니크서울,숙박,여행 > 숙박 > 호텔,127.062244789853,37.6037378209051,서울 동대문구 이문로 192,http://place.map.kakao.com/230266061
글래드 강남코엑스센터,숙박,여행 > 숙박 > 호텔,127.064649658565,37.5088542974227,서울 강남구 테헤란로 610,http://place.map.kakao.com/1061735080
시마모텔,숙박,"여행 > 숙박 > 여관,모텔",127.065567734362,37.539511294756565,서울 광진구 아차산로26길 39,http://place.map.kakao.com/1109388903
초원모텔,숙박,"여행 > 숙박 > 여관,모텔",127.06582120346695,37.54210242897375,서울 광진구 동일로22길 28,http://place.map.kakao.com/15814063
H에비뉴호텔 건대점,숙박,여행 > 숙박 > 호텔,127.06660997947182,37.546028541315394,서울 광진구 동일로 156,http://place.map.kakao.com/2101999235
그랜드모텔,숙박,"여행 > 숙박 > 여관,모텔",127.0661602348288,37.54545936280679,서울 광진구 동일로 148,http://place.map.kakao.com/16085923
라스테이,숙박,"여행 > 숙박 > 여관,모텔",127.066601057172,37.5487189285327,서울 성동구 송정6길 19-1,http://place.map.kakao.com/146207610
하얀호텔,숙박,"여행 > 숙박 > 여관,모텔",127.066128214203,37.5642902301047,서울 동대문구 장한로 31,http://place.map.kakao.com/9554456
JW모텔,숙박,"여행 > 숙박 > 여관,모텔",127.06574754215532,37.56645103105325,서울 동대문구 한천로14길 58,http://place.map.kakao.com/1925025898
꿀순이네옥탑&달방,숙박,"여행 > 숙박 > 여관,모텔",127.065735224747,37.5987930946295,서울 동대문구 외대역동로 125-5,http://place.map.kakao.com/52744340
이문모텔,숙박,"여행 > 숙박 > 여관,모텔",127.065156692121,37.6028244471672,서울 동대문구 신이문로16길 1,http://place.map.kakao.com/582497139
우성여관,숙박,"여행 > 숙박 > 여관,모텔",127.065771776307,37.6171570413239,서울 노원구 화랑로45길 42-17,http://place.map.kakao.com/20746037
호텔더디자이너스프리미어 건대점,숙박,여행 > 숙박 > 호텔,127.06729689933591,37.54733640212203,서울 광진구 동일로 172,http://place.map.kakao.com/650360965
티아라모텔,숙박,"여행 > 숙박 > 여관,모텔",127.068313453616,37.5477394658041,서울 광진구 동일로30길 17,http://place.map.kakao.com/20743379
호텔테마,숙박,"여행 > 숙박 > 여관,모텔",127.069159972477,37.5478146569186,서울 광진구 광나루로14길 5,http://place.map.kakao.com/10898073
프린스모텔,숙박,"여행 > 숙박 > 여관,모텔",127.067552526151,37.5472065123408,서울 광진구 광나루로12길 12,http://place.map.kakao.com/16676376
Q모텔,숙박,"여행 > 숙박 > 여관,모텔",127.066995623315,37.5470374418563,서울 광진구 동일로 168,http://place.map.kakao.com/1888578123
플라워모텔,숙박,"여행 > 숙박 > 여관,모텔",127.068485066914,37.5473104910193,서울 광진구 광나루로14길 20,http://place.map.kakao.com/15375903
M모텔,숙박,"여행 > 숙박 > 여관,모텔",127.068557582357,37.5474113607954,서울 광진구 광나루로14길 18,http://place.map.kakao.com/16052733
호텔컬리넌 건대점,숙박,여행 > 숙박 > 호텔,127.06904027247326,37.55054114822904,서울 광진구 동일로 212,http://place.map.kakao.com/22972312
호텔 드가자,숙박,"여행 > 숙박 > 여관,모텔",127.0688486670801,37.55138549538368,서울 성동구 동일로 217,http://place.map.kakao.com/1964940809
호텔컬리넌 건대2호점,숙박,여행 > 숙박 > 호텔,127.06913670147308,37.55079877729434,서울 광진구 동일로 214,http://place.map.kakao.com/1745061951
보르조미 서울부티크호텔,숙박,여행 > 숙박 > 호텔,127.067030772004,37.5660664852287,서울 동대문구 천호대로83길 98,http://place.map.kakao.com/23372257
K하이스텔 장안174,숙박,"여행 > 숙박 > 여관,모텔",127.067923092357,37.5764652602252,서울 동대문구 한천로 174,http://place.map.kakao.com/1786482561
더클래식500 펜타즈호텔,숙박,여행 > 숙박 > 호텔,127.070830130511,37.5381297256139,서울 광진구 능동로 90,http://place.map.kakao.com/12602144
펜타즈호텔,숙박,여행 > 숙박 > 호텔,127.07092087005326,37.53836393117944,서울 광진구 능동로 90,http://place.map.kakao.com/1992037242
모텔프리마,숙박,"여행 > 숙박 > 여관,모텔",127.06962244866116,37.547432361704445,서울 광진구 동일로30길 42,http://place.map.kakao.com/8578611
행복한눈물호텔,숙박,"여행 > 숙박 > 여관,모텔",127.0696237853208,37.56954733245848,서울 동대문구 장한로 97,http://place.map.kakao.com/25814127
모텔알프스,숙박,"여행 > 숙박 > 여관,모텔",127.070365337524,37.5684792132604,서울 동대문구 장한로20길 15,http://place.map.kakao.com/16446785
시그니처호텔,숙박,"여행 > 숙박 > 여관,모텔",127.06976590046968,37.57021398505648,서울 동대문구 장한로21길 8,http://place.map.kakao.com/298318390
벨루스호텔,숙박,"여행 > 숙박 > 여관,모텔",127.071304623093,37.5706266225001,서울 동대문구 장한로24길 8,http://place.map.kakao.com/628047401
이지호텔,숙박,"여행 > 숙박 > 여관,모텔",127.071448970318,37.5700571062707,서울 동대문구 장한로26가길 37,http://place.map.kakao.com/24482973
길벗호텔,숙박,"여행 > 숙박 > 여관,모텔",127.071362842116,37.5699526429174,서울 동대문구 장한로26가길 39,http://place.map.kakao.com/1073559894
월드모텔,숙박,"여행 > 숙박 > 여관,모텔",127.071280498828,37.5785698048864,서울 동대문구 사가정로 238,http://place.map.kakao.com/8035695
동궁여관,숙박,"여행 > 숙박 > 여관,모텔",127.071230904487,37.6595325924494,서울 노원구 한글비석로23길 29,http://place.map.kakao.com/20744798
더자바호텔,숙박,"여행 > 숙박 > 여관,모텔",127.073641934166,37.589971323314,서울 중랑구 중랑천로 54,http://place.map.kakao.com/27243618
초이스모텔,숙박,"여행 > 숙박 > 여관,모텔",127.073596633312,37.5899605396624,서울 중랑구 중랑천로 54,http://place.map.kakao.com/14719889
발리모텔,숙박,"여행 > 숙박 > 여관,모텔",127.07163889763731,37.59343596893278,서울 중랑구 망우로25길 10,http://place.map.kakao.com/286256242
신라장모텔,숙박,"여행 > 숙박 > 여관,모텔",127.071670533128,37.593363870395,서울 중랑구 망우로25길 8,http://place.map.kakao.com/16792029
QT모텔,숙박,"여행 > 숙박 > 여관,모텔",127.0736106193356,37.62254392170166,서울 노원구 동일로 1035,http://place.map.kakao.com/20742225
대흥여관,숙박,"여행 > 숙박 > 여관,모텔",127.072644188188,37.6630671810247,서울 노원구 한글비석로24라길 5,http://place.map.kakao.com/11085877
브릭핸즈 건대점,숙박,여행 > 숙박 > 게스트하우스,127.075973879327,37.5448984411884,서울 광진구 능동로16길 50-7,http://place.map.kakao.com/1251556854
아미가,숙박,"여행 > 숙박 > 여관,모텔",127.07620587485634,37.55714736107321,서울 광진구 면목로 33,http://place.map.kakao.com/16498965
헤라모텔,숙박,"여행 > 숙박 > 여관,모텔",127.07428799555946,37.561022869982686,서울 광진구 동일로 335,http://place.map.kakao.com/16791201
호텔시네마,숙박,"여행 > 숙박 > 여관,모텔",127.074473746932,37.5793462922084,서울 동대문구 사가정로 266,http://place.map.kakao.com/11314060
새롬모텔,숙박,"여행 > 숙박 > 여관,모텔",127.07432541849263,37.58957085437482,서울 중랑구 봉우재로 7,http://place.map.kakao.com/16379751
르블랑호텔,숙박,"여행 > 숙박 > 여관,모텔",127.07569748732637,37.61617892556517,서울 중랑구 동일로 961,http://place.map.kakao.com/460218060
발리모텔,숙박,"여행 > 숙박 > 여관,모텔",127.077831196217,37.5376676108459,서울 광진구 아차산로 316,http://place.map.kakao.com/24048443
호텔더디자이너스 건대점,숙박,여행 > 숙박 > 호텔,127.07661144291188,37.55864185273815,서울 광진구 천호대로 521,http://place.map.kakao.com/1564665140
라코지스테이,숙박,여행 > 숙박 > 호텔,127.078459641581,37.5942461283863,서울 중랑구 망우로 232,http://place.map.kakao.com/648839161
Hotel de ciel,숙박,여행 > 숙박 > 호텔,127.07865159645462,37.60771760996796,서울 중랑구 동일로 866,http://place.map.kakao.com/27481684
W호텔,숙박,"여행 > 숙박 > 여관,모텔",127.07678025751856,37.6183369932333,서울 노원구 화랑로 445,http://place.map.kakao.com/18836855
호수장여관,숙박,"여행 > 숙박 > 여관,모텔",127.077734839534,37.6670066274457,서울 노원구 덕릉로115나길 5,http://place.map.kakao.com/16472783
상주호텔,숙박,여행 > 숙박 > 호텔,127.080584905626,37.5100662631096,서울 송파구 올림픽로8길 19,http://place.map.kakao.com/490624356
파로스관광호텔,숙박,여행 > 숙박 > 호텔,127.08116620882164,37.51105967281793,서울 송파구 올림픽로10길 5,http://place.map.kakao.com/12054007
호텔엔유 종합운동장점,숙박,"여행 > 숙박 > 여관,모텔",127.080766676979,37.5108121705187,서울 송파구 올림픽로10길 8,http://place.map.kakao.com/25510787
어린이대공원 숲속캠핑체험장,숙박,"여행 > 숙박 > 야영,캠핑장",127.081048984266,37.55012085888922,서울 광진구 능동로 216,http://place.map.kakao.com/25411915
부티크나인호텔,숙박,여행 > 숙박 > 호텔,127.08010517778877,37.556457319102265,서울 광진구 천호대로 560,http://place.map.kakao.com/1356940878
휘모텔,숙박,"여행 > 숙박 > 여관,모텔",127.079989679617,37.558518878782,서울 광진구 능동로 323,http://place.map.kakao.com/10105307
모텔리츠,숙박,"여행 > 숙박 > 여관,모텔",127.079248397861,37.5809865957968,서울 중랑구 동일로 567,http://place.map.kakao.com/14562819
모텔597,숙박,"여행 > 숙박 > 여관,모텔",127.079436872194,37.5836281815054,서울 중랑구 동일로 597,http://place.map.kakao.com/1238382346
아미가모텔,숙박,"여행 > 숙박 > 여관,모텔",127.07949385055066,37.58610587367686,서울 중랑구 동일로 623-1,http://place.map.kakao.com/26336734
첼로모텔,숙박,"여행 > 숙박 > 여관,모텔",127.080980328902,37.587061717438,서울 중랑구 겸재로 119,http://place.map.kakao.com/16705891
M호텔,숙박,"여행 > 숙박 > 여관,모텔",127.079609064145,37.587978058624,서울 중랑구 동일로 643,http://place.map.kakao.com/2112564532
희망모텔,숙박,"여행 > 숙박 > 여관,모텔",127.079801356532,37.5984078080491,서울 중랑구 동일로 761,http://place.map.kakao.com/16849033
힐파크모텔,숙박,"여행 > 숙박 > 여관,모텔",127.07893096478573,37.606300166914544,서울 중랑구 동일로 850,http://place.map.kakao.com/16532719
포레스타호텔 2호점,숙박,여행 > 숙박 > 호텔,127.0813674273202,37.51095772090475,서울 송파구 백제고분로7길 23-5,http://place.map.kakao.com/755458901
호텔더캐슬 신천점,숙박,여행 > 숙박 > 호텔,127.08180302519,37.5110853626367,서울 송파구 올림픽로12길 4-17,http://place.map.kakao.com/171224789
포레스타 1호점,숙박,"여행 > 숙박 > 여관,모텔",127.081640018757,37.510962938841,서울 송파구 백제고분로7길 23-6,http://place.map.kakao.com/511855414
라비앙호텔,숙박,"여행 > 숙박 > 여관,모텔",127.082269018893,37.5110814349824,서울 송파구 올림픽로12길 4-15,http://place.map.kakao.com/1467741627
씩스티호텔,숙박,"여행 > 숙박 > 여관,모텔",127.08231901124,37.5112868291044,서울 송파구 올림픽로12길 4-12,http://place.map.kakao.com/17150828
MW호텔,숙박,"여행 > 숙박 > 여관,모텔",127.08345004944591,37.51126170834819,서울 송파구 올림픽로12길 5-9,http://place.map.kakao.com/16047638
라마모텔,숙박,"여행 > 숙박 > 여관,모텔",127.082935523178,37.5695882861577,서울 광진구 면목로 183-1,http://place.map.kakao.com/16053051
정모텔,숙박,"여행 > 숙박 > 여관,모텔",127.083575612115,37.5710834866557,서울 광진구 면목로 204,http://place.map.kakao.com/16849261
테마21모텔,숙박,"여행 > 숙박 > 여관,모텔",127.083421758598,37.5955185293355,서울 중랑구 망우로 278,http://place.map.kakao.com/16046957
비젼게스트하우스 신천점,숙박,여행 > 숙박 > 게스트하우스,127.085067303787,37.5091188674736,서울 송파구 석촌호수로12길 14,http://place.map.kakao.com/19381596
로즈마리모텔,숙박,"여행 > 숙박 > 여관,모텔",127.08456974674792,37.51121045576194,서울 송파구 올림픽로12길 5-29,http://place.map.kakao.com/12634259
신천플러스모텔,숙박,"여행 > 숙박 > 여관,모텔",127.084377468894,37.5112132962815,서울 송파구 올림픽로12길 5-25,http://place.map.kakao.com/17757637
라몬호텔,숙박,"여행 > 숙박 > 여관,모텔",127.0837215050209,37.5112615162576,서울 송파구 올림픽로12길 5-11,http://place.map.kakao.com/27280926
하루모텔,숙박,"여행 > 숙박 > 여관,모텔",127.08391150879191,37.511247866371455,서울 송파구 올림픽로12길 5-17,http://place.map.kakao.com/16270093
신천 윈,숙박,"여행 > 숙박 > 여관,모텔",127.084196506727,37.5112206334435,서울 송파구 올림픽로12길 5-21,http://place.map.kakao.com/40208485
피넛호텔,숙박,"여행 > 숙박 > 여관,모텔",127.084511104577,37.5334283173227,서울 광진구 자양로 63,http://place.map.kakao.com/12435751
폼모텔,숙박,"여행 > 숙박 > 여관,모텔",127.08596827713058,37.53730877551434,서울 광진구 아차산로 389,http://place.map.kakao.com/781897009
서울장여관,숙박,"여행 > 숙박 > 여관,모텔",127.085419838541,37.5603963563388,서울 광진구 긴고랑로 90,http://place.map.kakao.com/16791142
잠실스테이,숙박,여행 > 숙박 > 호텔,127.08804830224688,37.50492160483204,서울 송파구 삼전로 67,http://place.map.kakao.com/1440572051
유토피아모텔,숙박,"여행 > 숙박 > 여관,모텔",127.087644958444,37.5468545328381,서울 광진구 자양로 226,http://place.map.kakao.com/932013093
헤나모텔,숙박,"여행 > 숙박 > 여관,모텔",127.088035260866,37.555428139728,서울 광진구 용마산로 19,http://place.map.kakao.com/9601021
영빈장,숙박,"여행 > 숙박 > 여관,모텔",127.0876485161128,37.55472474846138,서울 광진구 용마산로1길 11,http://place.map.kakao.com/12188693
이화장여관,숙박,"여행 > 숙박 > 여관,모텔",127.08802152324,37.5552948023574,서울 광진구 용마산로 17-1,http://place.map.kakao.com/16053031
파인힐모텔,숙박,"여행 > 숙박 > 여관,모텔",127.08646851625,37.5707282131781,서울 광진구 용마산로 192,http://place.map.kakao.com/16509192
동부장모텔,숙박,"여행 > 숙박 > 여관,모텔",127.087941581327,37.5835644882949,서울 중랑구 면목로53길 7,http://place.map.kakao.com/16504694
24게스트하우스 잠실점,숙박,여행 > 숙박 > 게스트하우스,127.089376414309,37.5033204221825,서울 송파구 백제고분로22길 5,http://place.map.kakao.com/1277085147
엠칼라스,숙박,"여행 > 숙박 > 여관,모텔",127.09089047529,37.5506470844418,서울 광진구 천호대로 679,http://place.map.kakao.com/16620094
모텔코지,숙박,"여행 > 숙박 > 여관,모텔",127.088578923054,37.5557917360456,서울 광진구 용마산로 24,http://place.map.kakao.com/16650301
메이호텔,숙박,"여행 > 숙박 > 여관,모텔",127.090012686998,37.5961083410953,서울 중랑구 망우로52길 28,http://place.map.kakao.com/7871706
호텔테마,숙박,"여행 > 숙박 > 여관,모텔",127.089347659426,37.5967719758371,서울 중랑구 망우로52길 8,http://place.map.kakao.com/10899588
호텔버스,숙박,"여행 > 숙박 > 여관,모텔",127.08958685944,37.5960546056094,서울 중랑구 망우로52길 22-7,http://place.map.kakao.com/1325626021
상봉공감모텔,숙박,"여행 > 숙박 > 여관,모텔",127.090351707172,37.5955422596002,서울 중랑구 상봉로25나길 20,http://place.map.kakao.com/889473350
스테이안,숙박,여행 > 숙박 > 펜션,127.089397574261,37.5959015806329,서울 중랑구 망우로50길 29,http://place.map.kakao.com/2046527152
호텔동서울,숙박,여행 > 숙박 > 호텔,127.091888748346,37.534172439894,서울 광진구 구의강변로 38,http://place.map.kakao.com/21328663
월호텔 아차산역,숙박,"여행 > 숙박 > 여관,모텔",127.092993955998,37.5486028835649,서울 광진구 천호대로138길 4,http://place.map.kakao.com/1156815679
신라모텔,숙박,"여행 > 숙박 > 여관,모텔",127.092341863425,37.5896410259635,서울 중랑구 겸재로 223,http://place.map.kakao.com/7983560
JY모텔,숙박,"여행 > 숙박 > 여관,모텔",127.09115740506,37.5951091642865,서울 중랑구 상봉로25가길 9,http://place.map.kakao.com/26117452
에덴게스트하우스,숙박,여행 > 숙박 > 게스트하우스,127.095466981283,37.5045410241212,서울 송파구 삼전로10길 55,http://place.map.kakao.com/764454699
박스호텔,숙박,"여행 > 숙박 > 여관,모텔",127.0935253429996,37.54006730003279,서울 광진구 아차산로 465,http://place.map.kakao.com/1236152930
위시앤스테이모텔,숙박,"여행 > 숙박 > 여관,모텔",127.0942430737925,37.54215074131017,서울 광진구 광나루로 594,http://place.map.kakao.com/1209238715
그레이튼호텔,숙박,"여행 > 숙박 > 여관,모텔",127.09353156336677,37.59573800063611,서울 중랑구 상봉로28길 7,http://place.map.kakao.com/370080774
칼튼호텔,숙박,"여행 > 숙박 > 여관,모텔",127.09433773626,37.5956941114584,서울 중랑구 상봉로26길 23,http://place.map.kakao.com/16765467
아테네모텔,숙박,"여행 > 숙박 > 여관,모텔",127.093780877615,37.5958963772483,서울 중랑구 상봉로28길 13,http://place.map.kakao.com/9270060
M모텔,숙박,"여행 > 숙박 > 여관,모텔",127.09367321228343,37.5958225814713,서울 중랑구 상봉로28길 11,http://place.map.kakao.com/23106402
호텔스타 상봉점,숙박,"여행 > 숙박 > 여관,모텔",127.09373813821,37.5979326508344,서울 중랑구 망우로58길 8,http://place.map.kakao.com/169487486
호텔인피니,숙박,여행 > 숙박 > 호텔,127.096079232465,37.5022051220499,서울 송파구 백제고분로 268,http://place.map.kakao.com/27316935
줌모텔,숙박,"여행 > 숙박 > 여관,모텔",127.09696443289673,37.50545792855814,서울 송파구 삼학사로 91,http://place.map.kakao.com/21215078
남경모텔,숙박,"여행 > 숙박 > 여관,모텔",127.097494974718,37.5055448893506,서울 송파구 삼학사로 94,http://place.map.kakao.com/10184999
로사나호텔,숙박,여행 > 숙박 > 호텔,127.09752382465116,37.50598725894338,서울 송파구 삼학사로 98,http://place.map.kakao.com/18629644
초이호텔,숙박,"여행 > 숙박 > 여관,모텔",127.09668068572007,37.589669987574425,서울 중랑구 용마산로 427,http://place.map.kakao.com/26783318
롯데호텔 월드,숙박,여행 > 숙박 > 호텔 > 특급호텔 > 롯데호텔,127.10034052818553,37.51146661087409,서울 송파구 올림픽로 240,http://place.map.kakao.com/7855910
대흥장여관,숙박,"여행 > 숙박 > 여관,모텔",127.09991914318832,37.599996254451,서울 중랑구 망우로 431,http://place.map.kakao.com/15837878
레이크호텔,숙박,여행 > 숙박 > 호텔,127.10099375060535,37.50687183294708,서울 송파구 석촌호수로 216,http://place.map.kakao.com/7858588
시그니엘 서울,숙박,여행 > 숙박 > 호텔,127.10286981538962,37.51244923250255,서울 송파구 올림픽로 300,http://place.map.kakao.com/460943581
AB게스트하우스,숙박,여행 > 숙박 > 게스트하우스,127.101841942393,37.5451096202741,서울 광진구 천호대로 798-12,http://place.map.kakao.com/362210833
공감모텔,숙박,"여행 > 숙박 > 여관,모텔",127.101232026444,37.5994725611716,서울 중랑구 용마산로116길 13,http://place.map.kakao.com/76303186
대하모텔,숙박,"여행 > 숙박 > 여관,모텔",127.104486142636,37.5457091773547,서울 광진구 아차산로 583,http://place.map.kakao.com/20747324
소피텔 앰배서더 서울 호텔&서비스드 레지던스,숙박,여행 > 숙박 > 호텔 > 특급호텔 > 앰배서더호텔,127.106165424275,37.51378610891105,서울 송파구 잠실로 209,http://place.map.kakao.com/1774858959
나무호텔,숙박,여행 > 숙박 > 호텔,127.107197408371,37.5472798907195,서울 광진구 아차산로76가길 12,http://place.map.kakao.com/300286762
코너호텔,숙박,"여행 > 숙박 > 여관,모텔",127.109753638215,37.5016670215998,서울 송파구 송파대로 385,http://place.map.kakao.com/1933230517
체리호텔,숙박,"여행 > 숙박 > 여관,모텔",127.108334732454,37.5152482698569,서울 송파구 오금로11길 11-15,http://place.map.kakao.com/389448301
딜라이트호텔,숙박,여행 > 숙박 > 호텔,127.10931222484436,37.51538522278035,서울 송파구 오금로11길 21-9,http://place.map.kakao.com/421395600
넘버25 방이점,숙박,"여행 > 숙박 > 여관,모텔",127.109240036328,37.5155249450832,서울 송파구 오금로11길 21-13,http://place.map.kakao.com/666074998
톰지호텔,숙박,"여행 > 숙박 > 여관,모텔",127.10955678388318,37.51554627579237,서울 송파구 오금로11길 21-12,http://place.map.kakao.com/20744674
오로시에호텔,숙박,여행 > 숙박 > 호텔,127.109154381585,37.5157385620547,서울 송파구 오금로11길 21-19,http://place.map.kakao.com/884676592
루이체호텔,숙박,"여행 > 숙박 > 여관,모텔",127.10967405735,37.5152974900376,서울 송파구 오금로11길 21-6,http://place.map.kakao.com/20741364
셀레네모텔,숙박,"여행 > 숙박 > 여관,모텔",127.10922208534188,37.515625874055445,서울 송파구 오금로11길 21-15,http://place.map.kakao.com/13504272
호텔어반,숙박,"여행 > 숙박 > 여관,모텔",127.109896677403,37.5159243814198,서울 송파구 오금로11길 23-18,http://place.map.kakao.com/1223503997
하오호텔,숙박,"여행 > 숙박 > 여관,모텔",127.1099958733972,37.515690028232775,서울 송파구 오금로11길 23-14,http://place.map.kakao.com/1542188815
월호텔,숙박,"여행 > 숙박 > 여관,모텔",127.109932704529,37.5158090194759,서울 송파구 오금로11길 23-16,http://place.map.kakao.com/1956298740
첼로호텔,숙박,"여행 > 숙박 > 여관,모텔",127.10961829709628,37.51584174780149,서울 송파구 오금로11길 23-19,http://place.map.kakao.com/8095299
쿠키모텔,숙박,"여행 > 숙박 > 여관,모텔",127.1088075855483,37.515277568325914,서울 송파구 올림픽로32길 8,http://place.map.kakao.com/16046883
라자호텔,숙박,"여행 > 숙박 > 여관,모텔",127.1082365120245,37.5153781043873,서울 송파구 오금로11길 11-21,http://place.map.kakao.com/14563614
HL호텔,숙박,"여행 > 숙박 > 여관,모텔",127.11004546983943,37.51557195060281,서울 송파구 오금로11길 23-12,http://place.map.kakao.com/1910436265
타임모텔,숙박,"여행 > 숙박 > 여관,모텔",127.10875822531824,37.515559627832694,서울 송파구 올림픽로32길 4,http://place.map.kakao.com/16296118
그랜드워커힐서울 더글라스하우스,숙박,여행 > 숙박 > 호텔,127.10926396782337,37.55597172437248,서울 광진구 워커힐로 177,http://place.map.kakao.com/18049492
포레스트파크,숙박,"여행 > 숙박 > 야영,캠핑장 > 글램핑장",127.109536017507,37.5578131101653,서울 광진구 워커힐로 177,http://place.map.kakao.com/1630485428
중랑가족캠핑장,숙박,"여행 > 숙박 > 야영,캠핑장",127.10995957035956,37.60495358417452,서울 중랑구 망우로87길 110,http://place.map.kakao.com/2073358160
엑스플레이,숙박,여행 > 숙박 > 민박,127.111816452816,37.5047104846002,서울 송파구 가락로23길 16-11,http://place.map.kakao.com/651430714
호텔자자,숙박,"여행 > 숙박 > 여관,모텔",127.11239733701495,37.51573642161813,서울 송파구 오금로11길 47,http://place.map.kakao.com/16081235
호텔까사,숙박,여행 > 숙박 > 호텔,127.110950996001,37.5159918720032,서울 송파구 올림픽로34길 7,http://place.map.kakao.com/27104326
머니호텔,숙박,"여행 > 숙박 > 여관,모텔",127.110968907389,37.515865714722,서울 송파구 올림픽로34길 9,http://place.map.kakao.com/17475026
IMT호텔,숙박,"여행 > 숙박 > 여관,모텔",127.11077477328068,37.51615061397403,서울 송파구 올림픽로34길 5,http://place.map.kakao.com/22252593
아이다호텔,숙박,"여행 > 숙박 > 여관,모텔",127.110937913202,37.5163234534746,서울 송파구 올림픽로34길 3-6,http://place.map.kakao.com/9258618
비스타워커힐서울,숙박,여행 > 숙박 > 호텔 > 특급호텔,127.11111536900728,37.55436171647713,서울 광진구 워커힐로 177,http://place.map.kakao.com/18192988
그랜드워커힐서울,숙박,여행 > 숙박 > 호텔,127.11089257243468,37.55522778434594,서울 광진구 워커힐로 177,http://place.map.kakao.com/24008908
호텔2.4,숙박,여행 > 숙박 > 호텔,127.113873466246,37.5157368097333,서울 송파구 오금로11길 55-16,http://place.map.kakao.com/1839646753
호텔 동그라미,숙박,"여행 > 숙박 > 여관,모텔",127.112860352409,37.5159900630253,서울 송파구 오금로11길 47-10,http://place.map.kakao.com/334275344
올리브호텔,숙박,"여행 > 숙박 > 여관,모텔",127.1137518907484,37.51612345726408,서울 송파구 오금로11길 55-21,http://place.map.kakao.com/20743570
서울올림픽파크텔,숙박,여행 > 숙박 > 호텔,127.116548674829,37.522333144294,서울 송파구 올림픽로 448,http://place.map.kakao.com/17806940
가락관광호텔,숙박,여행 > 숙박 > 호텔,127.118756922158,37.4938267698431,서울 송파구 송파대로28길 5,http://place.map.kakao.com/10955780
캘리포니아관광호텔,숙박,여행 > 숙박 > 호텔,127.119169066154,37.4941615292565,서울 송파구 송파대로28길 11,http://place.map.kakao.com/9488168
부티크호텔XYM,숙박,여행 > 숙박 > 호텔,127.1213955298408,37.49689651948026,서울 송파구 송이로 104,http://place.map.kakao.com/1287229146
씨티빌,숙박,여행 > 숙박 > 게스트하우스,127.1199097802,37.5132765027225,서울 송파구 가락로 285,http://place.map.kakao.com/109129029
한강모텔,숙박,"여행 > 숙박 > 여관,모텔",127.121499767736,37.5423664092934,서울 강동구 구천면로 147,http://place.map.kakao.com/20562009
호텔파크하비오,숙박,여행 > 숙박 > 호텔,127.1235091461094,37.48182408213381,서울 송파구 송파대로 111,http://place.map.kakao.com/1805423323
무오래모텔,숙박,"여행 > 숙박 > 여관,모텔",127.1241928444666,37.539651599760965,서울 강동구 올림픽로 654-5,http://place.map.kakao.com/20243414
리베하우스게스트하우스,숙박,여행 > 숙박 > 게스트하우스,127.125869753506,37.5342870728332,서울 강동구 천호옛12길 24-12,http://place.map.kakao.com/1540427635
호텔더블루,숙박,"여행 > 숙박 > 여관,모텔",127.124867000415,37.5395229469062,서울 강동구 올림픽로72길 20,http://place.map.kakao.com/2135445279
히트호텔,숙박,"여행 > 숙박 > 여관,모텔",127.125631833331,37.5394896997185,서울 강동구 구천면로24길 28,http://place.map.kakao.com/1993040504
호텔야자 천호역점,숙박,"여행 > 숙박 > 여관,모텔",127.126834615006,37.5388252783133,서울 강동구 올림픽로70길 56-5,http://place.map.kakao.com/27323841
모텔펠리스,숙박,"여행 > 숙박 > 여관,모텔",127.12628447585908,37.538683509965786,서울 강동구 올림픽로70길 50-10,http://place.map.kakao.com/19925498
호텔H,숙박,"여행 > 숙박 > 여관,모텔",127.126112058382,37.5397702996889,서울 강동구 구천면로24길 19,http://place.map.kakao.com/394042119
라뷰호텔,숙박,"여행 > 숙박 > 여관,모텔",127.12484839603944,37.53990138636519,서울 강동구 올림픽로72길 11,http://place.map.kakao.com/1906166139
어거스트부띠끄호텔 천호점,숙박,"여행 > 숙박 > 여관,모텔",127.126112580404,37.5400802429429,서울 강동구 구천면로24길 13,http://place.map.kakao.com/27445548
세븐호텔,숙박,"여행 > 숙박 > 여관,모텔",127.12474409577766,37.53977986165992,서울 강동구 올림픽로72길 13-1,http://place.map.kakao.com/582955837
바고관광호텔,숙박,여행 > 숙박 > 호텔,127.125058386577,37.545718013845,서울 강동구 천중로 27,http://place.map.kakao.com/17945462
올림포스모텔,숙박,"여행 > 숙박 > 여관,모텔",127.125420553765,37.545753669671,서울 강동구 천중로 31,http://place.map.kakao.com/23915059
마린레이크,숙박,"여행 > 숙박 > 야영,캠핑장",127.126217055422,37.5456735331143,서울 강동구 올림픽로 722,http://place.map.kakao.com/434128601
아리아호텔,숙박,"여행 > 숙박 > 여관,모텔",127.128186544201,37.5380525628294,서울 강동구 천호대로 1041-7,http://place.map.kakao.com/869103131
씨티모텔,숙박,"여행 > 숙박 > 여관,모텔",127.128769252003,37.5400269199123,서울 강동구 진황도로 9,http://place.map.kakao.com/18841307
동호장,숙박,"여행 > 숙박 > 여관,모텔",127.127954919425,37.5428785665614,서울 강동구 올림픽로80길 51,http://place.map.kakao.com/16474867
금성모텔,숙박,"여행 > 숙박 > 여관,모텔",127.130670542755,37.5272702701211,서울 강동구 성안로 40,http://place.map.kakao.com/20746652
예스모텔,숙박,"여행 > 숙박 > 여관,모텔",127.129930711728,37.5390345482708,서울 강동구 진황도로 24,http://place.map.kakao.com/1709362606
H모텔,숙박,"여행 > 숙박 > 여관,모텔",127.131827631321,37.5444888965802,서울 강동구 천중로 90,http://place.map.kakao.com/16902763
그린장모텔,숙박,"여행 > 숙박 > 여관,모텔",127.129614728763,37.5499730199754,서울 강동구 올림픽로98길 50,http://place.map.kakao.com/16056085
스카이모텔,숙박,"여행 > 숙박 > 여관,모텔",127.129925874391,37.5545028936248,서울 강동구 고덕로 42,http://place.map.kakao.com/16442488
월호텔,숙박,"여행 > 숙박 > 여관,모텔",127.1335066638537,37.53421561622072,서울 강동구 성안로 121,http://place.map.kakao.com/1008880584
발리관광호텔,숙박,여행 > 숙박 > 호텔,127.1350168563202,37.529060175654855,서울 강동구 풍성로 210,http://place.map.kakao.com/23391334
오리엔트호텔,숙박,"여행 > 숙박 > 여관,모텔",127.1381365714358,37.53553476152035,서울 강동구 진황도로 105,http://place.map.kakao.com/9281348
호텔아르고,숙박,"여행 > 숙박 > 여관,모텔",127.13694401571787,37.5361389194365,서울 강동구 진황도로 93,http://place.map.kakao.com/12367745
일루와모텔,숙박,"여행 > 숙박 > 여관,모텔",127.138969324436,37.5367645503718,서울 강동구 양재대로109길 26,http://place.map.kakao.com/2100637257
보보스모텔,숙박,"여행 > 숙박 > 여관,모텔",127.138121160156,37.5357672375442,서울 강동구 진황도로43길 3,http://place.map.kakao.com/17979592
하모니호텔,숙박,여행 > 숙박 > 호텔,127.13808945343474,37.53820718205043,서울 강동구 천중로40길 63,http://place.map.kakao.com/25492857
마리호텔,숙박,여행 > 숙박 > 호텔,127.138144678897,37.5374764067378,서울 강동구 양재대로111길 28,http://place.map.kakao.com/1895980183
러브이즈모텔,숙박,"여행 > 숙박 > 여관,모텔",127.13791914884922,37.537890229204,서울 강동구 천중로40길 71,http://place.map.kakao.com/1194780231
윈호텔,숙박,"여행 > 숙박 > 여관,모텔",127.1378711761102,37.5376452133112,서울 강동구 천중로40길 77,http://place.map.kakao.com/9959760
S호텔,숙박,"여행 > 숙박 > 여관,모텔",127.143461085439,37.5284447473852,서울 강동구 진황도로 200,http://place.map.kakao.com/25990532
청마장여관,숙박,"여행 > 숙박 > 여관,모텔",127.145601999855,37.4983990728487,서울 송파구 마천로 258,http://place.map.kakao.com/16588165
세원장여관,숙박,"여행 > 숙박 > 여관,모텔",127.153628176479,37.4925143488811,서울 송파구 마천로 355,http://place.map.kakao.com/16054325
강동그린웨이 가족캠핑장,숙박,"여행 > 숙박 > 야영,캠핑장",127.1540881919585,37.53587362320591,서울 강동구 천호대로206길 87,http://place.map.kakao.com/11455878
